{
"type": "FeatureCollection",
"name": "geo_30_小規模多機能型居宅介護",
"crs": { "type": "name", "properties": { "name": "urn:ogc:def:crs:OGC:1.3:CRS84" } },
"features": [
{ "type": "Feature", "properties": { "内容": "セントケア城北【小規模多機能型居宅介護】和歌山市　紀三井寺　８４０番地３９", "url": "https://www.kaigokensaku.mhlw.go.jp/30/index.php?action_kouhyou_detail_004_kani=true&JigyosyoCd=3090100219-00&ServiceCd=730&Type=search", "url2": "http://www.saint-care.com" }, "geometry": { "type": "Point", "coordinates": [ 135.182930199999987, 34.1859697 ] } },
{ "type": "Feature", "properties": { "内容": "あいの里第2小規模多機能型居宅介護事業所【小規模多機能型居宅介護】和歌山県和歌山市松原306-1", "url": "https://www.kaigokensaku.mhlw.go.jp/30/index.php?action_kouhyou_detail_004_kani=true&JigyosyoCd=3090100714-00&ServiceCd=730&Type=search", "url2": "http://www.ainosato-wa.or.jp" }, "geometry": { "type": "Point", "coordinates": [ 135.224679400000014, 34.1949525 ] } },
{ "type": "Feature", "properties": { "内容": "小規模多機能型居宅介護　紀楽【小規模多機能型居宅介護】紀三井寺754-1", "url": "https://www.kaigokensaku.mhlw.go.jp/30/index.php?action_kouhyou_detail_004_kani=true&JigyosyoCd=3090101860-00&ServiceCd=730&Type=search", "url2": "https://www.kisan.or.jp" }, "geometry": { "type": "Point", "coordinates": [ 135.186238925969263, 34.185426247294835 ] } },
{ "type": "Feature", "properties": { "内容": "松鶴松江壱番館【小規模多機能型居宅介護】和歌山県和歌山市松江東二丁目４－３２", "url": "https://www.kaigokensaku.mhlw.go.jp/30/index.php?action_kouhyou_detail_004_kani=true&JigyosyoCd=3090100193-00&ServiceCd=730&Type=search", "url2": null }, "geometry": { "type": "Point", "coordinates": [ 135.134885, 34.2458647 ] } },
{ "type": "Feature", "properties": { "内容": "松鶴野崎弐番館【小規模多機能型居宅介護】和歌山県和歌山市狐島５９０", "url": "https://www.kaigokensaku.mhlw.go.jp/30/index.php?action_kouhyou_detail_004_kani=true&JigyosyoCd=3090100581-00&ServiceCd=730&Type=search", "url2": null }, "geometry": { "type": "Point", "coordinates": [ 135.157681, 34.2471981 ] } },
{ "type": "Feature", "properties": { "内容": "株式会社あおぞらケアセンター小規模多機能型居宅介護【小規模多機能型居宅介護】和歌山市手平２丁目５番４９号", "url": "https://www.kaigokensaku.mhlw.go.jp/30/index.php?action_kouhyou_detail_004_kani=true&JigyosyoCd=3090100060-00&ServiceCd=730&Type=search", "url2": "http://asukaen.jp" }, "geometry": { "type": "Point", "coordinates": [ 135.188543200000026, 34.2177995 ] } },
{ "type": "Feature", "properties": { "内容": "セントケア城北クオーレ【小規模多機能型居宅介護】和歌山県和歌山市西釘貫丁2丁目1番地", "url": "https://www.kaigokensaku.mhlw.go.jp/30/index.php?action_kouhyou_detail_004_kani=true&JigyosyoCd=3090100995-00&ServiceCd=730&Type=search", "url2": null }, "geometry": { "type": "Point", "coordinates": [ 135.215255, 34.2087701 ] } },
{ "type": "Feature", "properties": { "内容": "小規模多機能ホームしあわせ【小規模多機能型居宅介護】中之島５００番地１０", "url": "https://www.kaigokensaku.mhlw.go.jp/30/index.php?action_kouhyou_detail_004_kani=true&JigyosyoCd=3090100185-00&ServiceCd=730&Type=search", "url2": "http://shiawase-kaigo.or.jp" }, "geometry": { "type": "Point", "coordinates": [ 135.187939799999981, 34.2428022 ] } },
{ "type": "Feature", "properties": { "内容": "あい楠見【小規模多機能型居宅介護】和歌山市楠見中197-8", "url": "https://www.kaigokensaku.mhlw.go.jp/30/index.php?action_kouhyou_detail_004_kani=true&JigyosyoCd=3090100078-00&ServiceCd=730&Type=search", "url2": "http://www.nakae.or.jp/contents/ai/index.html" }, "geometry": { "type": "Point", "coordinates": [ 135.1798844, 34.2547287 ] } },
{ "type": "Feature", "properties": { "内容": "あいの里　小規模多機能型居宅介護事業所【小規模多機能型居宅介護】和歌山県和歌山市相坂655-1", "url": "https://www.kaigokensaku.mhlw.go.jp/30/index.php?action_kouhyou_detail_004_kani=true&JigyosyoCd=3090100144-00&ServiceCd=730&Type=search", "url2": "http://www.ainosato-wa.or.jp" }, "geometry": { "type": "Point", "coordinates": [ 135.224415499999964, 34.1949581 ] } },
{ "type": "Feature", "properties": { "内容": "小規模多機能型ホーム紀伊松風苑そのべの丘【小規模多機能型居宅介護】和歌山県和歌山市園部1637番2", "url": "https://www.kaigokensaku.mhlw.go.jp/30/index.php?action_kouhyou_detail_004_kani=true&JigyosyoCd=3090100730-00&ServiceCd=730&Type=search", "url2": "http://www.kii-shoufuuen.jp/" }, "geometry": { "type": "Point", "coordinates": [ 135.190492992868002, 34.270827024557875 ] } },
{ "type": "Feature", "properties": { "内容": "春風会　わかのうら【小規模多機能型居宅介護】和歌山県和歌山市和歌浦中1丁目1番15号", "url": "https://www.kaigokensaku.mhlw.go.jp/30/index.php?action_kouhyou_detail_004_kani=true&JigyosyoCd=3090100904-00&ServiceCd=730&Type=search", "url2": "http://harukazekai.jp/" }, "geometry": { "type": "Point", "coordinates": [ 135.170272699999941, 34.1940905 ] } },
{ "type": "Feature", "properties": { "内容": "小規模多機能型居宅介護　てまりの里【小規模多機能型居宅介護】和歌山市府中２０－１", "url": "https://www.kaigokensaku.mhlw.go.jp/30/index.php?action_kouhyou_detail_004_kani=true&JigyosyoCd=3090100375-00&ServiceCd=730&Type=search", "url2": null }, "geometry": { "type": "Point", "coordinates": [ 135.223047899999983, 34.2635403 ] } },
{ "type": "Feature", "properties": { "内容": "小規模多機能型居宅介護ハルジオン【小規模多機能型居宅介護】和歌山市井ノ口３０１－１", "url": "https://www.kaigokensaku.mhlw.go.jp/30/index.php?action_kouhyou_detail_004_kani=true&JigyosyoCd=3090100367-00&ServiceCd=730&Type=search", "url2": "https://www.jukeikai.jp/" }, "geometry": { "type": "Point", "coordinates": [ 135.247663, 34.2388281 ] } },
{ "type": "Feature", "properties": { "内容": "セントケア中之島【小規模多機能型居宅介護】和歌山県和歌山市中之島2074番地", "url": "https://www.kaigokensaku.mhlw.go.jp/30/index.php?action_kouhyou_detail_004_kani=true&JigyosyoCd=3090101233-00&ServiceCd=730&Type=search", "url2": null }, "geometry": { "type": "Point", "coordinates": [ 135.18423729999995, 34.2418334 ] } },
{ "type": "Feature", "properties": { "内容": "ネクストホームやつなみ【小規模多機能型居宅介護】和歌山県和歌山市西庄489", "url": "https://www.kaigokensaku.mhlw.go.jp/30/index.php?action_kouhyou_detail_004_kani=true&JigyosyoCd=3090100805-00&ServiceCd=730&Type=search", "url2": null }, "geometry": { "type": "Point", "coordinates": [ 135.112742293470774, 34.26320901235826 ] } },
{ "type": "Feature", "properties": { "内容": "楠見介護センターすずらん【小規模多機能型居宅介護】和歌山市楠見中295-5", "url": "https://www.kaigokensaku.mhlw.go.jp/30/index.php?action_kouhyou_detail_004_kani=true&JigyosyoCd=3090100094-00&ServiceCd=730&Type=search", "url2": null }, "geometry": { "type": "Point", "coordinates": [ 135.175371945368965, 34.257045946745357 ] } },
{ "type": "Feature", "properties": { "内容": "楠見第２介護センターすずらん【小規模多機能型居宅介護】楠見中26-1", "url": "https://www.kaigokensaku.mhlw.go.jp/30/index.php?action_kouhyou_detail_004_kani=true&JigyosyoCd=3090100532-00&ServiceCd=730&Type=search", "url2": null }, "geometry": { "type": "Point", "coordinates": [ 135.176441649073809, 34.253618348587942 ] } },
{ "type": "Feature", "properties": { "内容": "楠見第3介護センターすずらん【小規模多機能型居宅介護】和歌山県和歌山市楠見中148-2楠見第3介護センターすずらん", "url": "https://www.kaigokensaku.mhlw.go.jp/30/index.php?action_kouhyou_detail_004_kani=true&JigyosyoCd=3090100862-00&ServiceCd=730&Type=search", "url2": null }, "geometry": { "type": "Point", "coordinates": [ 135.176320546279868, 34.254167131589362 ] } },
{ "type": "Feature", "properties": { "内容": "小規模多機能型居宅介護　第２あおぞら【小規模多機能型居宅介護】和歌山県和歌山市打越町３番３０号", "url": "https://www.kaigokensaku.mhlw.go.jp/30/index.php?action_kouhyou_detail_004_kani=true&JigyosyoCd=3090100391-00&ServiceCd=730&Type=search", "url2": "http://asukaen.jp" }, "geometry": { "type": "Point", "coordinates": [ 135.177061, 34.2026565 ] } },
{ "type": "Feature", "properties": { "内容": "ぱなさんぶる101【小規模多機能型居宅介護】和歌山市狐島266-4", "url": "https://www.kaigokensaku.mhlw.go.jp/30/index.php?action_kouhyou_detail_004_kani=true&JigyosyoCd=3090100573-00&ServiceCd=730&Type=search", "url2": null }, "geometry": { "type": "Point", "coordinates": [ 135.151151, 34.2429401 ] } },
{ "type": "Feature", "properties": { "内容": "小規模多機能型居宅介護事業所　恵友【小規模多機能型居宅介護】和歌山県海南市下津町小南126-1", "url": "https://www.kaigokensaku.mhlw.go.jp/30/index.php?action_kouhyou_detail_004_kani=true&JigyosyoCd=3091400014-00&ServiceCd=730&Type=search", "url2": "http//www.keiyukai.com/main/index.html" }, "geometry": { "type": "Point", "coordinates": [ 135.1681016, 34.1276798 ] } },
{ "type": "Feature", "properties": { "内容": "藤白ゆらり【小規模多機能型居宅介護】和歌山県海南市藤白１９", "url": "https://www.kaigokensaku.mhlw.go.jp/30/index.php?action_kouhyou_detail_004_kani=true&JigyosyoCd=3091400022-00&ServiceCd=730&Type=search", "url2": "http://www.sakuraclinic.org/publics/index/33/" }, "geometry": { "type": "Point", "coordinates": [ 135.21281972652821, 34.148182011213059 ] } },
{ "type": "Feature", "properties": { "内容": "小規模多機能型居宅介護ささゆり【小規模多機能型居宅介護】和歌山県海南市小野田812番地", "url": "https://www.kaigokensaku.mhlw.go.jp/30/index.php?action_kouhyou_detail_004_kani=true&JigyosyoCd=3091400089-00&ServiceCd=730&Type=search", "url2": null }, "geometry": { "type": "Point", "coordinates": [ 135.255458099999942, 34.1726429 ] } },
{ "type": "Feature", "properties": { "内容": "多機能ハウス　こうぜ【小規模多機能型居宅介護】和歌山県橋本市隅田町河瀬416番地", "url": "https://www.kaigokensaku.mhlw.go.jp/30/index.php?action_kouhyou_detail_004_kani=true&JigyosyoCd=3091000012-00&ServiceCd=730&Type=search", "url2": null }, "geometry": { "type": "Point", "coordinates": [ 135.626884013491775, 34.321994412636414 ] } },
{ "type": "Feature", "properties": { "内容": "ネオファミリー高野口【小規模多機能型居宅介護】和歌山県橋本市高野口町名倉１００－２", "url": "https://www.kaigokensaku.mhlw.go.jp/30/index.php?action_kouhyou_detail_004_kani=true&JigyosyoCd=3091000061-00&ServiceCd=730&Type=search", "url2": null }, "geometry": { "type": "Point", "coordinates": [ 135.55569289999994, 34.30477 ] } },
{ "type": "Feature", "properties": { "内容": "ゆりのき苑小規模多機能【小規模多機能型居宅介護】和歌山県有田市宮崎町456-1ゆりのき苑", "url": "https://www.kaigokensaku.mhlw.go.jp/30/index.php?action_kouhyou_detail_004_kani=true&JigyosyoCd=3091500094-00&ServiceCd=730&Type=search", "url2": "www.yurinokien.com" }, "geometry": { "type": "Point", "coordinates": [ 135.108834099999967, 34.0800424 ] } },
{ "type": "Feature", "properties": { "内容": "ゆりのき苑小規模多機能ありだ【小規模多機能型居宅介護】和歌山県有田市宮原町須谷538-2", "url": "https://www.kaigokensaku.mhlw.go.jp/30/index.php?action_kouhyou_detail_004_kani=true&JigyosyoCd=3091500102-00&ServiceCd=730&Type=search", "url2": "https://www.yurinokien.com/miyahara.html" }, "geometry": { "type": "Point", "coordinates": [ 135.189229899999987, 34.075164 ] } },
{ "type": "Feature", "properties": { "内容": "日高博愛園しおや【小規模多機能型居宅介護】和歌山県御坊市塩屋町北塩屋1246", "url": "https://www.kaigokensaku.mhlw.go.jp/30/index.php?action_kouhyou_detail_004_kani=true&JigyosyoCd=3092000086-00&ServiceCd=730&Type=search", "url2": "hakuaikai.net" }, "geometry": { "type": "Point", "coordinates": [ 135.1623763, 33.8732807 ] } },
{ "type": "Feature", "properties": { "内容": "小規模多機能ハウスあがら花まる【小規模多機能型居宅介護】御坊市　藤田町　藤井２１１８番地の６", "url": "https://www.kaigokensaku.mhlw.go.jp/30/index.php?action_kouhyou_detail_004_kani=true&JigyosyoCd=3092000029-00&ServiceCd=730&Type=search", "url2": "http://www.kikyokai.or.jp" }, "geometry": { "type": "Point", "coordinates": [ 135.173111699999936, 33.9059968 ] } },
{ "type": "Feature", "properties": { "内容": "小規模多機能型居宅介護施設Ｕハウス【小規模多機能型居宅介護】田辺市上の山二丁目１４番２９号１０１号", "url": "https://www.kaigokensaku.mhlw.go.jp/30/index.php?action_kouhyou_detail_004_kani=true&JigyosyoCd=3092200066-00&ServiceCd=730&Type=search", "url2": null }, "geometry": { "type": "Point", "coordinates": [ 135.3648303, 33.7348577 ] } },
{ "type": "Feature", "properties": { "内容": "小規模多機能型居宅介護事業所きずな館【小規模多機能型居宅介護】和歌山県田辺市龍神村宮代176", "url": "https://www.kaigokensaku.mhlw.go.jp/30/index.php?action_kouhyou_detail_004_kani=true&JigyosyoCd=3092200165-00&ServiceCd=730&Type=search", "url2": "https://www.wfj.or.jp/" }, "geometry": { "type": "Point", "coordinates": [ 135.498623100000032, 33.9140871 ] } },
{ "type": "Feature", "properties": { "内容": "小規模多機能型居宅介護事業所　なかはや【小規模多機能型居宅介護】和歌山県田辺市中芳養917－7", "url": "https://www.kaigokensaku.mhlw.go.jp/30/index.php?action_kouhyou_detail_004_kani=true&JigyosyoCd=3092200157-00&ServiceCd=730&Type=search", "url2": null }, "geometry": { "type": "Point", "coordinates": [ 135.355239500000039, 33.769372 ] } },
{ "type": "Feature", "properties": { "内容": "あおい介護センター【小規模多機能型居宅介護】和歌山県田辺市上屋敷2丁目12番7号", "url": "https://www.kaigokensaku.mhlw.go.jp/30/index.php?action_kouhyou_detail_004_kani=true&JigyosyoCd=3092200025-00&ServiceCd=730&Type=search", "url2": "http://aoi2006.jp/" }, "geometry": { "type": "Point", "coordinates": [ 135.376895847818474, 33.729566517555277 ] } },
{ "type": "Feature", "properties": { "内容": "鮎川いばの里小規模多機能型居宅介護事業所【小規模多機能型居宅介護】和歌山県田辺市鮎川３００３", "url": "https://www.kaigokensaku.mhlw.go.jp/30/index.php?action_kouhyou_detail_004_kani=true&JigyosyoCd=3092200082-00&ServiceCd=730&Type=search", "url2": "shinjuen@gaea.ocn.ne.jp" }, "geometry": { "type": "Point", "coordinates": [ 135.485322532380451, 33.723975141155393 ] } },
{ "type": "Feature", "properties": { "内容": "あじさい苑【小規模多機能型居宅介護】和歌山県岩出市西安上273番地", "url": "https://www.kaigokensaku.mhlw.go.jp/30/index.php?action_kouhyou_detail_004_kani=true&JigyosyoCd=3091800023-00&ServiceCd=730&Type=search", "url2": "http://www.tomita.or.jp" }, "geometry": { "type": "Point", "coordinates": [ 135.292988214680463, 34.279964325849321 ] } },
{ "type": "Feature", "properties": { "内容": "モモ【小規模多機能型居宅介護】和歌山県海草郡紀美野町鎌滝６３６", "url": "https://www.kaigokensaku.mhlw.go.jp/30/index.php?action_kouhyou_detail_004_kani=true&JigyosyoCd=3091100036-00&ServiceCd=730&Type=search", "url2": null }, "geometry": { "type": "Point", "coordinates": [ 135.383582400000023, 34.142069 ] } },
{ "type": "Feature", "properties": { "内容": "小規模多機能ホームぽっかぽか【小規模多機能型居宅介護】動木1579-1小規模多機能ホームぽっかぽか", "url": "https://www.kaigokensaku.mhlw.go.jp/30/index.php?action_kouhyou_detail_004_kani=true&JigyosyoCd=3091100044-00&ServiceCd=730&Type=search", "url2": "https://pokka-poka.com/inst.html" }, "geometry": { "type": "Point", "coordinates": [ 135.3058575, 34.1609636 ] } },
{ "type": "Feature", "properties": { "内容": "小規模多機能型居宅介護　わかばの郷【小規模多機能型居宅介護】和歌山県　有田郡有田川町　西丹生図　125-1", "url": "https://www.kaigokensaku.mhlw.go.jp/30/index.php?action_kouhyou_detail_004_kani=true&JigyosyoCd=3091600019-00&ServiceCd=730&Type=search", "url2": null }, "geometry": { "type": "Point", "coordinates": [ 135.224795299999982, 34.0659014 ] } },
{ "type": "Feature", "properties": { "内容": "小規模多機能型居宅介護事業所きららファミリー【小規模多機能型居宅介護】和歌山県日高郡美浜町和田１２３２番地４", "url": "https://www.kaigokensaku.mhlw.go.jp/30/index.php?action_kouhyou_detail_004_kani=true&JigyosyoCd=3092100035-00&ServiceCd=730&Type=search", "url2": null }, "geometry": { "type": "Point", "coordinates": [ 135.126857875393625, 33.897537769748311 ] } },
{ "type": "Feature", "properties": { "内容": "なごみ・みよせの里【小規模多機能型居宅介護】和歌山県日高郡日高川町三百瀬９７３番地", "url": "https://www.kaigokensaku.mhlw.go.jp/30/index.php?action_kouhyou_detail_004_kani=true&JigyosyoCd=3092100076-00&ServiceCd=730&Type=search", "url2": "http://www.zb.ztv.ne.jp/nagomi.miyosenosato/" }, "geometry": { "type": "Point", "coordinates": [ 135.243593791401679, 33.939902106296273 ] } },
{ "type": "Feature", "properties": { "内容": "小規模多機能型居宅介護ぱる【小規模多機能型居宅介護】２６６６", "url": "https://www.kaigokensaku.mhlw.go.jp/30/index.php?action_kouhyou_detail_004_kani=true&JigyosyoCd=3092400039-00&ServiceCd=730&Type=search", "url2": null }, "geometry": { "type": "Point", "coordinates": [ 135.353757632194515, 33.677538519547426 ] } },
{ "type": "Feature", "properties": { "内容": "小規模多機能ハウス「湯ごりの郷」【小規模多機能型居宅介護】和歌山県東牟婁郡那智勝浦町湯川６１番地高瀬会地域密着型バーデンライフ・ケアセンター湯ごりの郷", "url": "https://www.kaigokensaku.mhlw.go.jp/30/index.php?action_kouhyou_detail_004_kani=true&JigyosyoCd=3092500069-00&ServiceCd=730&Type=search", "url2": "http://www.takasekai.or.jp/" }, "geometry": { "type": "Point", "coordinates": [ 135.926895899999977, 33.6192971 ] } },
{ "type": "Feature", "properties": { "内容": "ほっとハウス　うわの園【小規模多機能型居宅介護】和歌山県東牟婁郡串本町潮岬６５９", "url": "https://www.kaigokensaku.mhlw.go.jp/30/index.php?action_kouhyou_detail_004_kani=true&JigyosyoCd=3092500036-00&ServiceCd=730&Type=search", "url2": "http://www.nishikien.ne.jp/" }, "geometry": { "type": "Point", "coordinates": [ 135.778423800000041, 33.4549054 ] } }
]
}
