{
"type": "FeatureCollection",
"name": "geo_30_幼稚園",
"crs": { "type": "name", "properties": { "name": "urn:ogc:def:crs:EPSG::6668" } },
"features": [
{ "type": "Feature", "properties": { "P29_001": "30201", "P29_002": "A130210000015", "P29_003": "16011", "P29_004": "和歌山市立岡山幼稚園", "P29_005": "和歌山県和歌山市吹上1-4-1", "P29_006": "3", "P29_007": "0", "P29_008": "00", "P29_009": null }, "geometry": { "type": "Point", "coordinates": [ 135.17089839917702, 34.224242265300774 ] } },
{ "type": "Feature", "properties": { "P29_001": "30201", "P29_002": "A130210000024", "P29_003": "16011", "P29_004": "和歌山市立中之島幼稚園", "P29_005": "和歌山県和歌山市中之島1495", "P29_006": "3", "P29_007": "0", "P29_008": "00", "P29_009": null }, "geometry": { "type": "Point", "coordinates": [ 135.186662930202345, 34.239806119007191 ] } },
{ "type": "Feature", "properties": { "P29_001": "30201", "P29_002": "A130210000033", "P29_003": "16011", "P29_004": "和歌山市立湊幼稚園", "P29_005": "和歌山県和歌山市湊2-17-40", "P29_006": "3", "P29_007": "0", "P29_008": "00", "P29_009": null }, "geometry": { "type": "Point", "coordinates": [ 135.144045003545955, 34.233038000063416 ] } },
{ "type": "Feature", "properties": { "P29_001": "30201", "P29_002": "A130210000042", "P29_003": "16011", "P29_004": "和歌山市立宮前幼稚園", "P29_005": "和歌山県和歌山市北中島1-7-4", "P29_006": "3", "P29_007": "0", "P29_008": "00", "P29_009": null }, "geometry": { "type": "Point", "coordinates": [ 135.186202452974442, 34.212342586403331 ] } },
{ "type": "Feature", "properties": { "P29_001": "30201", "P29_002": "A130210000051", "P29_003": "16011", "P29_004": "和歌山市立西和佐幼稚園", "P29_005": "和歌山県和歌山市栗栖70", "P29_006": "3", "P29_007": "0", "P29_008": "00", "P29_009": null }, "geometry": { "type": "Point", "coordinates": [ 135.227305676270959, 34.23813865274461 ] } },
{ "type": "Feature", "properties": { "P29_001": "30201", "P29_002": "A130210000060", "P29_003": "16011", "P29_004": "和歌山市立和佐幼稚園", "P29_005": "和歌山県和歌山市禰宜949", "P29_006": "3", "P29_007": "0", "P29_008": "00", "P29_009": null }, "geometry": { "type": "Point", "coordinates": [ 135.249498759561703, 34.235545152883603 ] } },
{ "type": "Feature", "properties": { "P29_001": "30201", "P29_002": "A130210000079", "P29_003": "16011", "P29_004": "和歌山市立西脇幼稚園", "P29_005": "和歌山県和歌山市西庄1012", "P29_006": "3", "P29_007": "0", "P29_008": "00", "P29_009": null }, "geometry": { "type": "Point", "coordinates": [ 135.10461600486309, 34.258964000467067 ] } },
{ "type": "Feature", "properties": { "P29_001": "30201", "P29_002": "A130210000088", "P29_003": "16011", "P29_004": "和歌山市立加太幼稚園", "P29_005": "和歌山県和歌山市加太1310", "P29_006": "3", "P29_007": "0", "P29_008": "00", "P29_009": null }, "geometry": { "type": "Point", "coordinates": [ 135.075727187947422, 34.274773313643173 ] } },
{ "type": "Feature", "properties": { "P29_001": "30201", "P29_002": "A130210000097", "P29_003": "16011", "P29_004": "和歌山市立紀伊幼稚園", "P29_005": "和歌山県和歌山市弘西317", "P29_006": "3", "P29_007": "0", "P29_008": "00", "P29_009": null }, "geometry": { "type": "Point", "coordinates": [ 135.238739610894839, 34.266402559596692 ] } },
{ "type": "Feature", "properties": { "P29_001": "30201", "P29_002": "A130210000104", "P29_003": "16011", "P29_004": "和歌山市立山口幼稚園", "P29_005": "和歌山県和歌山市里146", "P29_006": "3", "P29_007": "0", "P29_008": "00", "P29_009": null }, "geometry": { "type": "Point", "coordinates": [ 135.268703354152507, 34.267483645049488 ] } },
{ "type": "Feature", "properties": { "P29_001": "30201", "P29_002": "A130210000113", "P29_003": "16011", "P29_004": "和歌山市立雑賀崎幼稚園", "P29_005": "和歌山県和歌山市西浜1148", "P29_006": "3", "P29_007": "0", "P29_008": "00", "P29_009": null }, "geometry": { "type": "Point", "coordinates": [ 135.150564563558703, 34.19330965257943 ] } },
{ "type": "Feature", "properties": { "P29_001": "30202", "P29_002": "A130210000122", "P29_003": "16011", "P29_004": "海南市立内海幼稚園", "P29_005": "和歌山県海南市鳥居190", "P29_006": "3", "P29_007": "0", "P29_008": "00", "P29_009": null }, "geometry": { "type": "Point", "coordinates": [ 135.214153525766221, 34.150172617091329 ] } },
{ "type": "Feature", "properties": { "P29_001": "30202", "P29_002": "A130210000131", "P29_003": "16011", "P29_004": "海南市立大野幼稚園", "P29_005": "和歌山県海南市山田91-2", "P29_006": "3", "P29_007": "0", "P29_008": "00", "P29_009": null }, "geometry": { "type": "Point", "coordinates": [ 135.228070313458886, 34.148577951586603 ] } },
{ "type": "Feature", "properties": { "P29_001": "30202", "P29_002": "A130210000140", "P29_003": "16011", "P29_004": "海南市立亀川幼稚園", "P29_005": "和歌山県海南市且来664-1", "P29_006": "3", "P29_007": "0", "P29_008": "00", "P29_009": null }, "geometry": { "type": "Point", "coordinates": [ 135.237027643406179, 34.171059709115958 ] } },
{ "type": "Feature", "properties": { "P29_001": "30202", "P29_002": "A130210000159", "P29_003": "16011", "P29_004": "海南市立巽幼稚園", "P29_005": "和歌山県海南市重根1203", "P29_006": "3", "P29_007": "0", "P29_008": "00", "P29_009": null }, "geometry": { "type": "Point", "coordinates": [ 135.255977249723941, 34.154976717365798 ] } },
{ "type": "Feature", "properties": { "P29_001": "30203", "P29_002": "A130210000177", "P29_003": "16011", "P29_004": "橋本市立境原幼稚園", "P29_005": "和歌山県橋本市小峰台1-25-1", "P29_006": "3", "P29_007": "0", "P29_008": "00", "P29_009": null }, "geometry": { "type": "Point", "coordinates": [ 135.627452111918814, 34.35140603567271 ] } },
{ "type": "Feature", "properties": { "P29_001": "30203", "P29_002": "A130210000186", "P29_003": "16011", "P29_004": "橋本市立紀見幼稚園", "P29_005": "和歌山県橋本市御幸辻284", "P29_006": "3", "P29_007": "0", "P29_008": "00", "P29_009": null }, "geometry": { "type": "Point", "coordinates": [ 135.603988189494345, 34.34041263913214 ] } },
{ "type": "Feature", "properties": { "P29_001": "30205", "P29_002": "A130210000195", "P29_003": "16011", "P29_004": "御坊市立名田幼稚園", "P29_005": "和歌山県御坊市名田町野島1-3", "P29_006": "3", "P29_007": "0", "P29_008": "00", "P29_009": null }, "geometry": { "type": "Point", "coordinates": [ 135.17846229725285, 33.832711116775251 ] } },
{ "type": "Feature", "properties": { "P29_001": "30205", "P29_002": "A130210000202", "P29_003": "16011", "P29_004": "御坊市立塩屋幼稚園", "P29_005": "和歌山県御坊市塩屋町南塩屋34", "P29_006": "3", "P29_007": "0", "P29_008": "00", "P29_009": null }, "geometry": { "type": "Point", "coordinates": [ 135.162511297525782, 33.868348712609254 ] } },
{ "type": "Feature", "properties": { "P29_001": "30205", "P29_002": "A130210000211", "P29_003": "16011", "P29_004": "御坊市立大成幼稚園", "P29_005": "和歌山県御坊市藤田町藤井2100", "P29_006": "3", "P29_007": "0", "P29_008": "00", "P29_009": null }, "geometry": { "type": "Point", "coordinates": [ 135.173898994082265, 33.906326540012429 ] } },
{ "type": "Feature", "properties": { "P29_001": "30206", "P29_002": "A130210000220", "P29_003": "16011", "P29_004": "田辺市立新庄幼稚園", "P29_005": "和歌山県田辺市新庄町1437", "P29_006": "3", "P29_007": "0", "P29_008": "00", "P29_009": null }, "geometry": { "type": "Point", "coordinates": [ 135.406737473238195, 33.71669272731129 ] } },
{ "type": "Feature", "properties": { "P29_001": "30206", "P29_002": "A130210000239", "P29_003": "16011", "P29_004": "田辺市立中芳養幼稚園", "P29_005": "和歌山県田辺市中芳養1870-1", "P29_006": "3", "P29_007": "0", "P29_008": "00", "P29_009": null }, "geometry": { "type": "Point", "coordinates": [ 135.355412557207444, 33.77958026493031 ] } },
{ "type": "Feature", "properties": { "P29_001": "30206", "P29_002": "A130210000248", "P29_003": "16011", "P29_004": "田辺市立上秋津幼稚園", "P29_005": "和歌山県田辺市上秋津4524-4", "P29_006": "3", "P29_007": "0", "P29_008": "00", "P29_009": null }, "geometry": { "type": "Point", "coordinates": [ 135.410454706143497, 33.757903470371055 ] } },
{ "type": "Feature", "properties": { "P29_001": "30206", "P29_002": "A130210000257", "P29_003": "16011", "P29_004": "田辺市立三栖幼稚園", "P29_005": "和歌山県田辺市中三栖147-5", "P29_006": "3", "P29_007": "0", "P29_008": "00", "P29_009": null }, "geometry": { "type": "Point", "coordinates": [ 135.428763879353227, 33.738227966975664 ] } },
{ "type": "Feature", "properties": { "P29_001": "30207", "P29_002": "A130210000266", "P29_003": "16011", "P29_004": "新宮市立丹鶴幼稚園", "P29_005": "和歌山県新宮市新宮451-22", "P29_006": "3", "P29_007": "0", "P29_008": "00", "P29_009": null }, "geometry": { "type": "Point", "coordinates": [ 135.989791227758531, 33.726993562793531 ] } },
{ "type": "Feature", "properties": { "P29_001": "30202", "P29_002": "A130210000284", "P29_003": "16011", "P29_004": "海南市立下津幼稚園", "P29_005": "和歌山県海南市下津町下津477", "P29_006": "3", "P29_007": "0", "P29_008": "00", "P29_009": null }, "geometry": { "type": "Point", "coordinates": [ 135.153138498877212, 34.110204963827307 ] } },
{ "type": "Feature", "properties": { "P29_001": "30202", "P29_002": "A130210000293", "P29_003": "16011", "P29_004": "海南市立大東幼稚園", "P29_005": "和歌山県海南市下津町方1", "P29_006": "3", "P29_007": "0", "P29_008": "00", "P29_009": null }, "geometry": { "type": "Point", "coordinates": [ 135.152434801323011, 34.123804799113948 ] } },
{ "type": "Feature", "properties": { "P29_001": "30202", "P29_002": "A130210000300", "P29_003": "16011", "P29_004": "海南市立加茂川幼稚園", "P29_005": "和歌山県海南市下津町小松原32-1", "P29_006": "3", "P29_007": "0", "P29_008": "00", "P29_009": null }, "geometry": { "type": "Point", "coordinates": [ 135.185464679686504, 34.124851736914501 ] } },
{ "type": "Feature", "properties": { "P29_001": "30343", "P29_002": "A130210000328", "P29_003": "16011", "P29_004": "九度山町立九度山幼稚園", "P29_005": "和歌山県伊都郡九度山町九度山1074", "P29_006": "3", "P29_007": "0", "P29_008": "00", "P29_009": null }, "geometry": { "type": "Point", "coordinates": [ 135.563820965637262, 34.286796457552718 ] } },
{ "type": "Feature", "properties": { "P29_001": "30343", "P29_002": "A130210000337", "P29_003": "16011", "P29_004": "九度山町立河根幼稚園", "P29_005": "和歌山県伊都郡九度山町河根118", "P29_006": "3", "P29_007": "0", "P29_008": "00", "P29_009": null }, "geometry": { "type": "Point", "coordinates": [ 135.578306031956799, 34.274570601853107 ] } },
{ "type": "Feature", "properties": { "P29_001": "30341", "P29_002": "A130210000346", "P29_003": "16011", "P29_004": "かつらぎ町立花園幼稚園", "P29_005": "和歌山県伊都郡かつらぎ町花園梁瀬664-5", "P29_006": "3", "P29_007": "0", "P29_008": "00", "P29_009": null }, "geometry": { "type": "Point", "coordinates": [ 135.51676160549485, 34.136918359413663 ] } },
{ "type": "Feature", "properties": { "P29_001": "30362", "P29_002": "A130210000355", "P29_003": "16011", "P29_004": "広川町立広川なかよし子ども園", "P29_005": "和歌山県有田郡広川町広583", "P29_006": "3", "P29_007": "0", "P29_008": "00", "P29_009": null }, "geometry": { "type": "Point", "coordinates": [ 135.177660799326588, 34.023444780436023 ] } },
{ "type": "Feature", "properties": { "P29_001": "30401", "P29_002": "A130210000373", "P29_003": "16011", "P29_004": "白浜町立白浜第一幼稚園", "P29_005": "和歌山県西牟婁郡白浜町190", "P29_006": "3", "P29_007": "0", "P29_008": "00", "P29_009": null }, "geometry": { "type": "Point", "coordinates": [ 135.34960876048433, 33.69032104716463 ] } },
{ "type": "Feature", "properties": { "P29_001": "30401", "P29_002": "A130210000382", "P29_003": "16011", "P29_004": "白浜町立富田幼稚園", "P29_005": "和歌山県西牟婁郡白浜町十九渕52-1", "P29_006": "3", "P29_007": "0", "P29_008": "00", "P29_009": null }, "geometry": { "type": "Point", "coordinates": [ 135.399179000803912, 33.661802997381159 ] } },
{ "type": "Feature", "properties": { "P29_001": "30428", "P29_002": "A130210000391", "P29_003": "16011", "P29_004": "串本町立潮岬こども園", "P29_005": "和歌山県東牟婁郡串本町潮岬3349-132", "P29_006": "3", "P29_007": "0", "P29_008": "00", "P29_009": null }, "geometry": { "type": "Point", "coordinates": [ 135.756849050638039, 33.447731361150318 ] } },
{ "type": "Feature", "properties": { "P29_001": "30205", "P29_002": "A130210000408", "P29_003": "16011", "P29_004": "御坊市立湯川幼稚園", "P29_005": "和歌山県御坊市湯川町財部831-1", "P29_006": "3", "P29_007": "0", "P29_008": "00", "P29_009": null }, "geometry": { "type": "Point", "coordinates": [ 135.159979112192133, 33.900194818069011 ] } },
{ "type": "Feature", "properties": { "P29_001": "30201", "P29_002": "A130310000013", "P29_003": "16011", "P29_004": "和歌山信愛幼稚園", "P29_005": "和歌山県和歌山市屋形町3-32", "P29_006": "4", "P29_007": "0", "P29_008": "00", "P29_009": null }, "geometry": { "type": "Point", "coordinates": [ 135.178894517281918, 34.227187970112851 ] } },
{ "type": "Feature", "properties": { "P29_001": "30201", "P29_002": "A130310000022", "P29_003": "16011", "P29_004": "日前幼稚園", "P29_005": "和歌山県和歌山市秋月365", "P29_006": "4", "P29_007": "0", "P29_008": "00", "P29_009": null }, "geometry": { "type": "Point", "coordinates": [ 135.201243081295615, 34.227508263668668 ] } },
{ "type": "Feature", "properties": { "P29_001": "30201", "P29_002": "A130310000031", "P29_003": "16011", "P29_004": "雄湊幼稚園", "P29_005": "和歌山県和歌山市道場町1-1", "P29_006": "4", "P29_007": "0", "P29_008": "00", "P29_009": null }, "geometry": { "type": "Point", "coordinates": [ 135.163847331469412, 34.230386100299384 ] } },
{ "type": "Feature", "properties": { "P29_001": "30206", "P29_002": "A130310000040", "P29_003": "16011", "P29_004": "昭和幼稚園", "P29_005": "和歌山県田辺市高雄2-16-16", "P29_006": "4", "P29_007": "0", "P29_008": "00", "P29_009": null }, "geometry": { "type": "Point", "coordinates": [ 135.383333902815821, 33.737381999416115 ] } },
{ "type": "Feature", "properties": { "P29_001": "30361", "P29_002": "A130310000059", "P29_003": "16011", "P29_004": "湯浅幼稚園", "P29_005": "和歌山県有田郡湯浅町湯浅785", "P29_006": "4", "P29_007": "0", "P29_008": "00", "P29_009": null }, "geometry": { "type": "Point", "coordinates": [ 135.177702708098792, 34.034662823940174 ] } },
{ "type": "Feature", "properties": { "P29_001": "30201", "P29_002": "A130310000068", "P29_003": "16011", "P29_004": "東山東幼稚園", "P29_005": "和歌山県和歌山市山東中124", "P29_006": "4", "P29_007": "0", "P29_008": "00", "P29_009": null }, "geometry": { "type": "Point", "coordinates": [ 135.257264614832252, 34.200990238547249 ] } },
{ "type": "Feature", "properties": { "P29_001": "30404", "P29_002": "A130310000077", "P29_003": "16011", "P29_004": "岩田幼稚園", "P29_005": "和歌山県西牟婁郡上富田町岩田1764-1", "P29_006": "4", "P29_007": "0", "P29_008": "00", "P29_009": null }, "geometry": { "type": "Point", "coordinates": [ 135.443961813800712, 33.706791895230275 ] } },
{ "type": "Feature", "properties": { "P29_001": "30202", "P29_002": "A130310000086", "P29_003": "16011", "P29_004": "マリア幼稚園", "P29_005": "和歌山県海南市日方1273-4", "P29_006": "4", "P29_007": "0", "P29_008": "00", "P29_009": null }, "geometry": { "type": "Point", "coordinates": [ 135.207562004703789, 34.155990004904254 ] } },
{ "type": "Feature", "properties": { "P29_001": "30201", "P29_002": "A130310000095", "P29_003": "16011", "P29_004": "さくら幼稚園", "P29_005": "和歌山県和歌山市吹上3-1-41", "P29_006": "4", "P29_007": "0", "P29_008": "00", "P29_009": null }, "geometry": { "type": "Point", "coordinates": [ 135.169948085535509, 34.218535847781801 ] } },
{ "type": "Feature", "properties": { "P29_001": "30201", "P29_002": "A130310000102", "P29_003": "16011", "P29_004": "野崎幼稚園", "P29_005": "和歌山県和歌山市梶取86", "P29_006": "4", "P29_007": "0", "P29_008": "00", "P29_009": null }, "geometry": { "type": "Point", "coordinates": [ 135.161129875548909, 34.252725917156575 ] } },
{ "type": "Feature", "properties": { "P29_001": "30209", "P29_002": "A130310000111", "P29_003": "16011", "P29_004": "和歌山中央幼稚園", "P29_005": "和歌山県岩出市波分32", "P29_006": "4", "P29_007": "0", "P29_008": "00", "P29_009": null }, "geometry": { "type": "Point", "coordinates": [ 135.302787849892013, 34.271905899364661 ] } },
{ "type": "Feature", "properties": { "P29_001": "30201", "P29_002": "A130310000139", "P29_003": "16011", "P29_004": "ナザレ幼稚園", "P29_005": "和歌山県和歌山市堀止西2-4-9", "P29_006": "4", "P29_007": "0", "P29_008": "00", "P29_009": null }, "geometry": { "type": "Point", "coordinates": [ 135.167877649311578, 34.212518988132032 ] } },
{ "type": "Feature", "properties": { "P29_001": "30201", "P29_002": "A130310000148", "P29_003": "16011", "P29_004": "鷺森幼稚園", "P29_005": "和歌山県和歌山市鷺森1", "P29_006": "4", "P29_007": "0", "P29_008": "00", "P29_009": null }, "geometry": { "type": "Point", "coordinates": [ 135.171445780835398, 34.236081807912093 ] } },
{ "type": "Feature", "properties": { "P29_001": "30204", "P29_002": "A130310000157", "P29_003": "16011", "P29_004": "初島幼稚園", "P29_005": "和歌山県有田市初島町浜1769-1", "P29_006": "4", "P29_007": "0", "P29_008": "00", "P29_009": null }, "geometry": { "type": "Point", "coordinates": [ 135.114492206647355, 34.100824096009823 ] } },
{ "type": "Feature", "properties": { "P29_001": "30205", "P29_002": "A130310000166", "P29_003": "16011", "P29_004": "御坊幼稚園", "P29_005": "和歌山県御坊市御坊100", "P29_006": "4", "P29_007": "0", "P29_008": "00", "P29_009": null }, "geometry": { "type": "Point", "coordinates": [ 135.157855782443335, 33.887812934605009 ] } },
{ "type": "Feature", "properties": { "P29_001": "30206", "P29_002": "A130310000184", "P29_003": "16011", "P29_004": "田辺幼稚園", "P29_005": "和歌山県田辺市上屋敷1-5-10", "P29_006": "4", "P29_007": "0", "P29_008": "00", "P29_009": null }, "geometry": { "type": "Point", "coordinates": [ 135.375973002687942, 33.73163799688686 ] } },
{ "type": "Feature", "properties": { "P29_001": "30206", "P29_002": "A130310000193", "P29_003": "16011", "P29_004": "紀南幼稚園", "P29_005": "和歌山県田辺市下屋敷町80", "P29_006": "4", "P29_007": "0", "P29_008": "00", "P29_009": null }, "geometry": { "type": "Point", "coordinates": [ 135.381620336918132, 33.730051841844819 ] } },
{ "type": "Feature", "properties": { "P29_001": "30206", "P29_002": "A130310000200", "P29_003": "16011", "P29_004": "シオン幼稚園", "P29_005": "和歌山県田辺市朝日ヶ丘12-26", "P29_006": "4", "P29_007": "0", "P29_008": "00", "P29_009": null }, "geometry": { "type": "Point", "coordinates": [ 135.393111696670189, 33.73363325533925 ] } },
{ "type": "Feature", "properties": { "P29_001": "30341", "P29_002": "A130310000219", "P29_003": "16011", "P29_004": "聖心幼稚園", "P29_005": "和歌山県伊都郡かつらぎ町笠田東577", "P29_006": "4", "P29_007": "0", "P29_008": "00", "P29_009": null }, "geometry": { "type": "Point", "coordinates": [ 135.474366293730696, 34.288197706199547 ] } },
{ "type": "Feature", "properties": { "P29_001": "30201", "P29_002": "A130310000228", "P29_003": "16011", "P29_004": "松風幼稚園", "P29_005": "和歌山県和歌山市和田438", "P29_006": "4", "P29_007": "0", "P29_008": "00", "P29_009": null }, "geometry": { "type": "Point", "coordinates": [ 135.205250154960623, 34.200653890427816 ] } },
{ "type": "Feature", "properties": { "P29_001": "30201", "P29_002": "A130310000237", "P29_003": "16011", "P29_004": "たちばな幼稚園", "P29_005": "和歌山県和歌山市西819", "P29_006": "4", "P29_007": "0", "P29_008": "00", "P29_009": null }, "geometry": { "type": "Point", "coordinates": [ 135.219162785436708, 34.208514980700791 ] } },
{ "type": "Feature", "properties": { "P29_001": "30201", "P29_002": "A130310000246", "P29_003": "16011", "P29_004": "安原幼稚園", "P29_005": "和歌山県和歌山市松原212", "P29_006": "4", "P29_007": "0", "P29_008": "00", "P29_009": null }, "geometry": { "type": "Point", "coordinates": [ 135.231939508263423, 34.19044163754544 ] } },
{ "type": "Feature", "properties": { "P29_001": "30204", "P29_002": "A130310000255", "P29_003": "16011", "P29_004": "ぶっとく幼稚園", "P29_005": "和歌山県有田市箕島341", "P29_006": "4", "P29_007": "0", "P29_008": "00", "P29_009": null }, "geometry": { "type": "Point", "coordinates": [ 135.119125474959247, 34.08623297324435 ] } },
{ "type": "Feature", "properties": { "P29_001": "30391", "P29_002": "A130310000264", "P29_003": "16011", "P29_004": "白梅幼稚園", "P29_005": "和歌山県日高郡みなべ町晩稲438-1", "P29_006": "4", "P29_007": "0", "P29_008": "00", "P29_009": null }, "geometry": { "type": "Point", "coordinates": [ 135.339515454452197, 33.786895402617837 ] } },
{ "type": "Feature", "properties": { "P29_001": "30209", "P29_002": "A130310000273", "P29_003": "16011", "P29_004": "おのみなと紀泉台幼稚園", "P29_005": "和歌山県岩出市相谷408-1", "P29_006": "4", "P29_007": "0", "P29_008": "00", "P29_009": null }, "geometry": { "type": "Point", "coordinates": [ 135.285644376910966, 34.280933848206075 ] } },
{ "type": "Feature", "properties": { "P29_001": "30208", "P29_002": "A130310000282", "P29_003": "16011", "P29_004": "智徳幼稚園", "P29_005": "和歌山県紀の川市中三谷17-1", "P29_006": "4", "P29_007": "0", "P29_008": "00", "P29_009": null }, "geometry": { "type": "Point", "coordinates": [ 135.343061493404491, 34.271840828778394 ] } },
{ "type": "Feature", "properties": { "P29_001": "30208", "P29_002": "A130310000291", "P29_003": "16011", "P29_004": "あおば幼稚園", "P29_005": "和歌山県紀の川市貴志川町岸小野207", "P29_006": "4", "P29_007": "0", "P29_008": "00", "P29_009": null }, "geometry": { "type": "Point", "coordinates": [ 135.325571426498101, 34.20629419632597 ] } }
]
}
