{
"type": "FeatureCollection",
"name": "geo_30_短期入所療養介護(療養病床を有する病院等）",
"crs": { "type": "name", "properties": { "name": "urn:ogc:def:crs:OGC:1.3:CRS84" } },
"features": [
{ "type": "Feature", "properties": { "内容": "医療法人昭陽会綿貫整形外科【短期入所療養介護(療養病床を有する病院等）】北野281番地", "url": "https://www.kaigokensaku.mhlw.go.jp/30/index.php?action_kouhyou_detail_004_kani=true&JigyosyoCd=3070115252-00&ServiceCd=&Type=search", "url2": "http://watanuki.or.jp" }, "geometry": { "type": "Point", "coordinates": [ 139.4237274, 35.7929009 ] } },
{ "type": "Feature", "properties": { "内容": "紀の川クリニック【短期入所療養介護(療養病床を有する病院等）】和歌山県岩出市西国分501番地1", "url": "https://www.kaigokensaku.mhlw.go.jp/30/index.php?action_kouhyou_detail_004_kani=true&JigyosyoCd=3071800852-00&ServiceCd=&Type=search", "url2": "http://www.hakubunkai.com" }, "geometry": { "type": "Point", "coordinates": [ 135.3317166, 34.2655359 ] } },
{ "type": "Feature", "properties": { "内容": "白浜はまゆう病院介護医療院【短期入所療養介護(療養病床を有する病院等）】和歌山県西牟婁郡白浜町1447", "url": "https://www.kaigokensaku.mhlw.go.jp/30/index.php?action_kouhyou_detail_004_kani=true&JigyosyoCd=30B2400018-00&ServiceCd=&Type=search", "url2": "http://www.hamayu-hp.or.jp/" }, "geometry": { "type": "Point", "coordinates": [ 135.348189600000012, 33.6781397 ] } }
]
}
