{
"type": "FeatureCollection",
"name": "geo_30_各種学校",
"crs": { "type": "name", "properties": { "name": "urn:ogc:def:crs:EPSG::6668" } },
"features": [
{ "type": "Feature", "properties": { "P29_001": "30201", "P29_002": "H230310000026", "P29_003": "16015", "P29_004": "和歌山東部珠算学校", "P29_005": "和歌山県和歌山市鳴神248-41", "P29_006": "4", "P29_007": "0", "P29_008": "00", "P29_009": null }, "geometry": { "type": "Point", "coordinates": [ 135.215732097903327, 34.22832107989511 ] } },
{ "type": "Feature", "properties": { "P29_001": "30201", "P29_002": "H230310000035", "P29_003": "16015", "P29_004": "高垣計算実務学校", "P29_005": "和歌山県和歌山市六十谷420-3", "P29_006": "4", "P29_007": "0", "P29_008": "00", "P29_009": null }, "geometry": { "type": "Point", "coordinates": [ 135.206335316445291, 34.263080230668294 ] } },
{ "type": "Feature", "properties": { "P29_001": "30201", "P29_002": "H230310000044", "P29_003": "16015", "P29_004": "藤井計算実務学校", "P29_005": "和歌山県和歌山市太田586", "P29_006": "4", "P29_007": "0", "P29_008": "00", "P29_009": null }, "geometry": { "type": "Point", "coordinates": [ 135.198258589186565, 34.23163544090221 ] } },
{ "type": "Feature", "properties": { "P29_001": "30201", "P29_002": "H230310000053", "P29_003": "16015", "P29_004": "和歌山県自動車学校", "P29_005": "和歌山県和歌山市園部1257", "P29_006": "4", "P29_007": "0", "P29_008": "00", "P29_009": null }, "geometry": { "type": "Point", "coordinates": [ 135.189495923585412, 34.255839978598274 ] } },
{ "type": "Feature", "properties": { "P29_001": "30201", "P29_002": "H230310000062", "P29_003": "16015", "P29_004": "塩屋自動車学校", "P29_005": "和歌山県和歌山市塩屋6-2-81", "P29_006": "4", "P29_007": "0", "P29_008": "00", "P29_009": null }, "geometry": { "type": "Point", "coordinates": [ 135.177877375960207, 34.196600928860292 ] } },
{ "type": "Feature", "properties": { "P29_001": "30201", "P29_002": "H230310000080", "P29_003": "16015", "P29_004": "和歌山朝鮮初中級学校", "P29_005": "和歌山県和歌山市中島3-1", "P29_006": "4", "P29_007": "0", "P29_008": "00", "P29_009": null }, "geometry": { "type": "Point", "coordinates": [ 135.1888828265798, 34.208775626379811 ] } },
{ "type": "Feature", "properties": { "P29_001": "30201", "P29_002": "H230310000106", "P29_003": "16015", "P29_004": "国際アークビジネス学校", "P29_005": "和歌山県和歌山市秋月198-6", "P29_006": "4", "P29_007": "0", "P29_008": "00", "P29_009": null }, "geometry": { "type": "Point", "coordinates": [ 135.206485390862952, 34.232291876589024 ] } },
{ "type": "Feature", "properties": { "P29_001": "30203", "P29_002": "H230310000115", "P29_003": "16015", "P29_004": "いわき料理学院", "P29_005": "和歌山県橋本市古佐田4-3-18", "P29_006": "4", "P29_007": "0", "P29_008": "00", "P29_009": null }, "geometry": { "type": "Point", "coordinates": [ 135.612546975365746, 34.319477060997137 ] } },
{ "type": "Feature", "properties": { "P29_001": "30206", "P29_002": "H230310000124", "P29_003": "16015", "P29_004": "関西洋裁学校", "P29_005": "和歌山県田辺市高雄2-3-6", "P29_006": "4", "P29_007": "0", "P29_008": "00", "P29_009": null }, "geometry": { "type": "Point", "coordinates": [ 135.383582457354805, 33.734541781654464 ] } },
{ "type": "Feature", "properties": { "P29_001": "30206", "P29_002": "H230310000133", "P29_003": "16015", "P29_004": "山本珠算学校", "P29_005": "和歌山県田辺市中屋敷町99", "P29_006": "4", "P29_007": "0", "P29_008": "00", "P29_009": null }, "geometry": { "type": "Point", "coordinates": [ 135.378984150813608, 33.730799870364578 ] } },
{ "type": "Feature", "properties": { "P29_001": "30206", "P29_002": "H230310000142", "P29_003": "16015", "P29_004": "堺計算実務学校", "P29_005": "和歌山県田辺市新万7-21", "P29_006": "4", "P29_007": "0", "P29_008": "00", "P29_009": null }, "geometry": { "type": "Point", "coordinates": [ 135.396137887866701, 33.732846168988431 ] } },
{ "type": "Feature", "properties": { "P29_001": "30206", "P29_002": "H230310000151", "P29_003": "16015", "P29_004": "山本計算実務学校", "P29_005": "和歌山県田辺市下万呂83-4", "P29_006": "4", "P29_007": "0", "P29_008": "00", "P29_009": null }, "geometry": { "type": "Point", "coordinates": [ 135.397845993800871, 33.742566728810381 ] } },
{ "type": "Feature", "properties": { "P29_001": "30206", "P29_002": "H230310000160", "P29_003": "16015", "P29_004": "田辺料理学校", "P29_005": "和歌山県田辺市中屋敷町24-25", "P29_006": "4", "P29_007": "0", "P29_008": "00", "P29_009": null }, "geometry": { "type": "Point", "coordinates": [ 135.37759247594164, 33.728554408909773 ] } },
{ "type": "Feature", "properties": { "P29_001": "30206", "P29_002": "H230310000179", "P29_003": "16015", "P29_004": "和歌山県田辺自動車学校", "P29_005": "和歌山県田辺市新庄町2070-5", "P29_006": "4", "P29_007": "0", "P29_008": "00", "P29_009": null }, "geometry": { "type": "Point", "coordinates": [ 135.40153316078937, 33.718568522150463 ] } },
{ "type": "Feature", "properties": { "P29_001": "30207", "P29_002": "H230310000188", "P29_003": "16015", "P29_004": "新宮市医師会准看護学院", "P29_005": "和歌山県新宮市伊佐田町1-2-12", "P29_006": "4", "P29_007": "0", "P29_008": "00", "P29_009": null }, "geometry": { "type": "Point", "coordinates": [ 135.993727106182121, 33.728261216288864 ] } },
{ "type": "Feature", "properties": { "P29_001": "30207", "P29_002": "H230310000204", "P29_003": "16015", "P29_004": "新宮料理学院", "P29_005": "和歌山県新宮市千穂1-1-48", "P29_006": "4", "P29_007": "0", "P29_008": "00", "P29_009": null }, "geometry": { "type": "Point", "coordinates": [ 135.986375492718821, 33.725193334180517 ] } },
{ "type": "Feature", "properties": { "P29_001": "30207", "P29_002": "H230310000213", "P29_003": "16015", "P29_004": "萩原きもの総合学院", "P29_005": "和歌山県新宮市井の沢5-16", "P29_006": "4", "P29_007": "0", "P29_008": "00", "P29_009": null }, "geometry": { "type": "Point", "coordinates": [ 135.990804821582003, 33.723158179075149 ] } },
{ "type": "Feature", "properties": { "P29_001": "30209", "P29_002": "H230310000222", "P29_003": "16015", "P29_004": "川端計算実務学校", "P29_005": "和歌山県岩出市水栖25-7", "P29_006": "4", "P29_007": "0", "P29_008": "00", "P29_009": null }, "geometry": { "type": "Point", "coordinates": [ 135.324323922329484, 34.268836374497653 ] } },
{ "type": "Feature", "properties": { "P29_001": "30391", "P29_002": "H230310000240", "P29_003": "16015", "P29_004": "南部珠算学校", "P29_005": "和歌山県日高郡みなべ町芝729", "P29_006": "4", "P29_007": "0", "P29_008": "00", "P29_009": null }, "geometry": { "type": "Point", "coordinates": [ 135.321851571099614, 33.771143604284646 ] } },
{ "type": "Feature", "properties": { "P29_001": "30391", "P29_002": "H230310000259", "P29_003": "16015", "P29_004": "みなべ自動車学校", "P29_005": "和歌山県日高郡みなべ町芝519", "P29_006": "4", "P29_007": "0", "P29_008": "00", "P29_009": null }, "geometry": { "type": "Point", "coordinates": [ 135.324142257277543, 33.768623568277235 ] } },
{ "type": "Feature", "properties": { "P29_001": "30401", "P29_002": "H230310000268", "P29_003": "16015", "P29_004": "叶計算実務学校", "P29_005": "和歌山県西牟婁郡白浜町堅田716-4", "P29_006": "4", "P29_007": "0", "P29_008": "00", "P29_009": null }, "geometry": { "type": "Point", "coordinates": [ 135.386247565145652, 33.664015319023889 ] } },
{ "type": "Feature", "properties": { "P29_001": "30401", "P29_002": "H230310000277", "P29_003": "16015", "P29_004": "栗栖珠算学校", "P29_005": "和歌山県西牟婁郡白浜町富田397-6", "P29_006": "4", "P29_007": "0", "P29_008": "00", "P29_009": null }, "geometry": { "type": "Point", "coordinates": [ 135.403897062796062, 33.645136139441988 ] } },
{ "type": "Feature", "properties": { "P29_001": "30421", "P29_002": "H230310000286", "P29_003": "16015", "P29_004": "米川計算実務学校", "P29_005": "和歌山県東牟婁郡那智勝浦町天満1675-3", "P29_006": "4", "P29_007": "0", "P29_008": "00", "P29_009": null }, "geometry": { "type": "Point", "coordinates": [ 135.931784577770031, 33.638737930301161 ] } },
{ "type": "Feature", "properties": { "P29_001": "30422", "P29_002": "H230310000295", "P29_003": "16015", "P29_004": "太地高等珠算学校", "P29_005": "和歌山県東牟婁郡太地町太地4028", "P29_006": "4", "P29_007": "0", "P29_008": "00", "P29_009": null }, "geometry": { "type": "Point", "coordinates": [ 135.944310293668963, 33.595145149428404 ] } }
]
}
