{
"type": "FeatureCollection",
"name": "geo_30_訪問入浴介護",
"crs": { "type": "name", "properties": { "name": "urn:ogc:def:crs:OGC:1.3:CRS84" } },
"features": [
{ "type": "Feature", "properties": { "内容": "はるす・訪問入浴サービス和歌山【訪問入浴介護】和歌山市園部1239-22", "url": "https://www.kaigokensaku.mhlw.go.jp/30/index.php?action_kouhyou_detail_004_kani=true&JigyosyoCd=3070102144-00&ServiceCd=120&Type=search", "url2": "https://hals-hals.co.jp/" }, "geometry": { "type": "Point", "coordinates": [ 135.167633799999976, 34.2018674 ] } },
{ "type": "Feature", "properties": { "内容": "訪問入浴サービス　フロムはーと【訪問入浴介護】和歌山市布施屋320番地7", "url": "https://www.kaigokensaku.mhlw.go.jp/30/index.php?action_kouhyou_detail_004_kani=true&JigyosyoCd=3070101906-00&ServiceCd=120&Type=search", "url2": null }, "geometry": { "type": "Point", "coordinates": [ 135.266931, 34.2403789 ] } },
{ "type": "Feature", "properties": { "内容": "アサヒサンクリーン株式会社　在宅介護センター和歌山【訪問入浴介護】和歌山県和歌山市黒田１７０－１102号室", "url": "https://www.kaigokensaku.mhlw.go.jp/30/index.php?action_kouhyou_detail_004_kani=true&JigyosyoCd=3070115112-00&ServiceCd=120&Type=search", "url2": "https://www.asahi-sun-clean.co.jp/" }, "geometry": { "type": "Point", "coordinates": [ 135.196015499999987, 34.2351368 ] } },
{ "type": "Feature", "properties": { "内容": "アースサポート和歌山【訪問入浴介護】和歌山県和歌山市吉田470番地", "url": "https://www.kaigokensaku.mhlw.go.jp/30/index.php?action_kouhyou_detail_004_kani=true&JigyosyoCd=3070106830-00&ServiceCd=120&Type=search", "url2": "http://www.earthsupport.co.jp" }, "geometry": { "type": "Point", "coordinates": [ 135.1877733, 34.2356723 ] } },
{ "type": "Feature", "properties": { "内容": "リトルバード和歌山訪問入浴センター【訪問入浴介護】和歌山市六十谷４８４番地", "url": "https://www.kaigokensaku.mhlw.go.jp/30/index.php?action_kouhyou_detail_004_kani=true&JigyosyoCd=3070105949-00&ServiceCd=120&Type=search", "url2": "wakayama@littlebird-nyuyoku.com" }, "geometry": { "type": "Point", "coordinates": [ 135.204854699999942, 34.2641785 ] } },
{ "type": "Feature", "properties": { "内容": "リトルバード紀三井寺訪問入浴センター【訪問入浴介護】和歌山市紀三井寺740-1", "url": "https://www.kaigokensaku.mhlw.go.jp/30/index.php?action_kouhyou_detail_004_kani=true&JigyosyoCd=3070115377-00&ServiceCd=120&Type=search", "url2": "kimiidera@littlebird-nyuyoku.com" }, "geometry": { "type": "Point", "coordinates": [ 135.186913003163653, 34.187509721060096 ] } },
{ "type": "Feature", "properties": { "内容": "はるす・訪問入浴サービス橋本【訪問入浴介護】和歌山県橋本市岸上563番地の1", "url": "https://www.kaigokensaku.mhlw.go.jp/30/index.php?action_kouhyou_detail_004_kani=true&JigyosyoCd=3071000321-00&ServiceCd=120&Type=search", "url2": "https://hals-hals.co.jp/" }, "geometry": { "type": "Point", "coordinates": [ 135.589620200000013, 34.3116331 ] } },
{ "type": "Feature", "properties": { "内容": "ステーション　つくし【訪問入浴介護】和歌山県御坊市湯川町富安1937-7", "url": "https://www.kaigokensaku.mhlw.go.jp/30/index.php?action_kouhyou_detail_004_kani=true&JigyosyoCd=3072000387-00&ServiceCd=120&Type=search", "url2": "https://www.station-tsukushi.com/" }, "geometry": { "type": "Point", "coordinates": [ 135.15378204098721, 33.915998277346354 ] } },
{ "type": "Feature", "properties": { "内容": "社会福祉法人田辺市社会福祉協議会田辺事業所【訪問入浴介護】和歌山県田辺市高雄一丁目23番1号田辺市民総合センター", "url": "https://www.kaigokensaku.mhlw.go.jp/30/index.php?action_kouhyou_detail_004_kani=true&JigyosyoCd=3072200169-00&ServiceCd=120&Type=search", "url2": "http://www.tanabeshi-syakyo.jp/" }, "geometry": { "type": "Point", "coordinates": [ 135.377379099999985, 33.7354965 ] } },
{ "type": "Feature", "properties": { "内容": "合同会社いいYOU【訪問入浴介護】和歌山県新宮市蓬莱１丁目４番47号", "url": "https://www.kaigokensaku.mhlw.go.jp/30/index.php?action_kouhyou_detail_004_kani=true&JigyosyoCd=3072300985-00&ServiceCd=120&Type=search", "url2": null }, "geometry": { "type": "Point", "coordinates": [ 135.99991, 33.7252755 ] } },
{ "type": "Feature", "properties": { "内容": "有田川町社会福祉協議会訪問入浴介護【訪問入浴介護】和歌山県有田郡有田川町角75番地1有田川町きび保健福祉センター内", "url": "https://www.kaigokensaku.mhlw.go.jp/30/index.php?action_kouhyou_detail_004_kani=true&JigyosyoCd=3071601003-00&ServiceCd=120&Type=search", "url2": "http://www.aridagawa‐shakyo.or.jp" }, "geometry": { "type": "Point", "coordinates": [ 135.21617615114971, 34.073763758799423 ] } },
{ "type": "Feature", "properties": { "内容": "社会福祉法人　印南町社会福祉協議会【訪問入浴介護】和歌山県日高郡印南町yamaguti145-1", "url": "https://www.kaigokensaku.mhlw.go.jp/30/index.php?action_kouhyou_detail_004_kani=true&JigyosyoCd=3072100013-00&ServiceCd=120&Type=search", "url2": "http://www.inami-syakyo.jp/" }, "geometry": { "type": "Point", "coordinates": [ 135.222513064417996, 33.820327812798126 ] } },
{ "type": "Feature", "properties": { "内容": "みなべ町訪問入浴事業所【訪問入浴介護】和歌山県日高郡みなべ町埴田1444番地1", "url": "https://www.kaigokensaku.mhlw.go.jp/30/index.php?action_kouhyou_detail_004_kani=true&JigyosyoCd=3072100039-00&ServiceCd=120&Type=search", "url2": "https://minabe-shakyo.or.jp/" }, "geometry": { "type": "Point", "coordinates": [ 135.326855477236904, 33.752389314501606 ] } },
{ "type": "Feature", "properties": { "内容": "ヘルパーステーション日高川町社協【訪問入浴介護】和歌山県日高郡日高川町土生160番地", "url": "https://www.kaigokensaku.mhlw.go.jp/30/index.php?action_kouhyou_detail_004_kani=true&JigyosyoCd=3072100153-00&ServiceCd=120&Type=search", "url2": "http://www.hidakagawa-shakyo.or.jp/" }, "geometry": { "type": "Point", "coordinates": [ 135.185624599999983, 33.9121631 ] } },
{ "type": "Feature", "properties": { "内容": "社会福祉法人古座川町社会福祉協議会【訪問入浴介護】和歌山県東牟婁郡古座川町川口254番地1古座川町保健福祉センター", "url": "https://www.kaigokensaku.mhlw.go.jp/30/index.php?action_kouhyou_detail_004_kani=true&JigyosyoCd=3072500204-00&ServiceCd=120&Type=search", "url2": "http://www.zd.ztv.ne.jp/kozagawa_shakyo/" }, "geometry": { "type": "Point", "coordinates": [ 135.775506823726232, 33.542367914467221 ] } }
]
}
