{
"type": "FeatureCollection",
"name": "geo_30_看護小規模多機能型居宅介護（複合型サービス）",
"crs": { "type": "name", "properties": { "name": "urn:ogc:def:crs:OGC:1.3:CRS84" } },
"features": [
{ "type": "Feature", "properties": { "内容": "セントケア看護小規模中之島【看護小規模多機能型居宅介護（複合型サービス）】和歌山県和歌山市中之島2074", "url": "https://www.kaigokensaku.mhlw.go.jp/30/index.php?action_kouhyou_detail_004_kani=true&JigyosyoCd=3090101258-00&ServiceCd=&Type=search", "url2": null }, "geometry": { "type": "Point", "coordinates": [ 135.18423729999995, 34.2418334 ] } },
{ "type": "Feature", "properties": { "内容": "幹はうす【看護小規模多機能型居宅介護（複合型サービス）】和歌山県和歌山市冬野703番地9", "url": "https://www.kaigokensaku.mhlw.go.jp/30/index.php?action_kouhyou_detail_004_kani=true&JigyosyoCd=3090101399-00&ServiceCd=&Type=search", "url2": "https://www.miki-zaitaku.com" }, "geometry": { "type": "Point", "coordinates": [ 135.21072430000001, 34.1910218 ] } },
{ "type": "Feature", "properties": { "内容": "セントケア看護小規模城北【看護小規模多機能型居宅介護（複合型サービス）】和歌山県和歌山市東布経丁３丁目６番地", "url": "https://www.kaigokensaku.mhlw.go.jp/30/index.php?action_kouhyou_detail_004_kani=true&JigyosyoCd=3090100755-00&ServiceCd=&Type=search", "url2": "http://saint-care.com" }, "geometry": { "type": "Point", "coordinates": [ 135.171816300000046, 34.2394076 ] } },
{ "type": "Feature", "properties": { "内容": "セントケア看護小規模木ノ本【看護小規模多機能型居宅介護（複合型サービス）】和歌山県和歌山市木ノ本599-1", "url": "https://www.kaigokensaku.mhlw.go.jp/30/index.php?action_kouhyou_detail_004_kani=true&JigyosyoCd=3090101605-00&ServiceCd=&Type=search", "url2": null }, "geometry": { "type": "Point", "coordinates": [ 135.1284047, 34.2652773 ] } },
{ "type": "Feature", "properties": { "内容": "看護小規模多機能型居宅介護　紀三井寺苑ほほえみ【看護小規模多機能型居宅介護（複合型サービス）】和歌山県和歌山市布引13-7", "url": "https://www.kaigokensaku.mhlw.go.jp/30/index.php?action_kouhyou_detail_004_kani=true&JigyosyoCd=3090101068-00&ServiceCd=&Type=search", "url2": "https://www.kisan.or.jp" }, "geometry": { "type": "Point", "coordinates": [ 135.187704899999972, 34.1744657 ] } },
{ "type": "Feature", "properties": { "内容": "楠見第４介護センターすずらん【看護小規模多機能型居宅介護（複合型サービス）】和歌山市楠見中296番地4", "url": "https://www.kaigokensaku.mhlw.go.jp/30/index.php?action_kouhyou_detail_004_kani=true&JigyosyoCd=3090101548-00&ServiceCd=&Type=search", "url2": null }, "geometry": { "type": "Point", "coordinates": [ 135.175651295661254, 34.255354531077984 ] } },
{ "type": "Feature", "properties": { "内容": "和歌山すみれ看護小規模多機能型居宅介護【看護小規模多機能型居宅介護（複合型サービス）】栗栖6-18", "url": "https://www.kaigokensaku.mhlw.go.jp/30/index.php?action_kouhyou_detail_004_kani=true&JigyosyoCd=3090101886-00&ServiceCd=&Type=search", "url2": "https://wakayama-sumire-v.jp/" }, "geometry": { "type": "Point", "coordinates": [ 135.21834, 34.23744 ] } },
{ "type": "Feature", "properties": { "内容": "看護小規模多機能紀伊【看護小規模多機能型居宅介護（複合型サービス）】和歌山県和歌山市北野117番地１高齢者総合ケアセンター紀伊", "url": "https://www.kaigokensaku.mhlw.go.jp/30/index.php?action_kouhyou_detail_004_kani=true&JigyosyoCd=3090100953-00&ServiceCd=&Type=search", "url2": "http://www.kiseikai-w.or.jp" }, "geometry": { "type": "Point", "coordinates": [ 135.247807452331244, 34.264910352713422 ] } },
{ "type": "Feature", "properties": { "内容": "生協中之島複合型サービス【看護小規模多機能型居宅介護（複合型サービス）】和歌山県和歌山市中之島880-2", "url": "https://www.kaigokensaku.mhlw.go.jp/30/index.php?action_kouhyou_detail_004_kani=true&JigyosyoCd=3090101563-00&ServiceCd=&Type=search", "url2": "http://www.w-iryoseikyo.com/" }, "geometry": { "type": "Point", "coordinates": [ 135.185714450262481, 34.243347364400869 ] } },
{ "type": "Feature", "properties": { "内容": "セントケア看護小規模かいなん【看護小規模多機能型居宅介護（複合型サービス）】和歌山県海南市重根東１丁目１番地７", "url": "https://www.kaigokensaku.mhlw.go.jp/30/index.php?action_kouhyou_detail_004_kani=true&JigyosyoCd=3091400196-00&ServiceCd=&Type=search", "url2": "https://www.saint-care.com/" }, "geometry": { "type": "Point", "coordinates": [ 135.2476892, 34.156717799999988 ] } },
{ "type": "Feature", "properties": { "内容": "阪井カルフール・ド・ルポ【看護小規模多機能型居宅介護（複合型サービス）】和歌山県海南市阪井1769番地1　1770番地1", "url": "https://www.kaigokensaku.mhlw.go.jp/30/index.php?action_kouhyou_detail_004_kani=true&JigyosyoCd=3091400162-00&ServiceCd=&Type=search", "url2": "http://www.doujin-kai.or.jp/lavie/" }, "geometry": { "type": "Point", "coordinates": [ 135.2540249, 34.1565282 ] } },
{ "type": "Feature", "properties": { "内容": "ナーシングホーム　千宝【看護小規模多機能型居宅介護（複合型サービス）】和歌山県橋本市高野口町大野334-3", "url": "https://www.kaigokensaku.mhlw.go.jp/30/index.php?action_kouhyou_detail_004_kani=true&JigyosyoCd=3091000194-00&ServiceCd=&Type=search", "url2": null }, "geometry": { "type": "Point", "coordinates": [ 135.5490423, 34.3024115 ] } },
{ "type": "Feature", "properties": { "内容": "医療法人南労会　ケアセンター森のこかげ【看護小規模多機能型居宅介護（複合型サービス）】隅田町河瀬416", "url": "https://www.kaigokensaku.mhlw.go.jp/30/index.php?action_kouhyou_detail_004_kani=true&JigyosyoCd=3091000145-00&ServiceCd=&Type=search", "url2": "http://www.nanroukai.or.jp" }, "geometry": { "type": "Point", "coordinates": [ 135.627043488979922, 34.322029961838929 ] } },
{ "type": "Feature", "properties": { "内容": "看護小規模多機能型居宅介護事業所　リビングケアささゆり【看護小規模多機能型居宅介護（複合型サービス）】和歌山県田辺市本宮町本宮667-6", "url": "https://www.kaigokensaku.mhlw.go.jp/30/index.php?action_kouhyou_detail_004_kani=true&JigyosyoCd=3092200280-00&ServiceCd=&Type=search", "url2": null }, "geometry": { "type": "Point", "coordinates": [ 135.769934, 33.8356325 ] } }
]
}
