{
"type": "FeatureCollection",
"name": "geo_30_小学校",
"crs": { "type": "name", "properties": { "name": "urn:ogc:def:crs:EPSG::6668" } },
"features": [
{ "type": "Feature", "properties": { "P29_001": "30201", "P29_002": "B130110000015", "P29_003": "16001", "P29_004": "和歌山大学教育学部附属小学校", "P29_005": "和歌山県和歌山市吹上1-4-1", "P29_006": "1", "P29_007": "1", "P29_008": "00", "P29_009": null }, "geometry": { "type": "Point", "coordinates": [ 135.171995377234595, 34.223522068499314 ] } },
{ "type": "Feature", "properties": { "P29_001": "30201", "P29_002": "B130210000013", "P29_003": "16001", "P29_004": "和歌山市立大新小学校", "P29_005": "和歌山県和歌山市新大工町23", "P29_006": "3", "P29_007": "1", "P29_008": "00", "P29_009": null }, "geometry": { "type": "Point", "coordinates": [ 135.181101405193544, 34.233050410262848 ] } },
{ "type": "Feature", "properties": { "P29_001": "30201", "P29_002": "B130210000022", "P29_003": "16001", "P29_004": "和歌山市立広瀬小学校", "P29_005": "和歌山県和歌山市広瀬中ノ丁1-5", "P29_006": "3", "P29_007": "1", "P29_008": "00", "P29_009": null }, "geometry": { "type": "Point", "coordinates": [ 135.179439299746804, 34.225616643280489 ] } },
{ "type": "Feature", "properties": { "P29_001": "30201", "P29_002": "B130210000031", "P29_003": "16001", "P29_004": "和歌山市立吹上小学校", "P29_005": "和歌山県和歌山市吹上4-1-15", "P29_006": "3", "P29_007": "1", "P29_008": "00", "P29_009": null }, "geometry": { "type": "Point", "coordinates": [ 135.17023936388847, 34.216361064632579 ] } },
{ "type": "Feature", "properties": { "P29_001": "30201", "P29_002": "B130210000040", "P29_003": "16001", "P29_004": "和歌山市立砂山小学校", "P29_005": "和歌山県和歌山市砂山南2-1-52", "P29_006": "3", "P29_007": "1", "P29_008": "00", "P29_009": null }, "geometry": { "type": "Point", "coordinates": [ 135.162695858489087, 34.218201819731298 ] } },
{ "type": "Feature", "properties": { "P29_001": "30201", "P29_002": "B130210000059", "P29_003": "16001", "P29_004": "和歌山市立高松小学校", "P29_005": "和歌山県和歌山市東高松2-4-45", "P29_006": "3", "P29_007": "1", "P29_008": "00", "P29_009": null }, "geometry": { "type": "Point", "coordinates": [ 135.173165119667686, 34.208204614067995 ] } },
{ "type": "Feature", "properties": { "P29_001": "30201", "P29_002": "B130210000068", "P29_003": "16001", "P29_004": "和歌山市立宮北小学校", "P29_005": "和歌山県和歌山市納定21", "P29_006": "3", "P29_007": "1", "P29_008": "00", "P29_009": null }, "geometry": { "type": "Point", "coordinates": [ 135.192015776874086, 34.237755391748621 ] } },
{ "type": "Feature", "properties": { "P29_001": "30201", "P29_002": "B130210000077", "P29_003": "16001", "P29_004": "和歌山市立新南小学校", "P29_005": "和歌山県和歌山市木広町4-23", "P29_006": "3", "P29_007": "1", "P29_008": "00", "P29_009": null }, "geometry": { "type": "Point", "coordinates": [ 135.189146262880314, 34.226952423184827 ] } },
{ "type": "Feature", "properties": { "P29_001": "30201", "P29_002": "B130210000086", "P29_003": "16001", "P29_004": "和歌山市立雑賀崎小学校", "P29_005": "和歌山県和歌山市西浜1148", "P29_006": "3", "P29_007": "1", "P29_008": "00", "P29_009": null }, "geometry": { "type": "Point", "coordinates": [ 135.150747194260703, 34.192452478841119 ] } },
{ "type": "Feature", "properties": { "P29_001": "30201", "P29_002": "B130210000095", "P29_003": "16001", "P29_004": "和歌山市立雑賀小学校", "P29_005": "和歌山県和歌山市西浜1-4-48", "P29_006": "3", "P29_007": "1", "P29_008": "00", "P29_009": null }, "geometry": { "type": "Point", "coordinates": [ 135.165583585069811, 34.199580298743186 ] } },
{ "type": "Feature", "properties": { "P29_001": "30201", "P29_002": "B130210000102", "P29_003": "16001", "P29_004": "和歌山市立宮小学校", "P29_005": "和歌山県和歌山市秋月475", "P29_006": "3", "P29_007": "1", "P29_008": "00", "P29_009": null }, "geometry": { "type": "Point", "coordinates": [ 135.206148650376491, 34.225284899457343 ] } },
{ "type": "Feature", "properties": { "P29_001": "30201", "P29_002": "B130210000111", "P29_003": "16001", "P29_004": "和歌山市立四箇郷小学校", "P29_005": "和歌山県和歌山市有本183", "P29_006": "3", "P29_007": "1", "P29_008": "00", "P29_009": null }, "geometry": { "type": "Point", "coordinates": [ 135.200679814220081, 34.246561145727135 ] } },
{ "type": "Feature", "properties": { "P29_001": "30201", "P29_002": "B130210000120", "P29_003": "16001", "P29_004": "和歌山市立芦原小学校", "P29_005": "和歌山県和歌山市雄松町4-25", "P29_006": "3", "P29_007": "1", "P29_008": "00", "P29_009": null }, "geometry": { "type": "Point", "coordinates": [ 135.182171616389638, 34.219261029629841 ] } },
{ "type": "Feature", "properties": { "P29_001": "30201", "P29_002": "B130210000139", "P29_003": "16001", "P29_004": "和歌山市立中之島小学校", "P29_005": "和歌山県和歌山市中之島1491", "P29_006": "3", "P29_007": "1", "P29_008": "00", "P29_009": null }, "geometry": { "type": "Point", "coordinates": [ 135.185901525601224, 34.239909551526551 ] } },
{ "type": "Feature", "properties": { "P29_001": "30201", "P29_002": "B130210000148", "P29_003": "16001", "P29_004": "和歌山市立和歌浦小学校", "P29_005": "和歌山県和歌山市和歌浦西2-1-18", "P29_006": "3", "P29_007": "1", "P29_008": "00", "P29_009": null }, "geometry": { "type": "Point", "coordinates": [ 135.166869672664802, 34.191288310982948 ] } },
{ "type": "Feature", "properties": { "P29_001": "30201", "P29_002": "B130210000157", "P29_003": "16001", "P29_004": "和歌山市立宮前小学校", "P29_005": "和歌山県和歌山市北中島1-7-4", "P29_006": "3", "P29_007": "1", "P29_008": "00", "P29_009": null }, "geometry": { "type": "Point", "coordinates": [ 135.18646402903255, 34.21291960244838 ] } },
{ "type": "Feature", "properties": { "P29_001": "30201", "P29_002": "B130210000166", "P29_003": "16001", "P29_004": "和歌山市立湊小学校", "P29_005": "和歌山県和歌山市湊2-17-40", "P29_006": "3", "P29_007": "1", "P29_008": "00", "P29_009": null }, "geometry": { "type": "Point", "coordinates": [ 135.14448525062744, 34.233213532149463 ] } },
{ "type": "Feature", "properties": { "P29_001": "30201", "P29_002": "B130210000175", "P29_003": "16001", "P29_004": "和歌山市立野崎小学校", "P29_005": "和歌山県和歌山市野崎130-1", "P29_006": "3", "P29_007": "1", "P29_008": "00", "P29_009": null }, "geometry": { "type": "Point", "coordinates": [ 135.159066962217025, 34.243840318081986 ] } },
{ "type": "Feature", "properties": { "P29_001": "30201", "P29_002": "B130210000184", "P29_003": "16001", "P29_004": "和歌山市立三田小学校", "P29_005": "和歌山県和歌山市和田419-1", "P29_006": "3", "P29_007": "1", "P29_008": "00", "P29_009": null }, "geometry": { "type": "Point", "coordinates": [ 135.204937674400213, 34.198955538609042 ] } },
{ "type": "Feature", "properties": { "P29_001": "30201", "P29_002": "B130210000193", "P29_003": "16001", "P29_004": "和歌山市立名草小学校", "P29_005": "和歌山県和歌山市紀三井寺240", "P29_006": "3", "P29_007": "1", "P29_008": "00", "P29_009": null }, "geometry": { "type": "Point", "coordinates": [ 135.190696600968607, 34.178905957231173 ] } },
{ "type": "Feature", "properties": { "P29_001": "30201", "P29_002": "B130210000200", "P29_003": "16001", "P29_004": "和歌山市立松江小学校", "P29_005": "和歌山県和歌山市松江北4-1-1", "P29_006": "3", "P29_007": "1", "P29_008": "00", "P29_009": null }, "geometry": { "type": "Point", "coordinates": [ 135.1347188610427, 34.251794774844598 ] } },
{ "type": "Feature", "properties": { "P29_001": "30201", "P29_002": "B130210000219", "P29_003": "16001", "P29_004": "和歌山市立木本小学校", "P29_005": "和歌山県和歌山市榎原255", "P29_006": "3", "P29_007": "1", "P29_008": "00", "P29_009": null }, "geometry": { "type": "Point", "coordinates": [ 135.126770574930958, 34.257430163832751 ] } },
{ "type": "Feature", "properties": { "P29_001": "30201", "P29_002": "B130210000228", "P29_003": "16001", "P29_004": "和歌山市立貴志小学校", "P29_005": "和歌山県和歌山市栄谷895-2", "P29_006": "3", "P29_007": "1", "P29_008": "00", "P29_009": null }, "geometry": { "type": "Point", "coordinates": [ 135.150226849972853, 34.259729999915848 ] } },
{ "type": "Feature", "properties": { "P29_001": "30201", "P29_002": "B130210000237", "P29_003": "16001", "P29_004": "和歌山市立楠見小学校", "P29_005": "和歌山県和歌山市大谷349-2", "P29_006": "3", "P29_007": "1", "P29_008": "00", "P29_009": null }, "geometry": { "type": "Point", "coordinates": [ 135.176107853743474, 34.259282560153572 ] } },
{ "type": "Feature", "properties": { "P29_001": "30201", "P29_002": "B130210000246", "P29_003": "16001", "P29_004": "和歌山市立岡崎小学校", "P29_005": "和歌山県和歌山市寺内426", "P29_006": "3", "P29_007": "1", "P29_008": "00", "P29_009": null }, "geometry": { "type": "Point", "coordinates": [ 135.220080929111276, 34.214913726100015 ] } },
{ "type": "Feature", "properties": { "P29_001": "30201", "P29_002": "B130210000255", "P29_003": "16001", "P29_004": "和歌山市立西和佐小学校", "P29_005": "和歌山県和歌山市栗栖84-1", "P29_006": "3", "P29_007": "1", "P29_008": "00", "P29_009": null }, "geometry": { "type": "Point", "coordinates": [ 135.227063554881198, 34.238775464137689 ] } },
{ "type": "Feature", "properties": { "P29_001": "30201", "P29_002": "B130210000264", "P29_003": "16001", "P29_004": "和歌山市立西脇小学校", "P29_005": "和歌山県和歌山市西庄1012", "P29_006": "3", "P29_007": "1", "P29_008": "00", "P29_009": null }, "geometry": { "type": "Point", "coordinates": [ 135.104296430060629, 34.25827791298336 ] } },
{ "type": "Feature", "properties": { "P29_001": "30201", "P29_002": "B130210000273", "P29_003": "16001", "P29_004": "和歌山市立和佐小学校", "P29_005": "和歌山県和歌山市禰宜949-2", "P29_006": "3", "P29_007": "1", "P29_008": "00", "P29_009": null }, "geometry": { "type": "Point", "coordinates": [ 135.249881941945858, 34.235725351714301 ] } },
{ "type": "Feature", "properties": { "P29_001": "30201", "P29_002": "B130210000282", "P29_003": "16001", "P29_004": "和歌山市立山東小学校", "P29_005": "和歌山県和歌山市吉礼326", "P29_006": "3", "P29_007": "1", "P29_008": "00", "P29_009": null }, "geometry": { "type": "Point", "coordinates": [ 135.241247324665892, 34.201610047156365 ] } },
{ "type": "Feature", "properties": { "P29_001": "30201", "P29_002": "B130210000291", "P29_003": "16001", "P29_004": "和歌山市立東山東小学校", "P29_005": "和歌山県和歌山市山東中52-1", "P29_006": "3", "P29_007": "1", "P29_008": "00", "P29_009": null }, "geometry": { "type": "Point", "coordinates": [ 135.259555728071462, 34.203337116144972 ] } },
{ "type": "Feature", "properties": { "P29_001": "30201", "P29_002": "B130210000308", "P29_003": "16001", "P29_004": "和歌山市立安原小学校", "P29_005": "和歌山県和歌山市江南239", "P29_006": "3", "P29_007": "1", "P29_008": "00", "P29_009": null }, "geometry": { "type": "Point", "coordinates": [ 135.224611031575051, 34.19233404912552 ] } },
{ "type": "Feature", "properties": { "P29_001": "30201", "P29_002": "B130210000326", "P29_003": "16001", "P29_004": "和歌山市立有功小学校", "P29_005": "和歌山県和歌山市園部1453", "P29_006": "3", "P29_007": "1", "P29_008": "00", "P29_009": null }, "geometry": { "type": "Point", "coordinates": [ 135.196667131320424, 34.263949282069049 ] } },
{ "type": "Feature", "properties": { "P29_001": "30201", "P29_002": "B130210000335", "P29_003": "16001", "P29_004": "和歌山市立直川小学校", "P29_005": "和歌山県和歌山市直川1253", "P29_006": "3", "P29_007": "1", "P29_008": "00", "P29_009": null }, "geometry": { "type": "Point", "coordinates": [ 135.215630606039014, 34.263976843183698 ] } },
{ "type": "Feature", "properties": { "P29_001": "30201", "P29_002": "B130210000344", "P29_003": "16001", "P29_004": "和歌山市立川永小学校", "P29_005": "和歌山県和歌山市楠本285", "P29_006": "3", "P29_007": "1", "P29_008": "00", "P29_009": null }, "geometry": { "type": "Point", "coordinates": [ 135.25629827178139, 34.256835068414411 ] } },
{ "type": "Feature", "properties": { "P29_001": "30201", "P29_002": "B130210000353", "P29_003": "16001", "P29_004": "和歌山市立小倉小学校", "P29_005": "和歌山県和歌山市新庄348", "P29_006": "3", "P29_007": "1", "P29_008": "00", "P29_009": null }, "geometry": { "type": "Point", "coordinates": [ 135.287466507690596, 34.243372138541659 ] } },
{ "type": "Feature", "properties": { "P29_001": "30201", "P29_002": "B130210000362", "P29_003": "16001", "P29_004": "和歌山市立加太小学校", "P29_005": "和歌山県和歌山市加太1210", "P29_006": "3", "P29_007": "1", "P29_008": "00", "P29_009": null }, "geometry": { "type": "Point", "coordinates": [ 135.076231914980696, 34.274809967825966 ] } },
{ "type": "Feature", "properties": { "P29_001": "30201", "P29_002": "B130210000371", "P29_003": "16001", "P29_004": "和歌山市立紀伊小学校", "P29_005": "和歌山県和歌山市弘西321", "P29_006": "3", "P29_007": "1", "P29_008": "00", "P29_009": null }, "geometry": { "type": "Point", "coordinates": [ 135.237853277545781, 34.26701549912859 ] } },
{ "type": "Feature", "properties": { "P29_001": "30201", "P29_002": "B130210000380", "P29_003": "16001", "P29_004": "和歌山市立山口小学校", "P29_005": "和歌山県和歌山市里146", "P29_006": "3", "P29_007": "1", "P29_008": "00", "P29_009": null }, "geometry": { "type": "Point", "coordinates": [ 135.268746107231721, 34.267036684919631 ] } },
{ "type": "Feature", "properties": { "P29_001": "30201", "P29_002": "B130210000399", "P29_003": "16001", "P29_004": "和歌山市立太田小学校", "P29_005": "和歌山県和歌山市太田636", "P29_006": "3", "P29_007": "1", "P29_008": "00", "P29_009": null }, "geometry": { "type": "Point", "coordinates": [ 135.19884828427567, 34.23414486014569 ] } },
{ "type": "Feature", "properties": { "P29_001": "30201", "P29_002": "B130210000406", "P29_003": "16001", "P29_004": "和歌山市立今福小学校", "P29_005": "和歌山県和歌山市今福3-7-46", "P29_006": "3", "P29_007": "1", "P29_008": "00", "P29_009": null }, "geometry": { "type": "Point", "coordinates": [ 135.163533273754837, 34.208730864747253 ] } },
{ "type": "Feature", "properties": { "P29_001": "30201", "P29_002": "B130210000415", "P29_003": "16001", "P29_004": "和歌山市立野崎西小学校", "P29_005": "和歌山県和歌山市梶取301-3", "P29_006": "3", "P29_007": "1", "P29_008": "00", "P29_009": null }, "geometry": { "type": "Point", "coordinates": [ 135.151661226765583, 34.251058555830085 ] } },
{ "type": "Feature", "properties": { "P29_001": "30201", "P29_002": "B130210000424", "P29_003": "16001", "P29_004": "和歌山市立西脇小学校みらい分校", "P29_005": "和歌山県和歌山市つつじが丘7-2-1", "P29_006": "3", "P29_007": "1", "P29_008": "00", "P29_009": null }, "geometry": { "type": "Point", "coordinates": [ 135.098188598421899, 34.265396183891127 ] } },
{ "type": "Feature", "properties": { "P29_001": "30201", "P29_002": "B130210000433", "P29_003": "16001", "P29_004": "和歌山市立鳴滝小学校", "P29_005": "和歌山県和歌山市善明寺615-3", "P29_006": "3", "P29_007": "1", "P29_008": "00", "P29_009": null }, "geometry": { "type": "Point", "coordinates": [ 135.1866504954032, 34.265733789690799 ] } },
{ "type": "Feature", "properties": { "P29_001": "30201", "P29_002": "B130210000442", "P29_003": "16001", "P29_004": "和歌山市立四箇郷北小学校", "P29_005": "和歌山県和歌山市有本321", "P29_006": "3", "P29_007": "1", "P29_008": "00", "P29_009": null }, "geometry": { "type": "Point", "coordinates": [ 135.200201378438777, 34.250309546700464 ] } },
{ "type": "Feature", "properties": { "P29_001": "30201", "P29_002": "B130210000451", "P29_003": "16001", "P29_004": "和歌山市立福島小学校", "P29_005": "和歌山県和歌山市福島135-4", "P29_006": "3", "P29_007": "1", "P29_008": "00", "P29_009": null }, "geometry": { "type": "Point", "coordinates": [ 135.164116257055298, 34.251215508573232 ] } },
{ "type": "Feature", "properties": { "P29_001": "30201", "P29_002": "B130210000460", "P29_003": "16001", "P29_004": "和歌山市立八幡台小学校", "P29_005": "和歌山県和歌山市西庄1110", "P29_006": "3", "P29_007": "1", "P29_008": "00", "P29_009": null }, "geometry": { "type": "Point", "coordinates": [ 135.116651626791253, 34.265136070077347 ] } },
{ "type": "Feature", "properties": { "P29_001": "30201", "P29_002": "B130210000479", "P29_003": "16001", "P29_004": "和歌山市立浜宮小学校", "P29_005": "和歌山県和歌山市内原778-16", "P29_006": "3", "P29_007": "1", "P29_008": "00", "P29_009": null }, "geometry": { "type": "Point", "coordinates": [ 135.196203454236439, 34.170627906676387 ] } },
{ "type": "Feature", "properties": { "P29_001": "30201", "P29_002": "B130210000488", "P29_003": "16001", "P29_004": "和歌山市立楠見西小学校", "P29_005": "和歌山県和歌山市市小路31", "P29_006": "3", "P29_007": "1", "P29_008": "00", "P29_009": null }, "geometry": { "type": "Point", "coordinates": [ 135.167543554255758, 34.257509839789101 ] } },
{ "type": "Feature", "properties": { "P29_001": "30201", "P29_002": "B130210000497", "P29_003": "16001", "P29_004": "和歌山市立楠見東小学校", "P29_005": "和歌山県和歌山市善明寺150-1", "P29_006": "3", "P29_007": "1", "P29_008": "00", "P29_009": null }, "geometry": { "type": "Point", "coordinates": [ 135.181451734613631, 34.257215621836608 ] } },
{ "type": "Feature", "properties": { "P29_001": "30201", "P29_002": "B130210000503", "P29_003": "16001", "P29_004": "和歌山市立貴志南小学校", "P29_005": "和歌山県和歌山市中野11-1", "P29_006": "3", "P29_007": "1", "P29_008": "00", "P29_009": null }, "geometry": { "type": "Point", "coordinates": [ 135.140221880426679, 34.256749211971062 ] } },
{ "type": "Feature", "properties": { "P29_001": "30201", "P29_002": "B130210000512", "P29_003": "16001", "P29_004": "和歌山市立有功東小学校", "P29_005": "和歌山県和歌山市六十谷895", "P29_006": "3", "P29_007": "1", "P29_008": "00", "P29_009": null }, "geometry": { "type": "Point", "coordinates": [ 135.204583111190288, 34.268418648814823 ] } },
{ "type": "Feature", "properties": { "P29_001": "30201", "P29_002": "B130210000521", "P29_003": "16001", "P29_004": "和歌山市立藤戸台小学校", "P29_005": "和歌山県和歌山市栄谷974-245", "P29_006": "3", "P29_007": "1", "P29_008": "00", "P29_009": null }, "geometry": { "type": "Point", "coordinates": [ 135.154766680731996, 34.269601327398831 ] } },
{ "type": "Feature", "properties": { "P29_001": "30202", "P29_002": "B130210000530", "P29_003": "16001", "P29_004": "海南市立黒江小学校", "P29_005": "和歌山県海南市船尾236-4", "P29_006": "3", "P29_007": "1", "P29_008": "00", "P29_009": null }, "geometry": { "type": "Point", "coordinates": [ 135.200048708088957, 34.159756617900577 ] } },
{ "type": "Feature", "properties": { "P29_001": "30202", "P29_002": "B130210000549", "P29_003": "16001", "P29_004": "海南市立日方小学校", "P29_005": "和歌山県海南市日方1257", "P29_006": "3", "P29_007": "1", "P29_008": "00", "P29_009": null }, "geometry": { "type": "Point", "coordinates": [ 135.210270911854963, 34.157281113473232 ] } },
{ "type": "Feature", "properties": { "P29_001": "30202", "P29_002": "B130210000558", "P29_003": "16001", "P29_004": "海南市立内海小学校", "P29_005": "和歌山県海南市鳥居190", "P29_006": "3", "P29_007": "1", "P29_008": "00", "P29_009": null }, "geometry": { "type": "Point", "coordinates": [ 135.214003653455336, 34.149586844927775 ] } },
{ "type": "Feature", "properties": { "P29_001": "30202", "P29_002": "B130210000567", "P29_003": "16001", "P29_004": "海南市立大野小学校", "P29_005": "和歌山県海南市山田91-1", "P29_006": "3", "P29_007": "1", "P29_008": "00", "P29_009": null }, "geometry": { "type": "Point", "coordinates": [ 135.22784003131855, 34.149018783609129 ] } },
{ "type": "Feature", "properties": { "P29_001": "30202", "P29_002": "B130210000576", "P29_003": "16001", "P29_004": "海南市立亀川小学校", "P29_005": "和歌山県海南市且来655", "P29_006": "3", "P29_007": "1", "P29_008": "00", "P29_009": null }, "geometry": { "type": "Point", "coordinates": [ 135.23809961259434, 34.171386221320319 ] } },
{ "type": "Feature", "properties": { "P29_001": "30202", "P29_002": "B130210000585", "P29_003": "16001", "P29_004": "海南市立巽小学校", "P29_005": "和歌山県海南市重根1203", "P29_006": "3", "P29_007": "1", "P29_008": "00", "P29_009": null }, "geometry": { "type": "Point", "coordinates": [ 135.256693689269753, 34.154885746962073 ] } },
{ "type": "Feature", "properties": { "P29_001": "30202", "P29_002": "B130210000594", "P29_003": "16001", "P29_004": "海南市立北野上小学校", "P29_005": "和歌山県海南市孟子174", "P29_006": "3", "P29_007": "1", "P29_008": "00", "P29_009": null }, "geometry": { "type": "Point", "coordinates": [ 135.292604453041918, 34.18358351224127 ] } },
{ "type": "Feature", "properties": { "P29_001": "30202", "P29_002": "B130210000601", "P29_003": "16001", "P29_004": "海南市立中野上小学校", "P29_005": "和歌山県海南市椋木93", "P29_006": "3", "P29_007": "1", "P29_008": "00", "P29_009": null }, "geometry": { "type": "Point", "coordinates": [ 135.285248713050123, 34.160123981899822 ] } },
{ "type": "Feature", "properties": { "P29_001": "30202", "P29_002": "B130210000610", "P29_003": "16001", "P29_004": "海南市立南野上小学校", "P29_005": "和歌山県海南市次ヶ谷80", "P29_006": "3", "P29_007": "1", "P29_008": "00", "P29_009": null }, "geometry": { "type": "Point", "coordinates": [ 135.271399691735013, 34.147921022801405 ] } },
{ "type": "Feature", "properties": { "P29_001": "30202", "P29_002": "B130210000629", "P29_003": "16001", "P29_004": "海南市立加茂川小学校", "P29_005": "和歌山県海南市下津町小松原23", "P29_006": "3", "P29_007": "1", "P29_008": "00", "P29_009": null }, "geometry": { "type": "Point", "coordinates": [ 135.185974548458262, 34.124477506322577 ] } },
{ "type": "Feature", "properties": { "P29_001": "30203", "P29_002": "B130210000638", "P29_003": "16001", "P29_004": "橋本市立紀見小学校", "P29_005": "和歌山県橋本市柿の木坂25-1", "P29_006": "3", "P29_007": "1", "P29_008": "00", "P29_009": null }, "geometry": { "type": "Point", "coordinates": [ 135.595679011812479, 34.340502759653454 ] } },
{ "type": "Feature", "properties": { "P29_001": "30203", "P29_002": "B130210000647", "P29_003": "16001", "P29_004": "橋本市立柱本小学校", "P29_005": "和歌山県橋本市紀見ヶ丘2-20-1", "P29_006": "3", "P29_007": "1", "P29_008": "00", "P29_009": null }, "geometry": { "type": "Point", "coordinates": [ 135.610242641515043, 34.368292856505931 ] } },
{ "type": "Feature", "properties": { "P29_001": "30203", "P29_002": "B130210000656", "P29_003": "16001", "P29_004": "橋本市立境原小学校", "P29_005": "和歌山県橋本市小峰台1-25-1", "P29_006": "3", "P29_007": "1", "P29_008": "00", "P29_009": null }, "geometry": { "type": "Point", "coordinates": [ 135.62697801453632, 34.35233618868412 ] } },
{ "type": "Feature", "properties": { "P29_001": "30203", "P29_002": "B130210000665", "P29_003": "16001", "P29_004": "橋本市立橋本小学校", "P29_005": "和歌山県橋本市市脇5-3-8", "P29_006": "3", "P29_007": "1", "P29_008": "00", "P29_009": null }, "geometry": { "type": "Point", "coordinates": [ 135.604726281192086, 34.311579723508252 ] } },
{ "type": "Feature", "properties": { "P29_001": "30203", "P29_002": "B130210000674", "P29_003": "16001", "P29_004": "橋本市立学文路小学校", "P29_005": "和歌山県橋本市学文路900", "P29_006": "3", "P29_007": "1", "P29_008": "00", "P29_009": null }, "geometry": { "type": "Point", "coordinates": [ 135.587442321285522, 34.299376650678262 ] } },
{ "type": "Feature", "properties": { "P29_001": "30203", "P29_002": "B130210000683", "P29_003": "16001", "P29_004": "橋本市立清水小学校", "P29_005": "和歌山県橋本市清水2014", "P29_006": "3", "P29_007": "1", "P29_008": "00", "P29_009": null }, "geometry": { "type": "Point", "coordinates": [ 135.606646560145663, 34.308726692965621 ] } },
{ "type": "Feature", "properties": { "P29_001": "30203", "P29_002": "B130210000692", "P29_003": "16001", "P29_004": "橋本市立隅田小学校", "P29_005": "和歌山県橋本市隅田町垂井20", "P29_006": "3", "P29_007": "1", "P29_008": "00", "P29_009": null }, "geometry": { "type": "Point", "coordinates": [ 135.648135134420784, 34.331002188666389 ] } },
{ "type": "Feature", "properties": { "P29_001": "30203", "P29_002": "B130210000709", "P29_003": "16001", "P29_004": "橋本市立恋野小学校", "P29_005": "和歌山県橋本市赤塚129-1", "P29_006": "3", "P29_007": "1", "P29_008": "00", "P29_009": null }, "geometry": { "type": "Point", "coordinates": [ 135.648175259219613, 34.322902838189741 ] } },
{ "type": "Feature", "properties": { "P29_001": "30203", "P29_002": "B130210000718", "P29_003": "16001", "P29_004": "橋本市立西部小学校", "P29_005": "和歌山県橋本市柏原554-2", "P29_006": "3", "P29_007": "1", "P29_008": "00", "P29_009": null }, "geometry": { "type": "Point", "coordinates": [ 135.583380537096218, 34.323596076551105 ] } },
{ "type": "Feature", "properties": { "P29_001": "30203", "P29_002": "B130210000727", "P29_003": "16001", "P29_004": "橋本市立城山小学校", "P29_005": "和歌山県橋本市城山台2-10-2", "P29_006": "3", "P29_007": "1", "P29_008": "00", "P29_009": null }, "geometry": { "type": "Point", "coordinates": [ 135.611756522979618, 34.34833939963886 ] } },
{ "type": "Feature", "properties": { "P29_001": "30203", "P29_002": "B130210000736", "P29_003": "16001", "P29_004": "橋本市立三石小学校", "P29_005": "和歌山県橋本市三石台2-1-1", "P29_006": "3", "P29_007": "1", "P29_008": "00", "P29_009": null }, "geometry": { "type": "Point", "coordinates": [ 135.6010502337015, 34.353098229927184 ] } },
{ "type": "Feature", "properties": { "P29_001": "30204", "P29_002": "B130210000745", "P29_003": "16001", "P29_004": "有田市立箕島小学校", "P29_005": "和歌山県有田市箕島155", "P29_006": "3", "P29_007": "1", "P29_008": "00", "P29_009": null }, "geometry": { "type": "Point", "coordinates": [ 135.122693572707874, 34.084938189789582 ] } },
{ "type": "Feature", "properties": { "P29_001": "30204", "P29_002": "B130210000754", "P29_003": "16001", "P29_004": "有田市立田鶴小学校", "P29_005": "和歌山県有田市宮崎町2131", "P29_006": "3", "P29_007": "1", "P29_008": "00", "P29_009": null }, "geometry": { "type": "Point", "coordinates": [ 135.097255843236013, 34.077249793265011 ] } },
{ "type": "Feature", "properties": { "P29_001": "30204", "P29_002": "B130210000763", "P29_003": "16001", "P29_004": "有田市立保田小学校", "P29_005": "和歌山県有田市辻堂474", "P29_006": "3", "P29_007": "1", "P29_008": "00", "P29_009": null }, "geometry": { "type": "Point", "coordinates": [ 135.145967607866794, 34.078013976781357 ] } },
{ "type": "Feature", "properties": { "P29_001": "30204", "P29_002": "B130210000772", "P29_003": "16001", "P29_004": "有田市立宮原小学校", "P29_005": "和歌山県有田市宮原町滝川原1", "P29_006": "3", "P29_007": "1", "P29_008": "00", "P29_009": null }, "geometry": { "type": "Point", "coordinates": [ 135.172673214926789, 34.08059875843135 ] } },
{ "type": "Feature", "properties": { "P29_001": "30204", "P29_002": "B130210000781", "P29_003": "16001", "P29_004": "有田市立糸我小学校", "P29_005": "和歌山県有田市糸我町中番330", "P29_006": "3", "P29_007": "1", "P29_008": "00", "P29_009": null }, "geometry": { "type": "Point", "coordinates": [ 135.177079476343323, 34.067567134445731 ] } },
{ "type": "Feature", "properties": { "P29_001": "30204", "P29_002": "B130210000790", "P29_003": "16001", "P29_004": "有田市立初島小学校", "P29_005": "和歌山県有田市初島町里1242", "P29_006": "3", "P29_007": "1", "P29_008": "00", "P29_009": null }, "geometry": { "type": "Point", "coordinates": [ 135.118318001809797, 34.09917600172961 ] } },
{ "type": "Feature", "properties": { "P29_001": "30204", "P29_002": "B130210000807", "P29_003": "16001", "P29_004": "有田市立港小学校", "P29_005": "和歌山県有田市港町261", "P29_006": "3", "P29_007": "1", "P29_008": "00", "P29_009": null }, "geometry": { "type": "Point", "coordinates": [ 135.109671080640084, 34.090951265907321 ] } },
{ "type": "Feature", "properties": { "P29_001": "30205", "P29_002": "B130210000816", "P29_003": "16001", "P29_004": "御坊市立御坊小学校", "P29_005": "和歌山県御坊市薗226", "P29_006": "3", "P29_007": "1", "P29_008": "00", "P29_009": null }, "geometry": { "type": "Point", "coordinates": [ 135.155401793750229, 33.892089534675733 ] } },
{ "type": "Feature", "properties": { "P29_001": "30205", "P29_002": "B130210000825", "P29_003": "16001", "P29_004": "御坊市立塩屋小学校", "P29_005": "和歌山県御坊市塩屋町南塩屋17", "P29_006": "3", "P29_007": "1", "P29_008": "00", "P29_009": null }, "geometry": { "type": "Point", "coordinates": [ 135.16322563535951, 33.868451592712169 ] } },
{ "type": "Feature", "properties": { "P29_001": "30205", "P29_002": "B130210000834", "P29_003": "16001", "P29_004": "御坊市立湯川小学校", "P29_005": "和歌山県御坊市湯川町小松原179", "P29_006": "3", "P29_007": "1", "P29_008": "00", "P29_009": null }, "geometry": { "type": "Point", "coordinates": [ 135.16311401825169, 33.903846338454812 ] } },
{ "type": "Feature", "properties": { "P29_001": "30205", "P29_002": "B130210000843", "P29_003": "16001", "P29_004": "御坊市立藤田小学校", "P29_005": "和歌山県御坊市藤田町藤井2047-1", "P29_006": "3", "P29_007": "1", "P29_008": "00", "P29_009": null }, "geometry": { "type": "Point", "coordinates": [ 135.173903691887404, 33.907816040516295 ] } },
{ "type": "Feature", "properties": { "P29_001": "30205", "P29_002": "B130210000852", "P29_003": "16001", "P29_004": "御坊市立野口小学校", "P29_005": "和歌山県御坊市野口756-1", "P29_006": "3", "P29_007": "1", "P29_008": "00", "P29_009": null }, "geometry": { "type": "Point", "coordinates": [ 135.17976846152726, 33.895543247522646 ] } },
{ "type": "Feature", "properties": { "P29_001": "30205", "P29_002": "B130210000861", "P29_003": "16001", "P29_004": "御坊市立名田小学校", "P29_005": "和歌山県御坊市名田町野島326", "P29_006": "3", "P29_007": "1", "P29_008": "00", "P29_009": null }, "geometry": { "type": "Point", "coordinates": [ 135.179525721492041, 33.833603714207271 ] } },
{ "type": "Feature", "properties": { "P29_001": "30206", "P29_002": "B130210000870", "P29_003": "16001", "P29_004": "田辺市立田辺第一小学校", "P29_005": "和歌山県田辺市上屋敷1-2-1", "P29_006": "3", "P29_007": "1", "P29_008": "00", "P29_009": null }, "geometry": { "type": "Point", "coordinates": [ 135.375539201910783, 33.732012228400265 ] } },
{ "type": "Feature", "properties": { "P29_001": "30206", "P29_002": "B130210000889", "P29_003": "16001", "P29_004": "田辺市立田辺第二小学校", "P29_005": "和歌山県田辺市東陽21-1", "P29_006": "3", "P29_007": "1", "P29_008": "00", "P29_009": null }, "geometry": { "type": "Point", "coordinates": [ 135.384524684507255, 33.726503238787636 ] } },
{ "type": "Feature", "properties": { "P29_001": "30206", "P29_002": "B130210000898", "P29_003": "16001", "P29_004": "田辺市立田辺第三小学校", "P29_005": "和歌山県田辺市上の山2-6-10", "P29_006": "3", "P29_007": "1", "P29_008": "00", "P29_009": null }, "geometry": { "type": "Point", "coordinates": [ 135.368773149272045, 33.734848046686864 ] } },
{ "type": "Feature", "properties": { "P29_001": "30206", "P29_002": "B130210000905", "P29_003": "16001", "P29_004": "田辺市立芳養小学校", "P29_005": "和歌山県田辺市芳養松原2-18-36", "P29_006": "3", "P29_007": "1", "P29_008": "00", "P29_009": null }, "geometry": { "type": "Point", "coordinates": [ 135.357934364682706, 33.747309488092611 ] } },
{ "type": "Feature", "properties": { "P29_001": "30206", "P29_002": "B130210000914", "P29_003": "16001", "P29_004": "田辺市立大坊小学校", "P29_005": "和歌山県田辺市芳養町3944", "P29_006": "3", "P29_007": "1", "P29_008": "00", "P29_009": null }, "geometry": { "type": "Point", "coordinates": [ 135.376259666931446, 33.773789676263249 ] } },
{ "type": "Feature", "properties": { "P29_001": "30206", "P29_002": "B130210000923", "P29_003": "16001", "P29_004": "田辺市立新庄小学校", "P29_005": "和歌山県田辺市新庄町2300", "P29_006": "3", "P29_007": "1", "P29_008": "00", "P29_009": null }, "geometry": { "type": "Point", "coordinates": [ 135.400245845479219, 33.714316847533809 ] } },
{ "type": "Feature", "properties": { "P29_001": "30206", "P29_002": "B130210000932", "P29_003": "16001", "P29_004": "田辺市立新庄第二小学校", "P29_005": "和歌山県田辺市新庄町3193", "P29_006": "3", "P29_007": "1", "P29_008": "00", "P29_009": null }, "geometry": { "type": "Point", "coordinates": [ 135.389279370308174, 33.695638087110908 ] } },
{ "type": "Feature", "properties": { "P29_001": "30206", "P29_002": "B130210000941", "P29_003": "16001", "P29_004": "田辺市立稲成小学校", "P29_005": "和歌山県田辺市稲成町780", "P29_006": "3", "P29_007": "1", "P29_008": "00", "P29_009": null }, "geometry": { "type": "Point", "coordinates": [ 135.376051005132695, 33.750000003164701 ] } },
{ "type": "Feature", "properties": { "P29_001": "30206", "P29_002": "B130210000950", "P29_003": "16001", "P29_004": "田辺市立会津小学校", "P29_005": "和歌山県田辺市下万呂59-1", "P29_006": "3", "P29_007": "1", "P29_008": "00", "P29_009": null }, "geometry": { "type": "Point", "coordinates": [ 135.395921858783964, 33.744935973243109 ] } },
{ "type": "Feature", "properties": { "P29_001": "30206", "P29_002": "B130210000969", "P29_003": "16001", "P29_004": "田辺市立上芳養小学校", "P29_005": "和歌山県田辺市上芳養3334", "P29_006": "3", "P29_007": "1", "P29_008": "00", "P29_009": null }, "geometry": { "type": "Point", "coordinates": [ 135.377676096096963, 33.803909215550632 ] } },
{ "type": "Feature", "properties": { "P29_001": "30206", "P29_002": "B130210000978", "P29_003": "16001", "P29_004": "田辺市立中芳養小学校", "P29_005": "和歌山県田辺市中芳養1815", "P29_006": "3", "P29_007": "1", "P29_008": "00", "P29_009": null }, "geometry": { "type": "Point", "coordinates": [ 135.355514132575166, 33.77813380886721 ] } },
{ "type": "Feature", "properties": { "P29_001": "30206", "P29_002": "B130210000987", "P29_003": "16001", "P29_004": "田辺市立上秋津小学校", "P29_005": "和歌山県田辺市上秋津2196-1", "P29_006": "3", "P29_007": "1", "P29_008": "00", "P29_009": null }, "geometry": { "type": "Point", "coordinates": [ 135.406247143077508, 33.753646912650375 ] } },
{ "type": "Feature", "properties": { "P29_001": "30206", "P29_002": "B130210000996", "P29_003": "16001", "P29_004": "田辺市立秋津川小学校", "P29_005": "和歌山県田辺市秋津川683", "P29_006": "3", "P29_007": "1", "P29_008": "00", "P29_009": null }, "geometry": { "type": "Point", "coordinates": [ 135.427218532285622, 33.793648365354478 ] } },
{ "type": "Feature", "properties": { "P29_001": "30206", "P29_002": "B130210001003", "P29_003": "16001", "P29_004": "田辺市立三栖小学校", "P29_005": "和歌山県田辺市中三栖2095", "P29_006": "3", "P29_007": "1", "P29_008": "00", "P29_009": null }, "geometry": { "type": "Point", "coordinates": [ 135.431715301973782, 33.744582135848063 ] } },
{ "type": "Feature", "properties": { "P29_001": "30206", "P29_002": "B130210001012", "P29_003": "16001", "P29_004": "田辺市立長野小学校", "P29_005": "和歌山県田辺市長野641", "P29_006": "3", "P29_007": "1", "P29_008": "00", "P29_009": null }, "geometry": { "type": "Point", "coordinates": [ 135.441631542445663, 33.767542705805546 ] } },
{ "type": "Feature", "properties": { "P29_001": "30206", "P29_002": "B130210001021", "P29_003": "16001", "P29_004": "田辺市立田辺東部小学校", "P29_005": "和歌山県田辺市南新万28-1", "P29_006": "3", "P29_007": "1", "P29_008": "00", "P29_009": null }, "geometry": { "type": "Point", "coordinates": [ 135.399099398612918, 33.730455706065371 ] } },
{ "type": "Feature", "properties": { "P29_001": "30207", "P29_002": "B130210001030", "P29_003": "16001", "P29_004": "新宮市立三輪崎小学校", "P29_005": "和歌山県新宮市三輪崎3-6-7", "P29_006": "3", "P29_007": "1", "P29_008": "00", "P29_009": null }, "geometry": { "type": "Point", "coordinates": [ 135.980777246460491, 33.685092810638508 ] } },
{ "type": "Feature", "properties": { "P29_001": "30207", "P29_002": "B130210001049", "P29_003": "16001", "P29_004": "新宮市立高田小学校", "P29_005": "和歌山県新宮市高田3465-1", "P29_006": "3", "P29_007": "1", "P29_008": "00", "P29_009": null }, "geometry": { "type": "Point", "coordinates": [ 135.910468718058439, 33.734449598101421 ] } },
{ "type": "Feature", "properties": { "P29_001": "30207", "P29_002": "B130210001058", "P29_003": "16001", "P29_004": "新宮市立神倉小学校", "P29_005": "和歌山県新宮市千穂1-2-40", "P29_006": "3", "P29_007": "1", "P29_008": "00", "P29_009": null }, "geometry": { "type": "Point", "coordinates": [ 135.985451594271495, 33.725474261342413 ] } },
{ "type": "Feature", "properties": { "P29_001": "30202", "P29_002": "B130210001076", "P29_003": "16001", "P29_004": "海南市立大東小学校", "P29_005": "和歌山県海南市下津町方1", "P29_006": "3", "P29_007": "1", "P29_008": "00", "P29_009": null }, "geometry": { "type": "Point", "coordinates": [ 135.152328509610953, 34.123419546122975 ] } },
{ "type": "Feature", "properties": { "P29_001": "30202", "P29_002": "B130210001085", "P29_003": "16001", "P29_004": "海南市立下津小学校", "P29_005": "和歌山県海南市下津町下津477", "P29_006": "3", "P29_007": "1", "P29_008": "00", "P29_009": null }, "geometry": { "type": "Point", "coordinates": [ 135.153040013820998, 34.10936516693706 ] } },
{ "type": "Feature", "properties": { "P29_001": "30304", "P29_002": "B130210001094", "P29_003": "16001", "P29_004": "紀美野町立野上小学校", "P29_005": "和歌山県海草郡紀美野町動木1445", "P29_006": "3", "P29_007": "1", "P29_008": "00", "P29_009": null }, "geometry": { "type": "Point", "coordinates": [ 135.307059479870873, 34.163463902922281 ] } },
{ "type": "Feature", "properties": { "P29_001": "30304", "P29_002": "B130210001110", "P29_003": "16001", "P29_004": "紀美野町立小川小学校", "P29_005": "和歌山県海草郡紀美野町中田4", "P29_006": "3", "P29_007": "1", "P29_008": "00", "P29_009": null }, "geometry": { "type": "Point", "coordinates": [ 135.323969843186717, 34.131720320719694 ] } },
{ "type": "Feature", "properties": { "P29_001": "30304", "P29_002": "B130210001129", "P29_003": "16001", "P29_004": "紀美野町立下神野小学校", "P29_005": "和歌山県海草郡紀美野町神野市場214", "P29_006": "3", "P29_007": "1", "P29_008": "00", "P29_009": null }, "geometry": { "type": "Point", "coordinates": [ 135.352775004986142, 34.151303457925266 ] } },
{ "type": "Feature", "properties": { "P29_001": "30208", "P29_002": "B130210001147", "P29_003": "16001", "P29_004": "紀の川市立池田小学校", "P29_005": "和歌山県紀の川市南中326-1", "P29_006": "3", "P29_007": "1", "P29_008": "00", "P29_009": null }, "geometry": { "type": "Point", "coordinates": [ 135.354963418127028, 34.277168411329548 ] } },
{ "type": "Feature", "properties": { "P29_001": "30208", "P29_002": "B130210001156", "P29_003": "16001", "P29_004": "紀の川市立田中小学校", "P29_005": "和歌山県紀の川市打田1491", "P29_006": "3", "P29_007": "1", "P29_008": "00", "P29_009": null }, "geometry": { "type": "Point", "coordinates": [ 135.364144518488985, 34.25821750845261 ] } },
{ "type": "Feature", "properties": { "P29_001": "30208", "P29_002": "B130210001165", "P29_003": "16001", "P29_004": "紀の川市立田中小学校高野分校", "P29_005": "和歌山県紀の川市高野595-2", "P29_006": "3", "P29_007": "9", "P29_008": "00", "P29_009": null }, "geometry": { "type": "Point", "coordinates": [ 135.377348885913193, 34.232334984954768 ] } },
{ "type": "Feature", "properties": { "P29_001": "30208", "P29_002": "B130210001174", "P29_003": "16001", "P29_004": "紀の川市立長田小学校", "P29_005": "和歌山県紀の川市長田中538-1", "P29_006": "3", "P29_007": "1", "P29_008": "00", "P29_009": null }, "geometry": { "type": "Point", "coordinates": [ 135.388170523252512, 34.274550616205005 ] } },
{ "type": "Feature", "properties": { "P29_001": "30208", "P29_002": "B130210001183", "P29_003": "16001", "P29_004": "紀の川市立粉河小学校", "P29_005": "和歌山県紀の川市粉河1558-1", "P29_006": "3", "P29_007": "1", "P29_008": "00", "P29_009": null }, "geometry": { "type": "Point", "coordinates": [ 135.403419158413328, 34.27207077038733 ] } },
{ "type": "Feature", "properties": { "P29_001": "30208", "P29_002": "B130210001192", "P29_003": "16001", "P29_004": "紀の川市立竜門小学校", "P29_005": "和歌山県紀の川市杉原257-1", "P29_006": "3", "P29_007": "1", "P29_008": "00", "P29_009": null }, "geometry": { "type": "Point", "coordinates": [ 135.402361360824727, 34.257521323252654 ] } },
{ "type": "Feature", "properties": { "P29_001": "30208", "P29_002": "B130210001209", "P29_003": "16001", "P29_004": "紀の川市立川原小学校", "P29_005": "和歌山県紀の川市野上92-2", "P29_006": "3", "P29_007": "1", "P29_008": "00", "P29_009": null }, "geometry": { "type": "Point", "coordinates": [ 135.427166738171167, 34.290970823838222 ] } },
{ "type": "Feature", "properties": { "P29_001": "30208", "P29_002": "B130210001218", "P29_003": "16001", "P29_004": "紀の川市立鞆渕小学校", "P29_005": "和歌山県紀の川市中鞆渕968-1", "P29_006": "3", "P29_007": "9", "P29_008": "00", "P29_009": null }, "geometry": { "type": "Point", "coordinates": [ 135.458105645456413, 34.219242039807831 ] } },
{ "type": "Feature", "properties": { "P29_001": "30208", "P29_002": "B130210001227", "P29_003": "16001", "P29_004": "紀の川市立名手小学校", "P29_005": "和歌山県紀の川市名手西野335", "P29_006": "3", "P29_007": "1", "P29_008": "00", "P29_009": null }, "geometry": { "type": "Point", "coordinates": [ 135.432709085112464, 34.271431932983781 ] } },
{ "type": "Feature", "properties": { "P29_001": "30208", "P29_002": "B130210001236", "P29_003": "16001", "P29_004": "紀の川市立上名手小学校", "P29_005": "和歌山県紀の川市江川中988-4", "P29_006": "3", "P29_007": "1", "P29_008": "00", "P29_009": null }, "geometry": { "type": "Point", "coordinates": [ 135.4441677174745, 34.294119129570056 ] } },
{ "type": "Feature", "properties": { "P29_001": "30208", "P29_002": "B130210001245", "P29_003": "16001", "P29_004": "紀の川市立麻生津小学校", "P29_005": "和歌山県紀の川市麻生津中10-2", "P29_006": "3", "P29_007": "1", "P29_008": "00", "P29_009": null }, "geometry": { "type": "Point", "coordinates": [ 135.444273151955088, 34.26602821960568 ] } },
{ "type": "Feature", "properties": { "P29_001": "30208", "P29_002": "B130210001254", "P29_003": "16001", "P29_004": "紀の川市立安楽川小学校", "P29_005": "和歌山県紀の川市桃山町市場2", "P29_006": "3", "P29_007": "1", "P29_008": "00", "P29_009": null }, "geometry": { "type": "Point", "coordinates": [ 135.350178080099226, 34.241328880265335 ] } },
{ "type": "Feature", "properties": { "P29_001": "30208", "P29_002": "B130210001263", "P29_003": "16001", "P29_004": "紀の川市立調月小学校", "P29_005": "和歌山県紀の川市桃山町調月1101", "P29_006": "3", "P29_007": "1", "P29_008": "00", "P29_009": null }, "geometry": { "type": "Point", "coordinates": [ 135.331304490197653, 34.227543505873449 ] } },
{ "type": "Feature", "properties": { "P29_001": "30208", "P29_002": "B130210001272", "P29_003": "16001", "P29_004": "紀の川市立丸栖小学校", "P29_005": "和歌山県紀の川市貴志川町丸栖206", "P29_006": "3", "P29_007": "1", "P29_008": "00", "P29_009": null }, "geometry": { "type": "Point", "coordinates": [ 135.32627099637628, 34.2316531678592 ] } },
{ "type": "Feature", "properties": { "P29_001": "30208", "P29_002": "B130210001281", "P29_003": "16001", "P29_004": "紀の川市立西貴志小学校", "P29_005": "和歌山県紀の川市貴志川町長原167", "P29_006": "3", "P29_007": "1", "P29_008": "00", "P29_009": null }, "geometry": { "type": "Point", "coordinates": [ 135.299608816833143, 34.214474915373387 ] } },
{ "type": "Feature", "properties": { "P29_001": "30208", "P29_002": "B130210001290", "P29_003": "16001", "P29_004": "紀の川市立中貴志小学校", "P29_005": "和歌山県紀の川市貴志川町上野山55", "P29_006": "3", "P29_007": "1", "P29_008": "00", "P29_009": null }, "geometry": { "type": "Point", "coordinates": [ 135.312119762116936, 34.216948772625052 ] } },
{ "type": "Feature", "properties": { "P29_001": "30208", "P29_002": "B130210001307", "P29_003": "16001", "P29_004": "紀の川市立東貴志小学校", "P29_005": "和歌山県紀の川市貴志川町井ノ口148", "P29_006": "3", "P29_007": "1", "P29_008": "00", "P29_009": null }, "geometry": { "type": "Point", "coordinates": [ 135.321327150150324, 34.206179893142917 ] } },
{ "type": "Feature", "properties": { "P29_001": "30209", "P29_002": "B130210001316", "P29_003": "16001", "P29_004": "岩出市立岩出小学校", "P29_005": "和歌山県岩出市清水30", "P29_006": "3", "P29_007": "1", "P29_008": "00", "P29_009": null }, "geometry": { "type": "Point", "coordinates": [ 135.318303011728545, 34.250818118833585 ] } },
{ "type": "Feature", "properties": { "P29_001": "30209", "P29_002": "B130210001325", "P29_003": "16001", "P29_004": "岩出市立山崎小学校", "P29_005": "和歌山県岩出市中黒100", "P29_006": "3", "P29_007": "1", "P29_008": "00", "P29_009": null }, "geometry": { "type": "Point", "coordinates": [ 135.291728327214599, 34.267527608496451 ] } },
{ "type": "Feature", "properties": { "P29_001": "30209", "P29_002": "B130210001334", "P29_003": "16001", "P29_004": "岩出市立根来小学校", "P29_005": "和歌山県岩出市根来479", "P29_006": "3", "P29_007": "1", "P29_008": "00", "P29_009": null }, "geometry": { "type": "Point", "coordinates": [ 135.309095392529542, 34.277959510058707 ] } },
{ "type": "Feature", "properties": { "P29_001": "30209", "P29_002": "B130210001343", "P29_003": "16001", "P29_004": "岩出市立上岩出小学校", "P29_005": "和歌山県岩出市水栖514", "P29_006": "3", "P29_007": "1", "P29_008": "00", "P29_009": null }, "geometry": { "type": "Point", "coordinates": [ 135.326144199908782, 34.270468155245602 ] } },
{ "type": "Feature", "properties": { "P29_001": "30209", "P29_002": "B130210001352", "P29_003": "16001", "P29_004": "岩出市立山崎北小学校", "P29_005": "和歌山県岩出市西安上70", "P29_006": "3", "P29_007": "1", "P29_008": "00", "P29_009": null }, "geometry": { "type": "Point", "coordinates": [ 135.291807176636183, 34.276609413981959 ] } },
{ "type": "Feature", "properties": { "P29_001": "30209", "P29_002": "B130210001361", "P29_003": "16001", "P29_004": "岩出市立中央小学校", "P29_005": "和歌山県岩出市川尻202", "P29_006": "3", "P29_007": "1", "P29_008": "00", "P29_009": null }, "geometry": { "type": "Point", "coordinates": [ 135.316776150719676, 34.270544907987329 ] } },
{ "type": "Feature", "properties": { "P29_001": "30341", "P29_002": "B130210001370", "P29_003": "16001", "P29_004": "かつらぎ町立笠田小学校", "P29_005": "和歌山県伊都郡かつらぎ町笠田東558", "P29_006": "3", "P29_007": "1", "P29_008": "00", "P29_009": null }, "geometry": { "type": "Point", "coordinates": [ 135.475306590474815, 34.28821961906398 ] } },
{ "type": "Feature", "properties": { "P29_001": "30341", "P29_002": "B130210001389", "P29_003": "16001", "P29_004": "かつらぎ町立大谷小学校", "P29_005": "和歌山県伊都郡かつらぎ町大谷338", "P29_006": "3", "P29_007": "1", "P29_008": "00", "P29_009": null }, "geometry": { "type": "Point", "coordinates": [ 135.494170070039473, 34.301172544278685 ] } },
{ "type": "Feature", "properties": { "P29_001": "30341", "P29_002": "B130210001398", "P29_003": "16001", "P29_004": "かつらぎ町立妙寺小学校", "P29_005": "和歌山県伊都郡かつらぎ町妙寺857", "P29_006": "3", "P29_007": "1", "P29_008": "00", "P29_009": null }, "geometry": { "type": "Point", "coordinates": [ 135.526310329405845, 34.303015390993529 ] } },
{ "type": "Feature", "properties": { "P29_001": "30341", "P29_002": "B130210001405", "P29_003": "16001", "P29_004": "かつらぎ町立渋田小学校", "P29_005": "和歌山県伊都郡かつらぎ町東渋田151-1", "P29_006": "3", "P29_007": "1", "P29_008": "00", "P29_009": null }, "geometry": { "type": "Point", "coordinates": [ 135.47636938334918, 34.276908775328778 ] } },
{ "type": "Feature", "properties": { "P29_001": "30203", "P29_002": "B130210001414", "P29_003": "16001", "P29_004": "橋本市立高野口小学校", "P29_005": "和歌山県橋本市高野口町名倉226", "P29_006": "3", "P29_007": "1", "P29_008": "00", "P29_009": null }, "geometry": { "type": "Point", "coordinates": [ 135.552711331179239, 34.304091547635252 ] } },
{ "type": "Feature", "properties": { "P29_001": "30203", "P29_002": "B130210001423", "P29_003": "16001", "P29_004": "橋本市立応其小学校", "P29_005": "和歌山県橋本市高野口町名古曽19-1", "P29_006": "3", "P29_007": "1", "P29_008": "00", "P29_009": null }, "geometry": { "type": "Point", "coordinates": [ 135.567355750164324, 34.303578534780591 ] } },
{ "type": "Feature", "properties": { "P29_001": "30343", "P29_002": "B130210001432", "P29_003": "16001", "P29_004": "九度山町立九度山小学校", "P29_005": "和歌山県伊都郡九度山町九度山1077", "P29_006": "3", "P29_007": "1", "P29_008": "00", "P29_009": null }, "geometry": { "type": "Point", "coordinates": [ 135.564266921772031, 34.287194224698375 ] } },
{ "type": "Feature", "properties": { "P29_001": "30343", "P29_002": "B130210001441", "P29_003": "16001", "P29_004": "九度山町立河根小学校", "P29_005": "和歌山県伊都郡九度山町河根118", "P29_006": "3", "P29_007": "1", "P29_008": "00", "P29_009": null }, "geometry": { "type": "Point", "coordinates": [ 135.578021088651838, 34.274729391300006 ] } },
{ "type": "Feature", "properties": { "P29_001": "30343", "P29_002": "B130210001450", "P29_003": "16001", "P29_004": "九度山町立丹生川小学校", "P29_005": "和歌山県伊都郡九度山町丹生川582", "P29_006": "3", "P29_007": "9", "P29_008": "00", "P29_009": null }, "geometry": { "type": "Point", "coordinates": [ 135.606843773148853, 34.276794065133004 ] } },
{ "type": "Feature", "properties": { "P29_001": "30344", "P29_002": "B130210001469", "P29_003": "16001", "P29_004": "高野町立高野山小学校", "P29_005": "和歌山県伊都郡高野町高野山376", "P29_006": "3", "P29_007": "1", "P29_008": "00", "P29_009": null }, "geometry": { "type": "Point", "coordinates": [ 135.584812037467941, 34.210527049485101 ] } },
{ "type": "Feature", "properties": { "P29_001": "30344", "P29_002": "B130210001478", "P29_003": "16001", "P29_004": "高野町立花坂小学校", "P29_005": "和歌山県伊都郡高野町花坂652", "P29_006": "3", "P29_007": "1", "P29_008": "00", "P29_009": null }, "geometry": { "type": "Point", "coordinates": [ 135.530707820711541, 34.21688902436113 ] } },
{ "type": "Feature", "properties": { "P29_001": "30341", "P29_002": "B130210001487", "P29_003": "16001", "P29_004": "かつらぎ町立梁瀬小学校", "P29_005": "和歌山県伊都郡かつらぎ町花園梁瀬567-1", "P29_006": "3", "P29_007": "1", "P29_008": "00", "P29_009": null }, "geometry": { "type": "Point", "coordinates": [ 135.516483097787756, 34.136371640175255 ] } },
{ "type": "Feature", "properties": { "P29_001": "30361", "P29_002": "B130210001496", "P29_003": "16001", "P29_004": "湯浅町立湯浅小学校", "P29_005": "和歌山県有田郡湯浅町湯浅1570", "P29_006": "3", "P29_007": "1", "P29_008": "00", "P29_009": null }, "geometry": { "type": "Point", "coordinates": [ 135.180881862555708, 34.034585092176435 ] } },
{ "type": "Feature", "properties": { "P29_001": "30361", "P29_002": "B130210001502", "P29_003": "16001", "P29_004": "湯浅町立山田小学校", "P29_005": "和歌山県有田郡湯浅町山田1920", "P29_006": "3", "P29_007": "1", "P29_008": "00", "P29_009": null }, "geometry": { "type": "Point", "coordinates": [ 135.203488264665083, 34.027796601219023 ] } },
{ "type": "Feature", "properties": { "P29_001": "30361", "P29_002": "B130210001511", "P29_003": "16001", "P29_004": "湯浅町立田栖川小学校", "P29_005": "和歌山県有田郡湯浅町栖原1384", "P29_006": "3", "P29_007": "1", "P29_008": "00", "P29_009": null }, "geometry": { "type": "Point", "coordinates": [ 135.165540986970228, 34.044230323261615 ] } },
{ "type": "Feature", "properties": { "P29_001": "30361", "P29_002": "B130210001520", "P29_003": "16001", "P29_004": "湯浅町立田栖川小学校吉川分校", "P29_005": "和歌山県有田郡湯浅町吉川938-2", "P29_006": "3", "P29_007": "1", "P29_008": "00", "P29_009": null }, "geometry": { "type": "Point", "coordinates": [ 135.184888291458492, 34.050026480500257 ] } },
{ "type": "Feature", "properties": { "P29_001": "30362", "P29_002": "B130210001539", "P29_003": "16001", "P29_004": "広川町立広小学校", "P29_005": "和歌山県有田郡広川町広631", "P29_006": "3", "P29_007": "1", "P29_008": "00", "P29_009": null }, "geometry": { "type": "Point", "coordinates": [ 135.176137659086152, 34.023436181965963 ] } },
{ "type": "Feature", "properties": { "P29_001": "30362", "P29_002": "B130210001548", "P29_003": "16001", "P29_004": "広川町立南広小学校", "P29_005": "和歌山県有田郡広川町上中野1175", "P29_006": "3", "P29_007": "1", "P29_008": "00", "P29_009": null }, "geometry": { "type": "Point", "coordinates": [ 135.17565936248883, 34.013016238259475 ] } },
{ "type": "Feature", "properties": { "P29_001": "30362", "P29_002": "B130210001557", "P29_003": "16001", "P29_004": "広川町立南広小学校西広分校", "P29_005": "和歌山県有田郡広川町唐尾15-2", "P29_006": "3", "P29_007": "1", "P29_008": "00", "P29_009": null }, "geometry": { "type": "Point", "coordinates": [ 135.152631664174123, 34.005996670071092 ] } },
{ "type": "Feature", "properties": { "P29_001": "30362", "P29_002": "B130210001566", "P29_003": "16001", "P29_004": "広川町立南広小学校井関分校", "P29_005": "和歌山県有田郡広川町井関1053", "P29_006": "3", "P29_007": "1", "P29_008": "00", "P29_009": null }, "geometry": { "type": "Point", "coordinates": [ 135.192228998173903, 34.008606995942699 ] } },
{ "type": "Feature", "properties": { "P29_001": "30362", "P29_002": "B130210001575", "P29_003": "16001", "P29_004": "広川町立津木小学校", "P29_005": "和歌山県有田郡広川町上津木431", "P29_006": "3", "P29_007": "1", "P29_008": "00", "P29_009": null }, "geometry": { "type": "Point", "coordinates": [ 135.213183830223926, 33.970101349279261 ] } },
{ "type": "Feature", "properties": { "P29_001": "30366", "P29_002": "B130210001584", "P29_003": "16001", "P29_004": "有田川町立藤並小学校", "P29_005": "和歌山県有田郡有田川町天満439-1", "P29_006": "3", "P29_007": "1", "P29_008": "00", "P29_009": null }, "geometry": { "type": "Point", "coordinates": [ 135.207073261390178, 34.060937748963454 ] } },
{ "type": "Feature", "properties": { "P29_001": "30366", "P29_002": "B130210001593", "P29_003": "16001", "P29_004": "有田川町立田殿小学校", "P29_005": "和歌山県有田郡有田川町井口47-1", "P29_006": "3", "P29_007": "1", "P29_008": "00", "P29_009": null }, "geometry": { "type": "Point", "coordinates": [ 135.213878613975339, 34.07853648468199 ] } },
{ "type": "Feature", "properties": { "P29_001": "30366", "P29_002": "B130210001600", "P29_003": "16001", "P29_004": "有田川町立御霊小学校", "P29_005": "和歌山県有田郡有田川町庄30-1", "P29_006": "3", "P29_007": "1", "P29_008": "00", "P29_009": null }, "geometry": { "type": "Point", "coordinates": [ 135.241099079194157, 34.063776544028094 ] } },
{ "type": "Feature", "properties": { "P29_001": "30366", "P29_002": "B130210001619", "P29_003": "16001", "P29_004": "有田川町立石垣小学校", "P29_005": "和歌山県有田郡有田川町吉原792-1", "P29_006": "3", "P29_007": "1", "P29_008": "00", "P29_009": null }, "geometry": { "type": "Point", "coordinates": [ 135.253045676477996, 34.049279282973814 ] } },
{ "type": "Feature", "properties": { "P29_001": "30366", "P29_002": "B130210001628", "P29_003": "16001", "P29_004": "有田川町立鳥屋城小学校", "P29_005": "和歌山県有田郡有田川町金屋647", "P29_006": "3", "P29_007": "1", "P29_008": "00", "P29_009": null }, "geometry": { "type": "Point", "coordinates": [ 135.250577853125577, 34.065915958202524 ] } },
{ "type": "Feature", "properties": { "P29_001": "30366", "P29_002": "B130210001637", "P29_003": "16001", "P29_004": "有田川町立五西月小学校", "P29_005": "和歌山県有田郡有田川町本堂252-2", "P29_006": "3", "P29_007": "9", "P29_008": "00", "P29_009": null }, "geometry": { "type": "Point", "coordinates": [ 135.289738896453599, 34.090615020474218 ] } },
{ "type": "Feature", "properties": { "P29_001": "30366", "P29_002": "B130210001646", "P29_003": "16001", "P29_004": "有田川町立西ケ峯小学校", "P29_005": "和歌山県有田郡有田川町西ヶ峯1489", "P29_006": "3", "P29_007": "9", "P29_008": "00", "P29_009": null }, "geometry": { "type": "Point", "coordinates": [ 135.278036901080611, 34.093803798135838 ] } },
{ "type": "Feature", "properties": { "P29_001": "30366", "P29_002": "B130210001655", "P29_003": "16001", "P29_004": "有田川町立八幡小学校", "P29_005": "和歌山県有田郡有田川町清水274-1", "P29_006": "3", "P29_007": "1", "P29_008": "00", "P29_009": null }, "geometry": { "type": "Point", "coordinates": [ 135.428087334759169, 34.08577943239559 ] } },
{ "type": "Feature", "properties": { "P29_001": "30366", "P29_002": "B130210001664", "P29_003": "16001", "P29_004": "有田川町立楠本小学校", "P29_005": "和歌山県有田郡有田川町楠本1", "P29_006": "3", "P29_007": "9", "P29_008": "00", "P29_009": null }, "geometry": { "type": "Point", "coordinates": [ 135.365291953521819, 34.099253692919966 ] } },
{ "type": "Feature", "properties": { "P29_001": "30366", "P29_002": "B130210001673", "P29_003": "16001", "P29_004": "有田川町立久野原小学校", "P29_005": "和歌山県有田郡有田川町久野原1235", "P29_006": "3", "P29_007": "9", "P29_008": "00", "P29_009": null }, "geometry": { "type": "Point", "coordinates": [ 135.452207708667572, 34.097094777618203 ] } },
{ "type": "Feature", "properties": { "P29_001": "30366", "P29_002": "B130210001682", "P29_003": "16001", "P29_004": "有田川町立安諦小学校", "P29_005": "和歌山県有田郡有田川町板尾139", "P29_006": "3", "P29_007": "1", "P29_008": "00", "P29_009": null }, "geometry": { "type": "Point", "coordinates": [ 135.494322217078121, 34.119862660865685 ] } },
{ "type": "Feature", "properties": { "P29_001": "30361", "P29_002": "B130210001691", "P29_003": "16001", "P29_004": "湯浅町立田村小学校", "P29_005": "和歌山県有田郡湯浅町田359", "P29_006": "3", "P29_007": "1", "P29_008": "00", "P29_009": null }, "geometry": { "type": "Point", "coordinates": [ 135.15101466213963, 34.054888525189924 ] } },
{ "type": "Feature", "properties": { "P29_001": "30366", "P29_002": "B130210001708", "P29_003": "16001", "P29_004": "有田川町立小川小学校", "P29_005": "和歌山県有田郡有田川町小川610", "P29_006": "3", "P29_007": "1", "P29_008": "00", "P29_009": null }, "geometry": { "type": "Point", "coordinates": [ 135.26777821067148, 34.07273606999275 ] } },
{ "type": "Feature", "properties": { "P29_001": "30381", "P29_002": "B130210001717", "P29_003": "16001", "P29_004": "美浜町立松原小学校", "P29_005": "和歌山県日高郡美浜町吉原774-5", "P29_006": "3", "P29_007": "1", "P29_008": "00", "P29_009": null }, "geometry": { "type": "Point", "coordinates": [ 135.144611721163898, 33.889351891695945 ] } },
{ "type": "Feature", "properties": { "P29_001": "30381", "P29_002": "B130210001726", "P29_003": "16001", "P29_004": "美浜町立和田小学校", "P29_005": "和歌山県日高郡美浜町和田1138-176", "P29_006": "3", "P29_007": "1", "P29_008": "00", "P29_009": null }, "geometry": { "type": "Point", "coordinates": [ 135.131618500103002, 33.895645274240472 ] } },
{ "type": "Feature", "properties": { "P29_001": "30382", "P29_002": "B130210001744", "P29_003": "16001", "P29_004": "日高町立志賀小学校", "P29_005": "和歌山県日高郡日高町志賀1800", "P29_006": "3", "P29_007": "1", "P29_008": "00", "P29_009": null }, "geometry": { "type": "Point", "coordinates": [ 135.114777906849071, 33.923413211119097 ] } },
{ "type": "Feature", "properties": { "P29_001": "30382", "P29_002": "B130210001753", "P29_003": "16001", "P29_004": "日高町立内原小学校", "P29_005": "和歌山県日高郡日高町萩原964-1", "P29_006": "3", "P29_007": "1", "P29_008": "00", "P29_009": null }, "geometry": { "type": "Point", "coordinates": [ 135.141306682489954, 33.930487544456739 ] } },
{ "type": "Feature", "properties": { "P29_001": "30383", "P29_002": "B130210001762", "P29_003": "16001", "P29_004": "由良町立由良小学校", "P29_005": "和歌山県日高郡由良町里166", "P29_006": "3", "P29_007": "1", "P29_008": "00", "P29_009": null }, "geometry": { "type": "Point", "coordinates": [ 135.121441522782305, 33.96084789268248 ] } },
{ "type": "Feature", "properties": { "P29_001": "30392", "P29_002": "B130210001799", "P29_003": "16001", "P29_004": "日高川町立和佐小学校", "P29_005": "和歌山県日高郡日高川町和佐1550", "P29_006": "3", "P29_007": "1", "P29_008": "00", "P29_009": null }, "geometry": { "type": "Point", "coordinates": [ 135.210065721279989, 33.898994690284006 ] } },
{ "type": "Feature", "properties": { "P29_001": "30392", "P29_002": "B130210001806", "P29_003": "16001", "P29_004": "日高川町立江川小学校", "P29_005": "和歌山県日高郡日高川町江川2133", "P29_006": "3", "P29_007": "1", "P29_008": "00", "P29_009": null }, "geometry": { "type": "Point", "coordinates": [ 135.224032222205096, 33.88975934760132 ] } },
{ "type": "Feature", "properties": { "P29_001": "30392", "P29_002": "B130210001815", "P29_003": "16001", "P29_004": "日高川町立山野小学校", "P29_005": "和歌山県日高郡日高川町山野538", "P29_006": "3", "P29_007": "1", "P29_008": "00", "P29_009": null }, "geometry": { "type": "Point", "coordinates": [ 135.247699141986544, 33.892713883674517 ] } },
{ "type": "Feature", "properties": { "P29_001": "30392", "P29_002": "B130210001824", "P29_003": "16001", "P29_004": "日高川町立三百瀬小学校", "P29_005": "和歌山県日高郡日高川町三百瀬885-1", "P29_006": "3", "P29_007": "1", "P29_008": "00", "P29_009": null }, "geometry": { "type": "Point", "coordinates": [ 135.247895982266613, 33.941795377779584 ] } },
{ "type": "Feature", "properties": { "P29_001": "30392", "P29_002": "B130210001833", "P29_003": "16001", "P29_004": "日高川町立川原河小学校", "P29_005": "和歌山県日高郡日高川町川原河381", "P29_006": "3", "P29_007": "1", "P29_008": "00", "P29_009": null }, "geometry": { "type": "Point", "coordinates": [ 135.372073279080951, 33.982813012422831 ] } },
{ "type": "Feature", "properties": { "P29_001": "30392", "P29_002": "B130210001842", "P29_003": "16001", "P29_004": "日高川町立笠松小学校", "P29_005": "和歌山県日高郡日高川町初湯川168", "P29_006": "3", "P29_007": "1", "P29_008": "00", "P29_009": null }, "geometry": { "type": "Point", "coordinates": [ 135.385858457684208, 33.961122606558021 ] } },
{ "type": "Feature", "properties": { "P29_001": "30392", "P29_002": "B130210001851", "P29_003": "16001", "P29_004": "日高川町立寒川第一小学校", "P29_005": "和歌山県日高郡日高川町寒川217", "P29_006": "3", "P29_007": "1", "P29_008": "00", "P29_009": null }, "geometry": { "type": "Point", "coordinates": [ 135.469592744360028, 33.955011023334379 ] } },
{ "type": "Feature", "properties": { "P29_001": "30206", "P29_002": "B130210001860", "P29_003": "16001", "P29_004": "田辺市立龍神小学校", "P29_005": "和歌山県田辺市龍神村湯ノ又68", "P29_006": "3", "P29_007": "1", "P29_008": "00", "P29_009": null }, "geometry": { "type": "Point", "coordinates": [ 135.554119619907539, 33.935298969601845 ] } },
{ "type": "Feature", "properties": { "P29_001": "30206", "P29_002": "B130210001879", "P29_003": "16001", "P29_004": "田辺市立中山路小学校", "P29_005": "和歌山県田辺市龍神村柳瀬1086-1", "P29_006": "3", "P29_007": "1", "P29_008": "00", "P29_009": null }, "geometry": { "type": "Point", "coordinates": [ 135.473058183927151, 33.881941580256886 ] } },
{ "type": "Feature", "properties": { "P29_001": "30206", "P29_002": "B130210001888", "P29_003": "16001", "P29_004": "田辺市立上山路小学校", "P29_005": "和歌山県田辺市龍神村東528", "P29_006": "3", "P29_007": "1", "P29_008": "00", "P29_009": null }, "geometry": { "type": "Point", "coordinates": [ 135.491438255324283, 33.892407467982117 ] } },
{ "type": "Feature", "properties": { "P29_001": "30391", "P29_002": "B130210001897", "P29_003": "16001", "P29_004": "みなべ町立清川小学校", "P29_005": "和歌山県日高郡みなべ町清川2340", "P29_006": "3", "P29_007": "1", "P29_008": "00", "P29_009": null }, "geometry": { "type": "Point", "coordinates": [ 135.399416969597468, 33.849749755349208 ] } },
{ "type": "Feature", "properties": { "P29_001": "30391", "P29_002": "B130210001904", "P29_003": "16001", "P29_004": "みなべ町立上南部小学校", "P29_005": "和歌山県日高郡みなべ町谷口549", "P29_006": "3", "P29_007": "1", "P29_008": "00", "P29_009": null }, "geometry": { "type": "Point", "coordinates": [ 135.328266113361252, 33.791102799551233 ] } },
{ "type": "Feature", "properties": { "P29_001": "30391", "P29_002": "B130210001913", "P29_003": "16001", "P29_004": "みなべ町立南部小学校", "P29_005": "和歌山県日高郡みなべ町北道289", "P29_006": "3", "P29_007": "1", "P29_008": "00", "P29_009": null }, "geometry": { "type": "Point", "coordinates": [ 135.321609586737793, 33.766192369008813 ] } },
{ "type": "Feature", "properties": { "P29_001": "30391", "P29_002": "B130210001922", "P29_003": "16001", "P29_004": "みなべ町立岩代小学校", "P29_005": "和歌山県日高郡みなべ町西岩代2162", "P29_006": "3", "P29_007": "1", "P29_008": "00", "P29_009": null }, "geometry": { "type": "Point", "coordinates": [ 135.281393002348494, 33.781716999312529 ] } },
{ "type": "Feature", "properties": { "P29_001": "30390", "P29_002": "B130210001931", "P29_003": "16001", "P29_004": "印南町立切目小学校", "P29_005": "和歌山県日高郡印南町西ノ地536", "P29_006": "3", "P29_007": "1", "P29_008": "00", "P29_009": null }, "geometry": { "type": "Point", "coordinates": [ 135.23518896086523, 33.802519002789879 ] } },
{ "type": "Feature", "properties": { "P29_001": "30390", "P29_002": "B130210001940", "P29_003": "16001", "P29_004": "印南町立清流小学校", "P29_005": "和歌山県日高郡印南町羽六766", "P29_006": "3", "P29_007": "1", "P29_008": "00", "P29_009": null }, "geometry": { "type": "Point", "coordinates": [ 135.262403109489412, 33.838756683942123 ] } },
{ "type": "Feature", "properties": { "P29_001": "30390", "P29_002": "B130210001959", "P29_003": "16001", "P29_004": "印南町立稲原小学校", "P29_005": "和歌山県日高郡印南町印南原4955-1", "P29_006": "3", "P29_007": "1", "P29_008": "00", "P29_009": null }, "geometry": { "type": "Point", "coordinates": [ 135.233581033257906, 33.859870095742579 ] } },
{ "type": "Feature", "properties": { "P29_001": "30390", "P29_002": "B130210001968", "P29_003": "16001", "P29_004": "印南町立印南小学校", "P29_005": "和歌山県日高郡印南町印南1915", "P29_006": "3", "P29_007": "1", "P29_008": "00", "P29_009": null }, "geometry": { "type": "Point", "coordinates": [ 135.21778535050035, 33.816361762864588 ] } },
{ "type": "Feature", "properties": { "P29_001": "30392", "P29_002": "B130210001977", "P29_003": "16001", "P29_004": "日高川町立川辺西小学校", "P29_005": "和歌山県日高郡日高川町小熊3141", "P29_006": "3", "P29_007": "1", "P29_008": "00", "P29_009": null }, "geometry": { "type": "Point", "coordinates": [ 135.187633359102136, 33.910376880683167 ] } },
{ "type": "Feature", "properties": { "P29_001": "30391", "P29_002": "B130210001986", "P29_003": "16001", "P29_004": "みなべ町立高城小学校", "P29_005": "和歌山県日高郡みなべ町土井431", "P29_006": "3", "P29_007": "1", "P29_008": "00", "P29_009": null }, "geometry": { "type": "Point", "coordinates": [ 135.350815467076586, 33.853218044143816 ] } },
{ "type": "Feature", "properties": { "P29_001": "30401", "P29_002": "B130210001995", "P29_003": "16001", "P29_004": "白浜町立白浜第一小学校", "P29_005": "和歌山県西牟婁郡白浜町196", "P29_006": "3", "P29_007": "1", "P29_008": "00", "P29_009": null }, "geometry": { "type": "Point", "coordinates": [ 135.348083694365641, 33.689899744911429 ] } },
{ "type": "Feature", "properties": { "P29_001": "30401", "P29_002": "B130210002002", "P29_003": "16001", "P29_004": "白浜町立白浜第二小学校", "P29_005": "和歌山県西牟婁郡白浜町2234", "P29_006": "3", "P29_007": "1", "P29_008": "00", "P29_009": null }, "geometry": { "type": "Point", "coordinates": [ 135.345453743772282, 33.675332129295448 ] } },
{ "type": "Feature", "properties": { "P29_001": "30401", "P29_002": "B130210002011", "P29_003": "16001", "P29_004": "白浜町立南白浜小学校", "P29_005": "和歌山県西牟婁郡白浜町中1696-2", "P29_006": "3", "P29_007": "1", "P29_008": "00", "P29_009": null }, "geometry": { "type": "Point", "coordinates": [ 135.389759172169363, 33.649642086122114 ] } },
{ "type": "Feature", "properties": { "P29_001": "30401", "P29_002": "B130210002020", "P29_003": "16001", "P29_004": "白浜町立富田小学校", "P29_005": "和歌山県西牟婁郡白浜町十九渕545", "P29_006": "3", "P29_007": "1", "P29_008": "00", "P29_009": null }, "geometry": { "type": "Point", "coordinates": [ 135.405879474240749, 33.646849334526664 ] } },
{ "type": "Feature", "properties": { "P29_001": "30401", "P29_002": "B130210002039", "P29_003": "16001", "P29_004": "白浜町立北富田小学校", "P29_005": "和歌山県西牟婁郡白浜町内ノ川579", "P29_006": "3", "P29_007": "1", "P29_008": "00", "P29_009": null }, "geometry": { "type": "Point", "coordinates": [ 135.409063536084631, 33.673648089728921 ] } },
{ "type": "Feature", "properties": { "P29_001": "30401", "P29_002": "B130210002048", "P29_003": "16001", "P29_004": "白浜町立西富田小学校", "P29_005": "和歌山県西牟婁郡白浜町才野47", "P29_006": "3", "P29_007": "1", "P29_008": "00", "P29_009": null }, "geometry": { "type": "Point", "coordinates": [ 135.386831602906369, 33.662919142122277 ] } },
{ "type": "Feature", "properties": { "P29_001": "30206", "P29_002": "B130210002057", "P29_003": "16001", "P29_004": "田辺市立鮎川小学校", "P29_005": "和歌山県田辺市鮎川2580-1", "P29_006": "3", "P29_007": "1", "P29_008": "00", "P29_009": null }, "geometry": { "type": "Point", "coordinates": [ 135.487896617230149, 33.7293710465811 ] } },
{ "type": "Feature", "properties": { "P29_001": "30404", "P29_002": "B130210002066", "P29_003": "16001", "P29_004": "上富田町立生馬小学校", "P29_005": "和歌山県西牟婁郡上富田町生馬1901", "P29_006": "3", "P29_007": "1", "P29_008": "00", "P29_009": null }, "geometry": { "type": "Point", "coordinates": [ 135.440655647471431, 33.689822822270578 ] } },
{ "type": "Feature", "properties": { "P29_001": "30404", "P29_002": "B130210002075", "P29_003": "16001", "P29_004": "上富田町立朝来小学校", "P29_005": "和歌山県西牟婁郡上富田町朝来2750", "P29_006": "3", "P29_007": "1", "P29_008": "00", "P29_009": null }, "geometry": { "type": "Point", "coordinates": [ 135.422522665600269, 33.698692629768757 ] } },
{ "type": "Feature", "properties": { "P29_001": "30404", "P29_002": "B130210002084", "P29_003": "16001", "P29_004": "上富田町立岩田小学校", "P29_005": "和歌山県西牟婁郡上富田町岩田1750", "P29_006": "3", "P29_007": "1", "P29_008": "00", "P29_009": null }, "geometry": { "type": "Point", "coordinates": [ 135.443891214761209, 33.706250224657417 ] } },
{ "type": "Feature", "properties": { "P29_001": "30404", "P29_002": "B130210002093", "P29_003": "16001", "P29_004": "上富田町立岡小学校", "P29_005": "和歌山県西牟婁郡上富田町岡638-1", "P29_006": "3", "P29_007": "1", "P29_008": "00", "P29_009": null }, "geometry": { "type": "Point", "coordinates": [ 135.443781079041997, 33.724577658281909 ] } },
{ "type": "Feature", "properties": { "P29_001": "30404", "P29_002": "B130210002100", "P29_003": "16001", "P29_004": "上富田町立市ノ瀬小学校", "P29_005": "和歌山県西牟婁郡上富田町市ノ瀬604", "P29_006": "3", "P29_007": "1", "P29_008": "00", "P29_009": null }, "geometry": { "type": "Point", "coordinates": [ 135.462226720131724, 33.712662713859864 ] } },
{ "type": "Feature", "properties": { "P29_001": "30401", "P29_002": "B130210002119", "P29_003": "16001", "P29_004": "白浜町立日置小学校", "P29_005": "和歌山県西牟婁郡白浜町日置979-1", "P29_006": "3", "P29_007": "1", "P29_008": "00", "P29_009": null }, "geometry": { "type": "Point", "coordinates": [ 135.441907138572418, 33.565746512858645 ] } },
{ "type": "Feature", "properties": { "P29_001": "30401", "P29_002": "B130210002128", "P29_003": "16001", "P29_004": "白浜町立安宅小学校", "P29_005": "和歌山県西牟婁郡白浜町安宅217", "P29_006": "3", "P29_007": "1", "P29_008": "00", "P29_009": null }, "geometry": { "type": "Point", "coordinates": [ 135.465653377796741, 33.57836029120768 ] } },
{ "type": "Feature", "properties": { "P29_001": "30401", "P29_002": "B130210002137", "P29_003": "16001", "P29_004": "白浜町立安居小学校", "P29_005": "和歌山県西牟婁郡白浜町安居626", "P29_006": "3", "P29_007": "1", "P29_008": "00", "P29_009": null }, "geometry": { "type": "Point", "coordinates": [ 135.480686000078947, 33.607442478064272 ] } },
{ "type": "Feature", "properties": { "P29_001": "30406", "P29_002": "B130210002146", "P29_003": "16001", "P29_004": "すさみ町立周参見小学校", "P29_005": "和歌山県西牟婁郡すさみ町周参見4027", "P29_006": "3", "P29_007": "1", "P29_008": "00", "P29_009": null }, "geometry": { "type": "Point", "coordinates": [ 135.497683808641426, 33.551153088135472 ] } },
{ "type": "Feature", "properties": { "P29_001": "30428", "P29_002": "B130210002164", "P29_003": "16001", "P29_004": "串本町立串本小学校", "P29_005": "和歌山県東牟婁郡串本町串本776", "P29_006": "3", "P29_007": "1", "P29_008": "00", "P29_009": null }, "geometry": { "type": "Point", "coordinates": [ 135.776227431351913, 33.470718521046734 ] } },
{ "type": "Feature", "properties": { "P29_001": "30428", "P29_002": "B130210002173", "P29_003": "16001", "P29_004": "串本町立橋杭小学校", "P29_005": "和歌山県東牟婁郡串本町串本2000-12", "P29_006": "3", "P29_007": "1", "P29_008": "00", "P29_009": null }, "geometry": { "type": "Point", "coordinates": [ 135.78919892357996, 33.480732653761329 ] } },
{ "type": "Feature", "properties": { "P29_001": "30428", "P29_002": "B130210002182", "P29_003": "16001", "P29_004": "串本町立潮岬小学校", "P29_005": "和歌山県東牟婁郡串本町潮岬3136", "P29_006": "3", "P29_007": "1", "P29_008": "00", "P29_009": null }, "geometry": { "type": "Point", "coordinates": [ 135.759723751548421, 33.447307336972003 ] } },
{ "type": "Feature", "properties": { "P29_001": "30428", "P29_002": "B130210002191", "P29_003": "16001", "P29_004": "串本町立出雲小学校", "P29_005": "和歌山県東牟婁郡串本町出雲1617-21", "P29_006": "3", "P29_007": "1", "P29_008": "00", "P29_009": null }, "geometry": { "type": "Point", "coordinates": [ 135.785582036797592, 33.447795812527957 ] } },
{ "type": "Feature", "properties": { "P29_001": "30428", "P29_002": "B130210002208", "P29_003": "16001", "P29_004": "串本町立串本西小学校", "P29_005": "和歌山県東牟婁郡串本町有田410", "P29_006": "3", "P29_007": "1", "P29_008": "00", "P29_009": null }, "geometry": { "type": "Point", "coordinates": [ 135.734410392576677, 33.490707075762664 ] } },
{ "type": "Feature", "properties": { "P29_001": "30206", "P29_002": "B130210002217", "P29_003": "16001", "P29_004": "田辺市立近野小学校", "P29_005": "和歌山県田辺市中辺路町近露1061", "P29_006": "3", "P29_007": "1", "P29_008": "00", "P29_009": null }, "geometry": { "type": "Point", "coordinates": [ 135.612062600145208, 33.816933576882036 ] } },
{ "type": "Feature", "properties": { "P29_001": "30421", "P29_002": "B130210002226", "P29_003": "16001", "P29_004": "那智勝浦町立宇久井小学校", "P29_005": "和歌山県東牟婁郡那智勝浦町宇久井214", "P29_006": "3", "P29_007": "1", "P29_008": "00", "P29_009": null }, "geometry": { "type": "Point", "coordinates": [ 135.971841715071207, 33.660628038804909 ] } },
{ "type": "Feature", "properties": { "P29_001": "30421", "P29_002": "B130210002235", "P29_003": "16001", "P29_004": "那智勝浦町立市野々小学校", "P29_005": "和歌山県東牟婁郡那智勝浦町市野々2604", "P29_006": "3", "P29_007": "1", "P29_008": "00", "P29_009": null }, "geometry": { "type": "Point", "coordinates": [ 135.910382915974452, 33.663451738077576 ] } },
{ "type": "Feature", "properties": { "P29_001": "30421", "P29_002": "B130210002244", "P29_003": "16001", "P29_004": "那智勝浦町立勝浦小学校", "P29_005": "和歌山県東牟婁郡那智勝浦町勝浦816", "P29_006": "3", "P29_007": "1", "P29_008": "00", "P29_009": null }, "geometry": { "type": "Point", "coordinates": [ 135.947070058813836, 33.63104025129406 ] } },
{ "type": "Feature", "properties": { "P29_001": "30421", "P29_002": "B130210002253", "P29_003": "16001", "P29_004": "那智勝浦町立色川小学校", "P29_005": "和歌山県東牟婁郡那智勝浦町大字大野2410-1", "P29_006": "3", "P29_007": "1", "P29_008": "00", "P29_009": null }, "geometry": { "type": "Point", "coordinates": [ 135.847795287216229, 33.67515299763695 ] } },
{ "type": "Feature", "properties": { "P29_001": "30421", "P29_002": "B130210002262", "P29_003": "16001", "P29_004": "那智勝浦町立太田小学校", "P29_005": "和歌山県東牟婁郡那智勝浦町南大居200", "P29_006": "3", "P29_007": "1", "P29_008": "00", "P29_009": null }, "geometry": { "type": "Point", "coordinates": [ 135.888720185782319, 33.595992746137469 ] } },
{ "type": "Feature", "properties": { "P29_001": "30421", "P29_002": "B130210002271", "P29_003": "16001", "P29_004": "那智勝浦町立下里小学校", "P29_005": "和歌山県東牟婁郡那智勝浦町下里2862", "P29_006": "3", "P29_007": "1", "P29_008": "00", "P29_009": null }, "geometry": { "type": "Point", "coordinates": [ 135.919545051663704, 33.5756217188381 ] } },
{ "type": "Feature", "properties": { "P29_001": "30422", "P29_002": "B130210002280", "P29_003": "16001", "P29_004": "太地町立太地小学校", "P29_005": "和歌山県東牟婁郡太地町太地3505-1", "P29_006": "3", "P29_007": "1", "P29_008": "00", "P29_009": null }, "geometry": { "type": "Point", "coordinates": [ 135.942943088008349, 33.588413908297206 ] } },
{ "type": "Feature", "properties": { "P29_001": "30428", "P29_002": "B130210002299", "P29_003": "16001", "P29_004": "串本町立田原小学校", "P29_005": "和歌山県東牟婁郡串本町田原725", "P29_006": "3", "P29_007": "1", "P29_008": "00", "P29_009": null }, "geometry": { "type": "Point", "coordinates": [ 135.868124906553305, 33.538805848598493 ] } },
{ "type": "Feature", "properties": { "P29_001": "30428", "P29_002": "B130210002306", "P29_003": "16001", "P29_004": "串本町立古座小学校", "P29_005": "和歌山県東牟婁郡串本町中湊160", "P29_006": "3", "P29_007": "1", "P29_008": "00", "P29_009": null }, "geometry": { "type": "Point", "coordinates": [ 135.826278104692562, 33.521907307141824 ] } },
{ "type": "Feature", "properties": { "P29_001": "30428", "P29_002": "B130210002315", "P29_003": "16001", "P29_004": "串本町立西向小学校", "P29_005": "和歌山県東牟婁郡串本町西向638", "P29_006": "3", "P29_007": "1", "P29_008": "00", "P29_009": null }, "geometry": { "type": "Point", "coordinates": [ 135.819940072662206, 33.51499138448996 ] } },
{ "type": "Feature", "properties": { "P29_001": "30424", "P29_002": "B130210002324", "P29_003": "16001", "P29_004": "古座川町立高池小学校", "P29_005": "和歌山県東牟婁郡古座川町高池746", "P29_006": "3", "P29_007": "1", "P29_008": "00", "P29_009": null }, "geometry": { "type": "Point", "coordinates": [ 135.816055921224432, 33.533486048751193 ] } },
{ "type": "Feature", "properties": { "P29_001": "30424", "P29_002": "B130210002333", "P29_003": "16001", "P29_004": "古座川町立明神小学校", "P29_005": "和歌山県東牟婁郡古座川町一雨41", "P29_006": "3", "P29_007": "1", "P29_008": "00", "P29_009": null }, "geometry": { "type": "Point", "coordinates": [ 135.756647475501097, 33.537169281489788 ] } },
{ "type": "Feature", "properties": { "P29_001": "30424", "P29_002": "B130210002342", "P29_003": "16001", "P29_004": "古座川町立三尾川小学校", "P29_005": "和歌山県東牟婁郡古座川町三尾川935", "P29_006": "3", "P29_007": "1", "P29_008": "00", "P29_009": null }, "geometry": { "type": "Point", "coordinates": [ 135.686584413856849, 33.557965873519827 ] } },
{ "type": "Feature", "properties": { "P29_001": "30206", "P29_002": "B130210002351", "P29_003": "16001", "P29_004": "田辺市立三里小学校", "P29_005": "和歌山県田辺市本宮町大居1653", "P29_006": "3", "P29_007": "1", "P29_008": "00", "P29_009": null }, "geometry": { "type": "Point", "coordinates": [ 135.763883168322366, 33.861578894507488 ] } },
{ "type": "Feature", "properties": { "P29_001": "30427", "P29_002": "B130210002360", "P29_003": "16001", "P29_004": "北山村立北山小学校", "P29_005": "和歌山県東牟婁郡北山村大沼569", "P29_006": "3", "P29_007": "1", "P29_008": "00", "P29_009": null }, "geometry": { "type": "Point", "coordinates": [ 135.974117979703436, 33.943929764300222 ] } },
{ "type": "Feature", "properties": { "P29_001": "30207", "P29_002": "B130210002379", "P29_003": "16001", "P29_004": "新宮市立熊野川小学校", "P29_005": "和歌山県新宮市熊野川町日足570", "P29_006": "3", "P29_007": "1", "P29_008": "00", "P29_009": null }, "geometry": { "type": "Point", "coordinates": [ 135.873076569515064, 33.802312821964634 ] } },
{ "type": "Feature", "properties": { "P29_001": "30428", "P29_002": "B130210002388", "P29_003": "16001", "P29_004": "串本町立大島小学校", "P29_005": "和歌山県東牟婁郡串本町須江1577-11", "P29_006": "3", "P29_007": "1", "P29_008": "00", "P29_009": null }, "geometry": { "type": "Point", "coordinates": [ 135.825099669139973, 33.467517057210728 ] } },
{ "type": "Feature", "properties": { "P29_001": "30392", "P29_002": "B130210002397", "P29_003": "16001", "P29_004": "日高川町立中津小学校", "P29_005": "和歌山県日高郡日高川町船津1500", "P29_006": "3", "P29_007": "1", "P29_008": "00", "P29_009": null }, "geometry": { "type": "Point", "coordinates": [ 135.272592975815343, 33.956856530749725 ] } },
{ "type": "Feature", "properties": { "P29_001": "30206", "P29_002": "B130210002404", "P29_003": "16001", "P29_004": "田辺市立咲楽小学校", "P29_005": "和歌山県田辺市龍神村福井1024", "P29_006": "3", "P29_007": "1", "P29_008": "00", "P29_009": null }, "geometry": { "type": "Point", "coordinates": [ 135.443868369603393, 33.884080194142861 ] } },
{ "type": "Feature", "properties": { "P29_001": "30206", "P29_002": "B130210002413", "P29_003": "16001", "P29_004": "田辺市立本宮小学校", "P29_005": "和歌山県田辺市本宮町耳打499", "P29_006": "3", "P29_007": "1", "P29_008": "00", "P29_009": null }, "geometry": { "type": "Point", "coordinates": [ 135.768796506158651, 33.836769740787275 ] } },
{ "type": "Feature", "properties": { "P29_001": "30203", "P29_002": "B130210002422", "P29_003": "16001", "P29_004": "橋本市立あやの台小学校", "P29_005": "和歌山県橋本市あやの台2-17", "P29_006": "3", "P29_007": "1", "P29_008": "00", "P29_009": null }, "geometry": { "type": "Point", "coordinates": [ 135.65778269271965, 34.339780400074375 ] } },
{ "type": "Feature", "properties": { "P29_001": "30206", "P29_002": "B130210002431", "P29_003": "16001", "P29_004": "田辺市立中辺路小学校", "P29_005": "和歌山県田辺市中辺路町栗栖川78", "P29_006": "3", "P29_007": "1", "P29_008": "00", "P29_009": null }, "geometry": { "type": "Point", "coordinates": [ 135.509241894053616, 33.788097054402343 ] } },
{ "type": "Feature", "properties": { "P29_001": "30207", "P29_002": "B130210002440", "P29_003": "16001", "P29_004": "新宮市立王子ヶ浜小学校", "P29_005": "和歌山県新宮市田鶴原町2-10-1", "P29_006": "3", "P29_007": "1", "P29_008": "00", "P29_009": null }, "geometry": { "type": "Point", "coordinates": [ 135.999529599887126, 33.718967969559941 ] } },
{ "type": "Feature", "properties": { "P29_001": "30344", "P29_002": "B130210002459", "P29_003": "16001", "P29_004": "高野町立高野山小学校富貴分校", "P29_005": "和歌山県伊都郡高野町東富貴202", "P29_006": "3", "P29_007": "1", "P29_008": "00", "P29_009": null }, "geometry": { "type": "Point", "coordinates": [ 135.70053236268248, 34.262772352365765 ] } },
{ "type": "Feature", "properties": { "P29_001": "30203", "P29_002": "B130310000011", "P29_003": "16001", "P29_004": "きのくに子どもの村小学校", "P29_005": "和歌山県橋本市彦谷51", "P29_006": "4", "P29_007": "1", "P29_008": "00", "P29_009": null }, "geometry": { "type": "Point", "coordinates": [ 135.642524170661488, 34.282510498413536 ] } },
{ "type": "Feature", "properties": { "P29_001": "30201", "P29_002": "B130310000020", "P29_003": "16001", "P29_004": "智辯学園和歌山小学校", "P29_005": "和歌山県和歌山市冬野2066-1", "P29_006": "4", "P29_007": "1", "P29_008": "00", "P29_009": null }, "geometry": { "type": "Point", "coordinates": [ 135.211959061509248, 34.174635791847869 ] } }
]
}
