{
"type": "FeatureCollection",
"name": "geo_30_短期入所生活介護",
"crs": { "type": "name", "properties": { "name": "urn:ogc:def:crs:OGC:1.3:CRS84" } },
"features": [
{ "type": "Feature", "properties": { "内容": "特別養護老人ホーム　すこやか【短期入所生活介護】和歌山市和田５８３－１", "url": "https://www.kaigokensaku.mhlw.go.jp/30/index.php?action_kouhyou_detail_004_kani=true&JigyosyoCd=3070106905-00&ServiceCd=210&Type=search", "url2": null }, "geometry": { "type": "Point", "coordinates": [ 135.2120804, 34.2044372 ] } },
{ "type": "Feature", "properties": { "内容": "ショートステイ　「パズ」【短期入所生活介護】和歌山県和歌山市紀三井寺811-87地域密着型特別養護老人ホーム　プチパレス紀三井寺", "url": "https://www.kaigokensaku.mhlw.go.jp/30/index.php?action_kouhyou_detail_004_kani=true&JigyosyoCd=3070108687-00&ServiceCd=210&Type=search", "url2": "http://www.sumiya-ppk.com/" }, "geometry": { "type": "Point", "coordinates": [ 135.18363, 34.1867479 ] } },
{ "type": "Feature", "properties": { "内容": "パナソニックエイジフリーケアセンター和歌山北島・ショートステイ【短期入所生活介護】和歌山県和歌山市北島325-25", "url": "https://www.kaigokensaku.mhlw.go.jp/30/index.php?action_kouhyou_detail_004_kani=true&JigyosyoCd=3070112119-00&ServiceCd=210&Type=search", "url2": "https://panasonic.co.jp/es/pesaf/" }, "geometry": { "type": "Point", "coordinates": [ 138.252924, 36.204824 ] } },
{ "type": "Feature", "properties": { "内容": "ソンリッサきみさとショートステイ【短期入所生活介護】和歌山市つつじが丘５丁目３番地２", "url": "https://www.kaigokensaku.mhlw.go.jp/30/index.php?action_kouhyou_detail_004_kani=true&JigyosyoCd=3070102623-00&ServiceCd=210&Type=search", "url2": "http://www.medi-wel.jp/" }, "geometry": { "type": "Point", "coordinates": [ 135.101475100000016, 34.265976 ] } },
{ "type": "Feature", "properties": { "内容": "喜和の郷ショートステイ【短期入所生活介護】和歌山市北野572-1", "url": "https://www.kaigokensaku.mhlw.go.jp/30/index.php?action_kouhyou_detail_004_kani=true&JigyosyoCd=3070105915-00&ServiceCd=210&Type=search", "url2": "http://www.kiseikai-w.or.jp" }, "geometry": { "type": "Point", "coordinates": [ 135.245676399999979, 34.2720235 ] } },
{ "type": "Feature", "properties": { "内容": "喜和の郷ショートステイ【短期入所生活介護】和歌山市北野572番地1", "url": "https://www.kaigokensaku.mhlw.go.jp/30/index.php?action_kouhyou_detail_004_kani=true&JigyosyoCd=3070109479-00&ServiceCd=210&Type=search", "url2": "http://www.kiseikai-w.or-jp" }, "geometry": { "type": "Point", "coordinates": [ 135.245676399999979, 34.2720235 ] } },
{ "type": "Feature", "properties": { "内容": "西庄園【短期入所生活介護】和歌山市西庄1133-2", "url": "https://www.kaigokensaku.mhlw.go.jp/30/index.php?action_kouhyou_detail_004_kani=true&JigyosyoCd=3070100353-00&ServiceCd=210&Type=search", "url2": "http://seisyoen-minori.jp/" }, "geometry": { "type": "Point", "coordinates": [ 135.112891399999967, 34.2642096 ] } },
{ "type": "Feature", "properties": { "内容": "短期入所生活介護事業所　みのり西庄園【短期入所生活介護】和歌山市つつじが丘7丁目3番3", "url": "https://www.kaigokensaku.mhlw.go.jp/30/index.php?action_kouhyou_detail_004_kani=true&JigyosyoCd=3070107747-00&ServiceCd=210&Type=search", "url2": "http://www.seisyoen-minori.jp/" }, "geometry": { "type": "Point", "coordinates": [ 135.098975200000041, 34.2658594 ] } },
{ "type": "Feature", "properties": { "内容": "ほうらい苑ショートステイサービス【短期入所生活介護】新和歌浦２番９号", "url": "https://www.kaigokensaku.mhlw.go.jp/30/index.php?action_kouhyou_detail_004_kani=true&JigyosyoCd=3070106434-00&ServiceCd=210&Type=search", "url2": "http://www.horai-en.com" }, "geometry": { "type": "Point", "coordinates": [ 135.156757199999987, 34.1856963 ] } },
{ "type": "Feature", "properties": { "内容": "介護老人福祉施設　つつじが丘めぐみ【短期入所生活介護】和歌山県和歌山市つつじが丘5丁目3-7", "url": "https://www.kaigokensaku.mhlw.go.jp/30/index.php?action_kouhyou_detail_004_kani=true&JigyosyoCd=3070112341-00&ServiceCd=210&Type=search", "url2": "https://tsutsujigaoka-megumi.com/" }, "geometry": { "type": "Point", "coordinates": [ 135.102961794748097, 34.2663264540951 ] } },
{ "type": "Feature", "properties": { "内容": "わかうら園ショートステイ【短期入所生活介護】和歌山市田野175番地", "url": "https://www.kaigokensaku.mhlw.go.jp/30/index.php?action_kouhyou_detail_004_kani=true&JigyosyoCd=3070100221-00&ServiceCd=210&Type=search", "url2": "https://wakaurakai.or.jp/" }, "geometry": { "type": "Point", "coordinates": [ 135.150213300000019, 34.1856602 ] } },
{ "type": "Feature", "properties": { "内容": "カーサ・デ・ソコロ・アンシアナトー【短期入所生活介護】和歌山市松江東1丁目７－２５", "url": "https://www.kaigokensaku.mhlw.go.jp/30/index.php?action_kouhyou_detail_004_kani=true&JigyosyoCd=3070100502-00&ServiceCd=210&Type=search", "url2": "https://www.ancianatio.com/" }, "geometry": { "type": "Point", "coordinates": [ 135.134546099999966, 34.2438399 ] } },
{ "type": "Feature", "properties": { "内容": "グランリーフショートステイ【短期入所生活介護】和歌山市南片原２丁目１２番地", "url": "https://www.kaigokensaku.mhlw.go.jp/30/index.php?action_kouhyou_detail_004_kani=true&JigyosyoCd=3070101013-00&ServiceCd=210&Type=search", "url2": "asibe-so＠crocus.ocn.ne.jp" }, "geometry": { "type": "Point", "coordinates": [ 135.184326700000042, 34.2238236 ] } },
{ "type": "Feature", "properties": { "内容": "紀伊松風苑ショートステイ【短期入所生活介護】和歌山市園部1668番地の1", "url": "https://www.kaigokensaku.mhlw.go.jp/30/index.php?action_kouhyou_detail_004_kani=true&JigyosyoCd=3070101542-00&ServiceCd=210&Type=search", "url2": "http://www.kii-shoufuuen.jp/" }, "geometry": { "type": "Point", "coordinates": [ 135.18885, 34.2717885 ] } },
{ "type": "Feature", "properties": { "内容": "紀三井寺苑【短期入所生活介護】和歌山県和歌山市紀三井寺560-2", "url": "https://www.kaigokensaku.mhlw.go.jp/30/index.php?action_kouhyou_detail_004_kani=true&JigyosyoCd=3070100528-00&ServiceCd=210&Type=search", "url2": "https://www.kisan.or.jp" }, "geometry": { "type": "Point", "coordinates": [ 135.184724499999987, 34.1813398 ] } },
{ "type": "Feature", "properties": { "内容": "指定短期入所生活介護事業所　親和園【短期入所生活介護】和歌山市杭ノ瀬255番地の2", "url": "https://www.kaigokensaku.mhlw.go.jp/30/index.php?action_kouhyou_detail_004_kani=true&JigyosyoCd=3070101054-00&ServiceCd=210&Type=search", "url2": "http://shinwaen.jp/" }, "geometry": { "type": "Point", "coordinates": [ 135.189387799999963, 34.2110836 ] } },
{ "type": "Feature", "properties": { "内容": "短期入所生活介護事業所　わかやま苑【短期入所生活介護】屋形町一丁目39番地2", "url": "https://www.kaigokensaku.mhlw.go.jp/30/index.php?action_kouhyou_detail_004_kani=true&JigyosyoCd=3070113448-00&ServiceCd=210&Type=search", "url2": "https://wakayama-en.jp" }, "geometry": { "type": "Point", "coordinates": [ 135.177156486508181, 34.230908727706726 ] } },
{ "type": "Feature", "properties": { "内容": "竹の里園ショートステイ【短期入所生活介護】和歌山市明王寺３－１", "url": "https://www.kaigokensaku.mhlw.go.jp/30/index.php?action_kouhyou_detail_004_kani=true&JigyosyoCd=3070100296-00&ServiceCd=210&Type=search", "url2": "https://www.takenosatoen.jp" }, "geometry": { "type": "Point", "coordinates": [ 135.254191200000037, 34.2133121 ] } },
{ "type": "Feature", "properties": { "内容": "指定短期入所生活介護事業所第五親和園【短期入所生活介護】和歌山市杭ノ瀬４３２番地の３", "url": "https://www.kaigokensaku.mhlw.go.jp/30/index.php?action_kouhyou_detail_004_kani=true&JigyosyoCd=3070106640-00&ServiceCd=210&Type=search", "url2": "http://www.shinwaen.jp/" }, "geometry": { "type": "Point", "coordinates": [ 135.194570699999986, 34.2108503 ] } },
{ "type": "Feature", "properties": { "内容": "地域密着型特別養護老人ホーム冬野の郷　短期入所生活介護【短期入所生活介護】和歌山県和歌山市冬野2037番地", "url": "https://www.kaigokensaku.mhlw.go.jp/30/index.php?action_kouhyou_detail_004_kani=true&JigyosyoCd=3070112978-00&ServiceCd=210&Type=search", "url2": "http://www.kitabakai.jp" }, "geometry": { "type": "Point", "coordinates": [ 135.207961399999988, 34.1818632 ] } },
{ "type": "Feature", "properties": { "内容": "ショートステイわかば【短期入所生活介護】和歌山県和歌山市有本140番地", "url": "https://www.kaigokensaku.mhlw.go.jp/30/index.php?action_kouhyou_detail_004_kani=true&JigyosyoCd=3070110600-00&ServiceCd=210&Type=search", "url2": "nijiwakaba.com" }, "geometry": { "type": "Point", "coordinates": [ 135.196116800000027, 34.2451356 ] } },
{ "type": "Feature", "properties": { "内容": "喜成会ショートステイ【短期入所生活介護】和歌山市北野128番地", "url": "https://www.kaigokensaku.mhlw.go.jp/30/index.php?action_kouhyou_detail_004_kani=true&JigyosyoCd=3070101211-00&ServiceCd=210&Type=search", "url2": "http://www.kiseikai-w.or.jp/" }, "geometry": { "type": "Point", "coordinates": [ 135.249592900000039, 34.2653602 ] } },
{ "type": "Feature", "properties": { "内容": "短期入所生活介護　紀伊てまり苑【短期入所生活介護】和歌山市西田井２２４番地", "url": "https://www.kaigokensaku.mhlw.go.jp/30/index.php?action_kouhyou_detail_004_kani=true&JigyosyoCd=3070100833-00&ServiceCd=210&Type=search", "url2": "http://www.kii-fukushikai.or.jp" }, "geometry": { "type": "Point", "coordinates": [ 135.232952699999942, 34.2574743 ] } },
{ "type": "Feature", "properties": { "内容": "第Ⅲ竹の里園ショートステイ【短期入所生活介護】和歌山市明王寺１６番地１", "url": "https://www.kaigokensaku.mhlw.go.jp/30/index.php?action_kouhyou_detail_004_kani=true&JigyosyoCd=3070108810-00&ServiceCd=210&Type=search", "url2": "https://www.takenosatoen.jp" }, "geometry": { "type": "Point", "coordinates": [ 135.255720077711487, 34.213968519562052 ] } },
{ "type": "Feature", "properties": { "内容": "指定短期入所生活介護事業所　第二親和園【短期入所生活介護】和歌山市杭ノ瀬462番地の2特別養護老人ホーム第二親和園", "url": "https://www.kaigokensaku.mhlw.go.jp/30/index.php?action_kouhyou_detail_004_kani=true&JigyosyoCd=3070101070-00&ServiceCd=210&Type=search", "url2": "http://shinwaen.jp" }, "geometry": { "type": "Point", "coordinates": [ 135.189710200000036, 34.2021291 ] } },
{ "type": "Feature", "properties": { "内容": "ショートステイセンター大日山荘【短期入所生活介護】和歌山市平尾2番地1", "url": "https://www.kaigokensaku.mhlw.go.jp/30/index.php?action_kouhyou_detail_004_kani=true&JigyosyoCd=3070100924-00&ServiceCd=210&Type=search", "url2": "http://www.jukeikai.jp/" }, "geometry": { "type": "Point", "coordinates": [ 135.245101852778618, 34.206998236569298 ] } },
{ "type": "Feature", "properties": { "内容": "特別養護老人ホームあんず苑【短期入所生活介護】和歌山市東田中３０７番地", "url": "https://www.kaigokensaku.mhlw.go.jp/30/index.php?action_kouhyou_detail_004_kani=true&JigyosyoCd=3070104793-00&ServiceCd=210&Type=search", "url2": "anzu-en-com" }, "geometry": { "type": "Point", "coordinates": [ 135.281943599999977, 34.2371267 ] } },
{ "type": "Feature", "properties": { "内容": "特別養護老人ホーム第２あんず苑【短期入所生活介護】和歌山県和歌山市東田中307番地", "url": "https://www.kaigokensaku.mhlw.go.jp/30/index.php?action_kouhyou_detail_004_kani=true&JigyosyoCd=3070113653-00&ServiceCd=210&Type=search", "url2": "http://anzu-en.com/" }, "geometry": { "type": "Point", "coordinates": [ 135.28194849999997, 34.2370085 ] } },
{ "type": "Feature", "properties": { "内容": "短期入所生活介護山口葵園マロウ【短期入所生活介護】和歌山県和歌山市藤田28-1", "url": "https://www.kaigokensaku.mhlw.go.jp/30/index.php?action_kouhyou_detail_004_kani=true&JigyosyoCd=3070109396-00&ServiceCd=210&Type=search", "url2": "http://www.y-aoikai.or.jp" }, "geometry": { "type": "Point", "coordinates": [ 135.263558500000045, 34.264791 ] } },
{ "type": "Feature", "properties": { "内容": "ショートステイ　山口葵園【短期入所生活介護】藤田25-1", "url": "https://www.kaigokensaku.mhlw.go.jp/30/index.php?action_kouhyou_detail_004_kani=true&JigyosyoCd=3070110568-00&ServiceCd=210&Type=search", "url2": "https://y-aoikai.or.jp" }, "geometry": { "type": "Point", "coordinates": [ 135.262997400000017, 34.2647688 ] } },
{ "type": "Feature", "properties": { "内容": "特別養護老人ホームアップリケア紀三井寺【短期入所生活介護】和歌山県和歌山市紀三井寺811-87", "url": "https://www.kaigokensaku.mhlw.go.jp/30/index.php?action_kouhyou_detail_004_kani=true&JigyosyoCd=3070115344-00&ServiceCd=210&Type=search", "url2": "https://www.apricare-kimiidera.com" }, "geometry": { "type": "Point", "coordinates": [ 135.183631100000014, 34.1867515 ] } },
{ "type": "Feature", "properties": { "内容": "君里苑指定短期入所生活介護【短期入所生活介護】和歌山市木ノ本１８３７番地の１", "url": "https://www.kaigokensaku.mhlw.go.jp/30/index.php?action_kouhyou_detail_004_kani=true&JigyosyoCd=3070101245-00&ServiceCd=210&Type=search", "url2": "http:/www.medi-wel.jp/" }, "geometry": { "type": "Point", "coordinates": [ 135.130007100000057, 34.2653346 ] } },
{ "type": "Feature", "properties": { "内容": "特別養護老人ホームみどりが丘ホーム【短期入所生活介護】和歌山県和歌山市和佐中213番の１", "url": "https://www.kaigokensaku.mhlw.go.jp/30/index.php?action_kouhyou_detail_004_kani=true&JigyosyoCd=3070100726-00&ServiceCd=210&Type=search", "url2": "https://www.w-midori.jp" }, "geometry": { "type": "Point", "coordinates": [ 135.237799900000027, 34.234781004480851 ] } },
{ "type": "Feature", "properties": { "内容": "地域密着型特別養護老人ホーム第２みどりが丘ホームⅠ【短期入所生活介護】和歌山県和歌山市土佐町３丁目２５番地", "url": "https://www.kaigokensaku.mhlw.go.jp/30/index.php?action_kouhyou_detail_004_kani=true&JigyosyoCd=3070114198-00&ServiceCd=210&Type=search", "url2": "https://www.w-midori.jp" }, "geometry": { "type": "Point", "coordinates": [ 135.1603054, 34.220035 ] } },
{ "type": "Feature", "properties": { "内容": "地域密着型特別養護老人ホーム第２みどりが丘ホームⅡ【短期入所生活介護】和歌山県和歌山市土佐町３丁目２５番地", "url": "https://www.kaigokensaku.mhlw.go.jp/30/index.php?action_kouhyou_detail_004_kani=true&JigyosyoCd=3070114206-00&ServiceCd=210&Type=search", "url2": "https://www.w-midori.jp" }, "geometry": { "type": "Point", "coordinates": [ 135.1603054, 34.220035 ] } },
{ "type": "Feature", "properties": { "内容": "介護老人福祉施設　緑風苑【短期入所生活介護】和歌山県海南市孟子字波免709-1", "url": "https://www.kaigokensaku.mhlw.go.jp/30/index.php?action_kouhyou_detail_004_kani=true&JigyosyoCd=3071400588-00&ServiceCd=210&Type=search", "url2": "http://ryoku.tokuyou.jp/" }, "geometry": { "type": "Point", "coordinates": [ 135.299894521595803, 34.190378640326422 ] } },
{ "type": "Feature", "properties": { "内容": "地域密着型介護老人福祉施設さくらホーム【短期入所生活介護】北赤坂２番地１", "url": "https://www.kaigokensaku.mhlw.go.jp/30/index.php?action_kouhyou_detail_004_kani=true&JigyosyoCd=3071401313-00&ServiceCd=210&Type=search", "url2": "http://www.sakuraclinic.org/publics/index/46/" }, "geometry": { "type": "Point", "coordinates": [ 139.7404914, 35.6728299 ] } },
{ "type": "Feature", "properties": { "内容": "特別養護老人ホーム天美苑【短期入所生活介護】海南市七山９６４－１", "url": "https://www.kaigokensaku.mhlw.go.jp/30/index.php?action_kouhyou_detail_004_kani=true&JigyosyoCd=3071400075-00&ServiceCd=210&Type=search", "url2": "http://www.tenbien.jp/" }, "geometry": { "type": "Point", "coordinates": [ 135.308888799999977, 34.1961325 ] } },
{ "type": "Feature", "properties": { "内容": "特別養護老人ホーム天美苑【短期入所生活介護】和歌山県海南市七山964-1", "url": "https://www.kaigokensaku.mhlw.go.jp/30/index.php?action_kouhyou_detail_004_kani=true&JigyosyoCd=3071401123-00&ServiceCd=210&Type=search", "url2": "http://www.tenbien.jp/" }, "geometry": { "type": "Point", "coordinates": [ 135.30931258902433, 34.196456401069234 ] } },
{ "type": "Feature", "properties": { "内容": "特別養護老人ホーム南風園【短期入所生活介護】和歌山県海南市木津２３３番地４０", "url": "https://www.kaigokensaku.mhlw.go.jp/30/index.php?action_kouhyou_detail_004_kani=true&JigyosyoCd=3071500734-00&ServiceCd=210&Type=search", "url2": "https://www.ｗｆｊ.or.jp" }, "geometry": { "type": "Point", "coordinates": [ 138.252924, 36.204824 ] } },
{ "type": "Feature", "properties": { "内容": "かぐのみ苑　ショートステイサービス【短期入所生活介護】和歌山県海南市下津町丸田１１１１－１", "url": "https://www.kaigokensaku.mhlw.go.jp/30/index.php?action_kouhyou_detail_004_kani=true&JigyosyoCd=3071100105-00&ServiceCd=210&Type=search", "url2": "http://www.heiseifukushikai.or.jp/" }, "geometry": { "type": "Point", "coordinates": [ 135.1573522, 34.1340373 ] } },
{ "type": "Feature", "properties": { "内容": "特別養護老人ホーム　ひかり苑【短期入所生活介護】和歌山県橋本市隅田町中島1058-56", "url": "https://www.kaigokensaku.mhlw.go.jp/30/index.php?action_kouhyou_detail_004_kani=true&JigyosyoCd=3071000123-00&ServiceCd=210&Type=search", "url2": "care-net.biz/30/kouseikai/" }, "geometry": { "type": "Point", "coordinates": [ 135.63717070000007, 34.3381198 ] } },
{ "type": "Feature", "properties": { "内容": "特別養護老人ホーム　天　佳　苑【短期入所生活介護】和歌山県　橋本市　隅田町　霜草　７９７－３１", "url": "https://www.kaigokensaku.mhlw.go.jp/30/index.php?action_kouhyou_detail_004_kani=true&JigyosyoCd=3071000529-00&ServiceCd=210&Type=search", "url2": "http://care-net.biz/30/tenka-en/" }, "geometry": { "type": "Point", "coordinates": [ 135.637431800000059, 34.3386947 ] } },
{ "type": "Feature", "properties": { "内容": "特別養護老人ホーム　さくら苑【短期入所生活介護】和歌山県橋本市高野口町大野１８４４－１３３", "url": "https://www.kaigokensaku.mhlw.go.jp/30/index.php?action_kouhyou_detail_004_kani=true&JigyosyoCd=3071300549-00&ServiceCd=210&Type=search", "url2": "http://sakuraenn.com" }, "geometry": { "type": "Point", "coordinates": [ 135.559311500000035, 34.3231456 ] } },
{ "type": "Feature", "properties": { "内容": "特別養護老人ホームありだ橘苑【短期入所生活介護】和歌山県有田市野639-2", "url": "https://www.kaigokensaku.mhlw.go.jp/30/index.php?action_kouhyou_detail_004_kani=true&JigyosyoCd=3071500601-00&ServiceCd=210&Type=search", "url2": "http://shukohkai.or.jp/" }, "geometry": { "type": "Point", "coordinates": [ 135.135238260813168, 34.076177193185046 ] } },
{ "type": "Feature", "properties": { "内容": "特別養護老人ホーム田鶴苑【短期入所生活介護】和歌山県有田市宮崎町841番地1", "url": "https://www.kaigokensaku.mhlw.go.jp/30/index.php?action_kouhyou_detail_004_kani=true&JigyosyoCd=3071500056-00&ServiceCd=210&Type=search", "url2": "http://www.shukohkai.or.jp/" }, "geometry": { "type": "Point", "coordinates": [ 135.112731267459168, 34.075532433089371 ] } },
{ "type": "Feature", "properties": { "内容": "特別養護老人ホーム愛宕苑【短期入所生活介護】有田市港町９－１", "url": "https://www.kaigokensaku.mhlw.go.jp/30/index.php?action_kouhyou_detail_004_kani=true&JigyosyoCd=3071500387-00&ServiceCd=210&Type=search", "url2": "http://shukohkai.or.jp/" }, "geometry": { "type": "Point", "coordinates": [ 135.114286099999958, 34.0892137 ] } },
{ "type": "Feature", "properties": { "内容": "特別養護老人ホーム日高博愛園【短期入所生活介護】和歌山県御坊市名田町野島１番地9", "url": "https://www.kaigokensaku.mhlw.go.jp/30/index.php?action_kouhyou_detail_004_kani=true&JigyosyoCd=3072000080-00&ServiceCd=210&Type=search", "url2": "hakuaikai.net" }, "geometry": { "type": "Point", "coordinates": [ 135.1789003, 33.8328175 ] } },
{ "type": "Feature", "properties": { "内容": "特別養護老人ホーム　ごぼうの郷【短期入所生活介護】熊野44-4", "url": "https://www.kaigokensaku.mhlw.go.jp/30/index.php?action_kouhyou_detail_004_kani=true&JigyosyoCd=3072000510-00&ServiceCd=210&Type=search", "url2": "http://gobo310.sakura.ne.jp/gb310/" }, "geometry": { "type": "Point", "coordinates": [ 135.176403199999982, 33.889893 ] } },
{ "type": "Feature", "properties": { "内容": "短期入所生活介護　田辺の郷【短期入所生活介護】田辺市芳養松原1丁目31番10号", "url": "https://www.kaigokensaku.mhlw.go.jp/30/index.php?action_kouhyou_detail_004_kani=true&JigyosyoCd=3072201167-00&ServiceCd=210&Type=search", "url2": "http://sanyofukushikai.com/" }, "geometry": { "type": "Point", "coordinates": [ 135.354575599999947, 33.7442952 ] } },
{ "type": "Feature", "properties": { "内容": "特別養護老人ホーム　白百合ホーム　ショートスティ【短期入所生活介護】和歌山県田辺市中辺路町川合1800", "url": "https://www.kaigokensaku.mhlw.go.jp/30/index.php?action_kouhyou_detail_004_kani=true&JigyosyoCd=3072400199-00&ServiceCd=210&Type=search", "url2": "http://shirayurihome.org" }, "geometry": { "type": "Point", "coordinates": [ 135.5219846, 33.8004563 ] } },
{ "type": "Feature", "properties": { "内容": "龍トピア指定短期入所生活介護事業所【短期入所生活介護】和歌山県田辺市龍神村柳瀬530番地", "url": "https://www.kaigokensaku.mhlw.go.jp/30/index.php?action_kouhyou_detail_004_kani=true&JigyosyoCd=3072100377-00&ServiceCd=210&Type=search", "url2": "https://care-net.biz/30/kisei" }, "geometry": { "type": "Point", "coordinates": [ 135.4544737, 33.8792885 ] } },
{ "type": "Feature", "properties": { "内容": "特別養護老人ホーム　熊野本宮園【短期入所生活介護】和歌山県田辺市本宮町上大野字田平９７番地の１", "url": "https://www.kaigokensaku.mhlw.go.jp/30/index.php?action_kouhyou_detail_004_kani=true&JigyosyoCd=3072500055-00&ServiceCd=210&Type=search", "url2": "http://kumanofukushikai.or.jp/" }, "geometry": { "type": "Point", "coordinates": [ 135.758465800000067, 33.8043839 ] } },
{ "type": "Feature", "properties": { "内容": "鮎川園指定短期入所生活介護事業所【短期入所生活介護】和歌山県田辺市鮎川字向越1313番地", "url": "https://www.kaigokensaku.mhlw.go.jp/30/index.php?action_kouhyou_detail_004_kani=true&JigyosyoCd=3072400256-00&ServiceCd=210&Type=search", "url2": "https://care-net.biz/30/kisei/" }, "geometry": { "type": "Point", "coordinates": [ 135.482308399999965, 33.7272957 ] } },
{ "type": "Feature", "properties": { "内容": "社会福祉法人　真寿会　真寿苑【短期入所生活介護】和歌山県田辺市神島台６番１号", "url": "https://www.kaigokensaku.mhlw.go.jp/30/index.php?action_kouhyou_detail_004_kani=true&JigyosyoCd=3072200227-00&ServiceCd=210&Type=search", "url2": "http://www.sjk-tanabe.or.jp/" }, "geometry": { "type": "Point", "coordinates": [ 135.403429599999981, 33.7070892 ] } },
{ "type": "Feature", "properties": { "内容": "社会福祉法人　真寿会　第二真寿苑【短期入所生活介護】和歌山県田辺市神島台６番１号", "url": "https://www.kaigokensaku.mhlw.go.jp/30/index.php?action_kouhyou_detail_004_kani=true&JigyosyoCd=3072200235-00&ServiceCd=210&Type=search", "url2": "http://www.sjk-tanabe.or.jp/" }, "geometry": { "type": "Point", "coordinates": [ 135.403687092065411, 33.706714342345641 ] } },
{ "type": "Feature", "properties": { "内容": "ぬるみ川ショートステイサービス【短期入所生活介護】和歌山県田辺市中辺路町温川393", "url": "https://www.kaigokensaku.mhlw.go.jp/30/index.php?action_kouhyou_detail_004_kani=true&JigyosyoCd=3072201357-00&ServiceCd=210&Type=search", "url2": "http://www.sjk-tanabe.or.jp/" }, "geometry": { "type": "Point", "coordinates": [ 135.523757457182001, 33.827337732002256 ] } },
{ "type": "Feature", "properties": { "内容": "特別養護老人ホーム熊野川園新館【短期入所生活介護】和歌山県新宮市熊野川町西187番地", "url": "https://www.kaigokensaku.mhlw.go.jp/30/index.php?action_kouhyou_detail_004_kani=true&JigyosyoCd=3072300712-00&ServiceCd=210&Type=search", "url2": null }, "geometry": { "type": "Point", "coordinates": [ 135.839107390490625, 33.758580410739498 ] } },
{ "type": "Feature", "properties": { "内容": "温泉ハウスくまの【短期入所生活介護】新宮市蜂伏１４番１９号", "url": "https://www.kaigokensaku.mhlw.go.jp/30/index.php?action_kouhyou_detail_004_kani=true&JigyosyoCd=3072300035-00&ServiceCd=210&Type=search", "url2": "https://www.kaigokensaku.mhlw.go.jp/houkoku/30/index.php" }, "geometry": { "type": "Point", "coordinates": [ 135.962313900000026, 33.6866428 ] } },
{ "type": "Feature", "properties": { "内容": "しんぐうショートステイセンター【短期入所生活介護】和歌山県新宮市清水元一丁目1番19号", "url": "https://www.kaigokensaku.mhlw.go.jp/30/index.php?action_kouhyou_detail_004_kani=true&JigyosyoCd=3072300894-00&ServiceCd=210&Type=search", "url2": null }, "geometry": { "type": "Point", "coordinates": [ 135.997032600000011, 33.7201135 ] } },
{ "type": "Feature", "properties": { "内容": "黒潮園【短期入所生活介護】和歌山県新宮市三輪崎2471-1", "url": "https://www.kaigokensaku.mhlw.go.jp/30/index.php?action_kouhyou_detail_004_kani=true&JigyosyoCd=3072300019-00&ServiceCd=210&Type=search", "url2": "https://www.kuroshioen.or.jp" }, "geometry": { "type": "Point", "coordinates": [ 135.98634190000007, 33.6983081 ] } },
{ "type": "Feature", "properties": { "内容": "クレール高森【短期入所生活介護】和歌山県新宮市三輪崎２４７２－１３", "url": "https://www.kaigokensaku.mhlw.go.jp/30/index.php?action_kouhyou_detail_004_kani=true&JigyosyoCd=3072300738-00&ServiceCd=210&Type=search", "url2": "https://www.kuroshioen.or.jp" }, "geometry": { "type": "Point", "coordinates": [ 135.985495200000059, 33.6854933 ] } },
{ "type": "Feature", "properties": { "内容": "特別養護老人ホーム熊野川園【短期入所生活介護】和歌山県新宮市熊野川町西204番地1", "url": "https://www.kaigokensaku.mhlw.go.jp/30/index.php?action_kouhyou_detail_004_kani=true&JigyosyoCd=3072500048-00&ServiceCd=210&Type=search", "url2": null }, "geometry": { "type": "Point", "coordinates": [ 135.839851100000033, 33.7581293 ] } },
{ "type": "Feature", "properties": { "内容": "きしがわ園ショートステイサービス【短期入所生活介護】和歌山県紀の川市貴志川町尼寺359", "url": "https://www.kaigokensaku.mhlw.go.jp/30/index.php?action_kouhyou_detail_004_kani=true&JigyosyoCd=3071700524-00&ServiceCd=210&Type=search", "url2": "https://seianna.jp" }, "geometry": { "type": "Point", "coordinates": [ 135.312000380803738, 34.226054346843334 ] } },
{ "type": "Feature", "properties": { "内容": "第2きしがわ園ショートステイサービス【短期入所生活介護】和歌山県紀の川市貴志川町尼寺359", "url": "https://www.kaigokensaku.mhlw.go.jp/30/index.php?action_kouhyou_detail_004_kani=true&JigyosyoCd=3071700672-00&ServiceCd=210&Type=search", "url2": "https://seianna.jp" }, "geometry": { "type": "Point", "coordinates": [ 135.312896, 34.2259228 ] } },
{ "type": "Feature", "properties": { "内容": "栄寿苑短期入所生活介護センター【短期入所生活介護】和歌山県紀の川市麻生津中字飯盛1279番地", "url": "https://www.kaigokensaku.mhlw.go.jp/30/index.php?action_kouhyou_detail_004_kani=true&JigyosyoCd=3071200574-00&ServiceCd=210&Type=search", "url2": "http://koueikai-nate.com/" }, "geometry": { "type": "Point", "coordinates": [ 135.462148800000023, 34.248245 ] } },
{ "type": "Feature", "properties": { "内容": "聖アンナショートステイサービス【短期入所生活介護】和歌山県紀の川市貴志川町上野山字鍛屋垣内302番地1", "url": "https://www.kaigokensaku.mhlw.go.jp/30/index.php?action_kouhyou_detail_004_kani=true&JigyosyoCd=3071200285-00&ServiceCd=210&Type=search", "url2": "http://www.seianna.sakura.ne.jp" }, "geometry": { "type": "Point", "coordinates": [ 135.310393800000043, 34.2156771 ] } },
{ "type": "Feature", "properties": { "内容": "白水園短期入所生活介護センター【短期入所生活介護】和歌山県紀の川市上田井1229－1番地", "url": "https://www.kaigokensaku.mhlw.go.jp/30/index.php?action_kouhyou_detail_004_kani=true&JigyosyoCd=3071700813-00&ServiceCd=210&Type=search", "url2": "http://koueikai-nate.com/" }, "geometry": { "type": "Point", "coordinates": [ 135.38394459999995, 34.2637228 ] } },
{ "type": "Feature", "properties": { "内容": "ショートステイ　ももの里【短期入所生活介護】紀の川市桃山町最上１２５４－１", "url": "https://www.kaigokensaku.mhlw.go.jp/30/index.php?action_kouhyou_detail_004_kani=true&JigyosyoCd=3071200608-00&ServiceCd=210&Type=search", "url2": "https://shokyukai.jp" }, "geometry": { "type": "Point", "coordinates": [ 135.35046710000006, 34.2197716 ] } },
{ "type": "Feature", "properties": { "内容": "ショートステイ　ヴィラももの里【短期入所生活介護】和歌山県紀の川市桃山町最上８７３", "url": "https://www.kaigokensaku.mhlw.go.jp/30/index.php?action_kouhyou_detail_004_kani=true&JigyosyoCd=3071700235-00&ServiceCd=210&Type=search", "url2": null }, "geometry": { "type": "Point", "coordinates": [ 135.35065869999994, 34.2218519 ] } },
{ "type": "Feature", "properties": { "内容": "特別養護老人ホーム打田皆楽園【短期入所生活介護】和歌山県紀の川市畑野上２５９番地", "url": "https://www.kaigokensaku.mhlw.go.jp/30/index.php?action_kouhyou_detail_004_kani=true&JigyosyoCd=3071200921-00&ServiceCd=210&Type=search", "url2": "https://kairakuen.or.jp/" }, "geometry": { "type": "Point", "coordinates": [ 135.347216500000059, 34.2644663 ] } },
{ "type": "Feature", "properties": { "内容": "髙陽園　ショートステイ【短期入所生活介護】和歌山県紀の川市東大井11-3", "url": "https://www.kaigokensaku.mhlw.go.jp/30/index.php?action_kouhyou_detail_004_kani=true&JigyosyoCd=3071200384-00&ServiceCd=210&Type=search", "url2": "http://www.koyokai.or.jp" }, "geometry": { "type": "Point", "coordinates": [ 135.370241067435927, 34.271459774363194 ] } },
{ "type": "Feature", "properties": { "内容": "Acti-va【短期入所生活介護】岩出市根来823-1", "url": "https://www.kaigokensaku.mhlw.go.jp/30/index.php?action_kouhyou_detail_004_kani=true&JigyosyoCd=3071800654-00&ServiceCd=210&Type=search", "url2": "http://www.mikurumakai.or.jp/affiliated/acti-va-2-2/" }, "geometry": { "type": "Point", "coordinates": [ 135.299415464942967, 34.277945322059601 ] } },
{ "type": "Feature", "properties": { "内容": "特別養護老人ホーム　岩出憩い園【短期入所生活介護】和歌山県岩出市溝川２２番地", "url": "https://www.kaigokensaku.mhlw.go.jp/30/index.php?action_kouhyou_detail_004_kani=true&JigyosyoCd=3071800308-00&ServiceCd=210&Type=search", "url2": "http：//iwade-ikoien.com" }, "geometry": { "type": "Point", "coordinates": [ 135.325738099999967, 34.2550532 ] } },
{ "type": "Feature", "properties": { "内容": "指定介護老人福祉施設皆楽園【短期入所生活介護】和歌山県岩出市西国分668番地", "url": "https://www.kaigokensaku.mhlw.go.jp/30/index.php?action_kouhyou_detail_004_kani=true&JigyosyoCd=3071200483-00&ServiceCd=210&Type=search", "url2": "http：//www.kairakuen.or.jp/" }, "geometry": { "type": "Point", "coordinates": [ 135.330754, 34.2651772 ] } },
{ "type": "Feature", "properties": { "内容": "特別養護老人ホーム美里園【短期入所生活介護】和歌山県海草郡紀美野町安井６－１", "url": "https://www.kaigokensaku.mhlw.go.jp/30/index.php?action_kouhyou_detail_004_kani=true&JigyosyoCd=3071100063-00&ServiceCd=210&Type=search", "url2": "http://seiwa-sws.or.jp/" }, "geometry": { "type": "Point", "coordinates": [ 135.34661559999995, 34.1490559 ] } },
{ "type": "Feature", "properties": { "内容": "特別養護老人ホームやすらぎ園【短期入所生活介護】和歌山県海草郡紀美野町下佐々1408-7", "url": "https://www.kaigokensaku.mhlw.go.jp/30/index.php?action_kouhyou_detail_004_kani=true&JigyosyoCd=3071100170-00&ServiceCd=210&Type=search", "url2": "http://www.yasuragien.com/" }, "geometry": { "type": "Point", "coordinates": [ 135.311302399999931, 34.1519019 ] } },
{ "type": "Feature", "properties": { "内容": "特別養護老人ホーム美里園【短期入所生活介護】和歌山県海草郡紀美野町安井６－１", "url": "https://www.kaigokensaku.mhlw.go.jp/30/index.php?action_kouhyou_detail_004_kani=true&JigyosyoCd=3071100410-00&ServiceCd=210&Type=search", "url2": "http://www.seiwa-sws.or.jp/" }, "geometry": { "type": "Point", "coordinates": [ 135.34661559999995, 34.1490559 ] } },
{ "type": "Feature", "properties": { "内容": "介護老人福祉施設やまぼうし【短期入所生活介護】和歌山県伊都郡かつらぎ町丁ノ町2385-1", "url": "https://www.kaigokensaku.mhlw.go.jp/30/index.php?action_kouhyou_detail_004_kani=true&JigyosyoCd=3071300911-00&ServiceCd=210&Type=search", "url2": "https://kiwayamaboushi.jimdo.com/" }, "geometry": { "type": "Point", "coordinates": [ 135.51034930000003, 34.2965873 ] } },
{ "type": "Feature", "properties": { "内容": "愛光園短期入所生活介護事業所【短期入所生活介護】和歌山県伊都郡かつらぎ町佐野１４０１－２", "url": "https://www.kaigokensaku.mhlw.go.jp/30/index.php?action_kouhyou_detail_004_kani=true&JigyosyoCd=3071300275-00&ServiceCd=210&Type=search", "url2": "http://aiko-en.or.jp/" }, "geometry": { "type": "Point", "coordinates": [ 135.484954799999969, 34.2866657 ] } },
{ "type": "Feature", "properties": { "内容": "特別養護老人ホームあさひ【短期入所生活介護】和歌山県伊都郡かつらぎ町大字西飯降字白田谷461番6", "url": "https://www.kaigokensaku.mhlw.go.jp/30/index.php?action_kouhyou_detail_004_kani=true&JigyosyoCd=3071300903-00&ServiceCd=210&Type=search", "url2": "http://asahi.or.jp/index.html" }, "geometry": { "type": "Point", "coordinates": [ 135.527489100000025, 34.3050033 ] } },
{ "type": "Feature", "properties": { "内容": "特別養護老人ホーム第2愛光園【短期入所生活介護】和歌山県伊都郡かつらぎ町佐野955-1", "url": "https://www.kaigokensaku.mhlw.go.jp/30/index.php?action_kouhyou_detail_004_kani=true&JigyosyoCd=3071300770-00&ServiceCd=210&Type=search", "url2": "http://aiko-en.or.jp" }, "geometry": { "type": "Point", "coordinates": [ 135.483935400000064, 34.2872239 ] } },
{ "type": "Feature", "properties": { "内容": "社会福祉法人萩原会友愛苑ショートステイサービス【短期入所生活介護】和歌山県伊都郡九度山町大字河根807番地の64", "url": "https://www.kaigokensaku.mhlw.go.jp/30/index.php?action_kouhyou_detail_004_kani=true&JigyosyoCd=3071300325-00&ServiceCd=210&Type=search", "url2": "https://hagiyuai.jimdofree.com" }, "geometry": { "type": "Point", "coordinates": [ 135.5819712, 34.2813617 ] } },
{ "type": "Feature", "properties": { "内容": "南山苑【短期入所生活介護】和歌山県伊都郡高野町高野山44-22", "url": "https://www.kaigokensaku.mhlw.go.jp/30/index.php?action_kouhyou_detail_004_kani=true&JigyosyoCd=3071300135-00&ServiceCd=210&Type=search", "url2": "https://seiaikai.jimdofree.com/" }, "geometry": { "type": "Point", "coordinates": [ 135.592627099999959, 34.2206737 ] } },
{ "type": "Feature", "properties": { "内容": "地域密着型特別養護老人ホーム南山苑【短期入所生活介護】和歌山県伊都郡高野町高野山44番地22地域密着型特別養護老人ホーム南山苑", "url": "https://www.kaigokensaku.mhlw.go.jp/30/index.php?action_kouhyou_detail_004_kani=true&JigyosyoCd=3071300978-00&ServiceCd=210&Type=search", "url2": "https://seiaikai.jimdofree.com/" }, "geometry": { "type": "Point", "coordinates": [ 135.592595499999987, 34.2206876 ] } },
{ "type": "Feature", "properties": { "内容": "ショートステイ潮光園（従来型）【短期入所生活介護】和歌山県有田郡湯浅町湯浅2343-1", "url": "https://www.kaigokensaku.mhlw.go.jp/30/index.php?action_kouhyou_detail_004_kani=true&JigyosyoCd=3071601540-00&ServiceCd=210&Type=search", "url2": "https://wwwtyokoen.jp" }, "geometry": { "type": "Point", "coordinates": [ 135.189286918060304, 34.040735435750854 ] } },
{ "type": "Feature", "properties": { "内容": "ショートステイ　平安のまち【短期入所生活介護】和歌山県有田郡湯浅町青木826-1", "url": "https://www.kaigokensaku.mhlw.go.jp/30/index.php?action_kouhyou_detail_004_kani=true&JigyosyoCd=3071601136-00&ServiceCd=210&Type=search", "url2": "https://www.heiannomachi.com" }, "geometry": { "type": "Point", "coordinates": [ 135.188180099999954, 34.0288521 ] } },
{ "type": "Feature", "properties": { "内容": "かぐのみ苑湯浅ショートステイサービス【短期入所生活介護】有田郡湯浅町湯浅2032-1", "url": "https://www.kaigokensaku.mhlw.go.jp/30/index.php?action_kouhyou_detail_004_kani=true&JigyosyoCd=3071601045-00&ServiceCd=210&Type=search", "url2": "http://www.heiseifukushikai.or.jp/" }, "geometry": { "type": "Point", "coordinates": [ 135.1856636, 34.0373952 ] } },
{ "type": "Feature", "properties": { "内容": "ショートスティ潮光園【短期入所生活介護】和歌山県有田郡湯浅町湯浅２３４３番地１", "url": "https://www.kaigokensaku.mhlw.go.jp/30/index.php?action_kouhyou_detail_004_kani=true&JigyosyoCd=3071601524-00&ServiceCd=210&Type=search", "url2": "https://www.tyokoen.jp" }, "geometry": { "type": "Point", "coordinates": [ 135.189223274188208, 34.040810529722215 ] } },
{ "type": "Feature", "properties": { "内容": "介護老人福祉施設　広川苑【短期入所生活介護】有田郡広川町和田18", "url": "https://www.kaigokensaku.mhlw.go.jp/30/index.php?action_kouhyou_detail_004_kani=true&JigyosyoCd=3071600534-00&ServiceCd=210&Type=search", "url2": "http://w-himawarikai.or.jp/" }, "geometry": { "type": "Point", "coordinates": [ 135.1640741, 34.0253103 ] } },
{ "type": "Feature", "properties": { "内容": "特別養護老人ホームなつあけの里ささゆり苑短期入所生活介護事業所【短期入所生活介護】和歌山県有田郡広川町上津木字夏明1464番地の4", "url": "https://www.kaigokensaku.mhlw.go.jp/30/index.php?action_kouhyou_detail_004_kani=true&JigyosyoCd=3071600955-00&ServiceCd=210&Type=search", "url2": "http://www.kitabakai.jp/" }, "geometry": { "type": "Point", "coordinates": [ 135.200936200000029, 33.962317 ] } },
{ "type": "Feature", "properties": { "内容": "在宅複合型施設ひろの里短期入所生活介護事業【短期入所生活介護】和歌山県有田郡広川町下津木1105-5", "url": "https://www.kaigokensaku.mhlw.go.jp/30/index.php?action_kouhyou_detail_004_kani=true&JigyosyoCd=3071600377-00&ServiceCd=210&Type=search", "url2": "http://www.kitabakai.jp/" }, "geometry": { "type": "Point", "coordinates": [ 135.215514399999961, 33.9793643 ] } },
{ "type": "Feature", "properties": { "内容": "寿楽園【短期入所生活介護】和歌山県有田郡有田川町大字小川字矢本992番地", "url": "https://www.kaigokensaku.mhlw.go.jp/30/index.php?action_kouhyou_detail_004_kani=true&JigyosyoCd=3071600039-00&ServiceCd=210&Type=search", "url2": "https://ikkeikai.recruitment.jp" }, "geometry": { "type": "Point", "coordinates": [ 135.254431599999947, 34.0653217 ] } },
{ "type": "Feature", "properties": { "内容": "特別養護老人ホーム吉備苑ショートステイサービスセンター【短期入所生活介護】和歌山県有田郡有田川町大字奥222-1", "url": "https://www.kaigokensaku.mhlw.go.jp/30/index.php?action_kouhyou_detail_004_kani=true&JigyosyoCd=3071600435-00&ServiceCd=210&Type=search", "url2": "http://www.kibien.com/" }, "geometry": { "type": "Point", "coordinates": [ 135.209766599999966, 34.0484421 ] } },
{ "type": "Feature", "properties": { "内容": "特別養護老人ホームしみず園　ショートステイサービスセンター【短期入所生活介護】和歌山県有田郡有田川町大字粟生710番地4", "url": "https://www.kaigokensaku.mhlw.go.jp/30/index.php?action_kouhyou_detail_004_kani=true&JigyosyoCd=3071600930-00&ServiceCd=210&Type=search", "url2": "https://kibien.com" }, "geometry": { "type": "Point", "coordinates": [ 135.355804830038466, 34.061558154965731 ] } },
{ "type": "Feature", "properties": { "内容": "特別養護老人ホームハートケア万笑ショートステイサービスセンター【短期入所生活介護】和歌山県有田郡有田川町大字奥1026-1", "url": "https://www.kaigokensaku.mhlw.go.jp/30/index.php?action_kouhyou_detail_004_kani=true&JigyosyoCd=3071601235-00&ServiceCd=210&Type=search", "url2": "http:www.kibien.com/" }, "geometry": { "type": "Point", "coordinates": [ 135.214282899999944, 34.0496645 ] } },
{ "type": "Feature", "properties": { "内容": "特別養護老人ホームときわ寮【短期入所生活介護】和歌山県日高郡美浜町大字三尾９番地", "url": "https://www.kaigokensaku.mhlw.go.jp/30/index.php?action_kouhyou_detail_004_kani=true&JigyosyoCd=3072100161-00&ServiceCd=210&Type=search", "url2": "http://www.tokiwami-roujin.jp/" }, "geometry": { "type": "Point", "coordinates": [ 135.0844, 33.8899778 ] } },
{ "type": "Feature", "properties": { "内容": "特別養護老人ホームひだか博愛園みちしお【短期入所生活介護】和歌山県日高郡日高町阿尾646", "url": "https://www.kaigokensaku.mhlw.go.jp/30/index.php?action_kouhyou_detail_004_kani=true&JigyosyoCd=3072100500-00&ServiceCd=210&Type=search", "url2": "https://www.hakuaikai.net" }, "geometry": { "type": "Point", "coordinates": [ 135.071630899999946, 33.9037765 ] } },
{ "type": "Feature", "properties": { "内容": "特別養護老人ホームゆら博愛園【短期入所生活介護】和歌山県日高郡由良町大字吹井910番地の1", "url": "https://www.kaigokensaku.mhlw.go.jp/30/index.php?action_kouhyou_detail_004_kani=true&JigyosyoCd=3072100401-00&ServiceCd=210&Type=search", "url2": "http://www.hakuaikai.net/" }, "geometry": { "type": "Point", "coordinates": [ 135.106182900000022, 33.9699191 ] } },
{ "type": "Feature", "properties": { "内容": "特別養護老人ホーム　カルフール・ド・ルポ印南【短期入所生活介護】和歌山県日高郡印南町山口150番地1", "url": "https://www.kaigokensaku.mhlw.go.jp/30/index.php?action_kouhyou_detail_004_kani=true&JigyosyoCd=3072100203-00&ServiceCd=210&Type=search", "url2": "http://carrefour-inami.jp/" }, "geometry": { "type": "Point", "coordinates": [ 135.221591600000011, 33.8219697 ] } },
{ "type": "Feature", "properties": { "内容": "特別養護老人ホーム　カルフール・ド・ルポ印南ヌーヴォ【短期入所生活介護】和歌山県日高郡印南町山口150番地1", "url": "https://www.kaigokensaku.mhlw.go.jp/30/index.php?action_kouhyou_detail_004_kani=true&JigyosyoCd=3072100807-00&ServiceCd=210&Type=search", "url2": "http://carrefour-inami.jp/index.html" }, "geometry": { "type": "Point", "coordinates": [ 135.221591600000011, 33.8219697 ] } },
{ "type": "Feature", "properties": { "内容": "短期入所生活介護　虹【短期入所生活介護】和歌山県日高郡みなべ町埴田1450番地-1", "url": "https://www.kaigokensaku.mhlw.go.jp/30/index.php?action_kouhyou_detail_004_kani=true&JigyosyoCd=3072100617-00&ServiceCd=210&Type=search", "url2": "http://www.seieikai.or.jp/" }, "geometry": { "type": "Point", "coordinates": [ 135.327853, 33.7514575 ] } },
{ "type": "Feature", "properties": { "内容": "特別養護老人ホームときわ寮梅の里【短期入所生活介護】和歌山県日高郡みなべ町滝４３７番地", "url": "https://www.kaigokensaku.mhlw.go.jp/30/index.php?action_kouhyou_detail_004_kani=true&JigyosyoCd=3072100146-00&ServiceCd=210&Type=search", "url2": "http://www.tokiwa-roujin.jp/" }, "geometry": { "type": "Point", "coordinates": [ 135.34938139999997, 33.841553 ] } },
{ "type": "Feature", "properties": { "内容": "ショートステイ　バタフライヒルみなべ虹【短期入所生活介護】和歌山県日高郡みなべ町埴田1450-1", "url": "https://www.kaigokensaku.mhlw.go.jp/30/index.php?action_kouhyou_detail_004_kani=true&JigyosyoCd=3072101177-00&ServiceCd=210&Type=search", "url2": "https://www.zenkoukai.jp/" }, "geometry": { "type": "Point", "coordinates": [ 135.3277733, 33.7516441 ] } },
{ "type": "Feature", "properties": { "内容": "特別養護老人ホーム　白寿苑【短期入所生活介護】和歌山県日高郡日高川町大字船津1664番地", "url": "https://www.kaigokensaku.mhlw.go.jp/30/index.php?action_kouhyou_detail_004_kani=true&JigyosyoCd=3072100179-00&ServiceCd=210&Type=search", "url2": "http://www.zc.ztv.ne.jp/mcxdnjyx/index.html" }, "geometry": { "type": "Point", "coordinates": [ 135.268708299999957, 33.9582033 ] } },
{ "type": "Feature", "properties": { "内容": "みやまのさとしていたんきにゅうしょせいかつかいごじぎょうしょ【短期入所生活介護】和歌山県日高郡日高川町大字初湯川213番地1", "url": "https://www.kaigokensaku.mhlw.go.jp/30/index.php?action_kouhyou_detail_004_kani=true&JigyosyoCd=3072101151-00&ServiceCd=210&Type=search", "url2": "http://care-net.biz/30/kisei/company.php" }, "geometry": { "type": "Point", "coordinates": [ 135.3820705, 33.9576533 ] } },
{ "type": "Feature", "properties": { "内容": "特別養護老人ホームときわ寮川辺園【短期入所生活介護】和歌山県日高郡日高川町大字和佐２０８１番地の１０", "url": "https://www.kaigokensaku.mhlw.go.jp/30/index.php?action_kouhyou_detail_004_kani=true&JigyosyoCd=3072100120-00&ServiceCd=210&Type=search", "url2": "http://www.tokiwa-roujin.jp/" }, "geometry": { "type": "Point", "coordinates": [ 135.212416399999938, 33.8978265 ] } },
{ "type": "Feature", "properties": { "内容": "美山の里指定短期入所生活介護事業所【短期入所生活介護】和歌山県日高郡日高川町大字初湯川２１３番地1", "url": "https://www.kaigokensaku.mhlw.go.jp/30/index.php?action_kouhyou_detail_004_kani=true&JigyosyoCd=3072100542-00&ServiceCd=210&Type=search", "url2": "http://care-net.biz/30/kisei/" }, "geometry": { "type": "Point", "coordinates": [ 135.382648199999949, 33.9578263 ] } },
{ "type": "Feature", "properties": { "内容": "特別養護老人ホーム　白浜日置の郷【短期入所生活介護】和歌山県西牟婁郡白浜町日置2037", "url": "https://www.kaigokensaku.mhlw.go.jp/30/index.php?action_kouhyou_detail_004_kani=true&JigyosyoCd=3072400736-00&ServiceCd=210&Type=search", "url2": "http:/www.sanyoufukushikai.com/" }, "geometry": { "type": "Point", "coordinates": [ 135.430432699999983, 33.5723337 ] } },
{ "type": "Feature", "properties": { "内容": "特別養護老人ホーム百々千園【短期入所生活介護】和歌山県西牟婁郡白浜町中1652", "url": "https://www.kaigokensaku.mhlw.go.jp/30/index.php?action_kouhyou_detail_004_kani=true&JigyosyoCd=3072400165-00&ServiceCd=210&Type=search", "url2": "https://care-net.biz/30/kirou/" }, "geometry": { "type": "Point", "coordinates": [ 135.38780040000006, 33.6487985 ] } },
{ "type": "Feature", "properties": { "内容": "特別養護老人ホーム　成樹園【短期入所生活介護】和歌山県西牟婁郡白浜町富田１７０３", "url": "https://www.kaigokensaku.mhlw.go.jp/30/index.php?action_kouhyou_detail_004_kani=true&JigyosyoCd=3072400173-00&ServiceCd=210&Type=search", "url2": "https://www.nankishirahama-fukushikai.or.jp/" }, "geometry": { "type": "Point", "coordinates": [ 135.398185600000033, 33.6379835 ] } },
{ "type": "Feature", "properties": { "内容": "特別養護老人ホーム成実園【短期入所生活介護】和歌山県西牟婁郡白浜町富田１３７１－１", "url": "https://www.kaigokensaku.mhlw.go.jp/30/index.php?action_kouhyou_detail_004_kani=true&JigyosyoCd=3072400181-00&ServiceCd=210&Type=search", "url2": "https://www.nankishirahama-fukushikai.or.jp/" }, "geometry": { "type": "Point", "coordinates": [ 135.398588300000029, 33.6380196 ] } },
{ "type": "Feature", "properties": { "内容": "社会福祉法人神愛会愛の園【短期入所生活介護】和歌山県西牟婁郡上富田町生馬316-56", "url": "https://www.kaigokensaku.mhlw.go.jp/30/index.php?action_kouhyou_detail_004_kani=true&JigyosyoCd=3072400124-00&ServiceCd=210&Type=search", "url2": "http://www.shinai.or.jp" }, "geometry": { "type": "Point", "coordinates": [ 135.427685699999984, 33.7185325 ] } },
{ "type": "Feature", "properties": { "内容": "特別養護老人ホーム愛の園【短期入所生活介護】和歌山県西牟婁郡上富田町生馬316-56", "url": "https://www.kaigokensaku.mhlw.go.jp/30/index.php?action_kouhyou_detail_004_kani=true&JigyosyoCd=3072401510-00&ServiceCd=210&Type=search", "url2": "https://sanyofukushikai.com/fukushi/ainosono" }, "geometry": { "type": "Point", "coordinates": [ 135.427786, 33.7187189 ] } },
{ "type": "Feature", "properties": { "内容": "特別養護老人ホーム日好荘那智園【短期入所生活介護】東牟婁郡那智勝浦町大字浜ノ宮８５０番地1", "url": "https://www.kaigokensaku.mhlw.go.jp/30/index.php?action_kouhyou_detail_004_kani=true&JigyosyoCd=3072500113-00&ServiceCd=210&Type=search", "url2": "http://care-net.biz/30/nikkosonachien/" }, "geometry": { "type": "Point", "coordinates": [ 135.942438300000049, 33.6473109 ] } },
{ "type": "Feature", "properties": { "内容": "特別養護老人ホーム南紀園【短期入所生活介護】和歌山県東牟婁郡太地町大字太地1770番15", "url": "https://www.kaigokensaku.mhlw.go.jp/30/index.php?action_kouhyou_detail_004_kani=true&JigyosyoCd=3072500121-00&ServiceCd=210&Type=search", "url2": null }, "geometry": { "type": "Point", "coordinates": [ 135.941820600000028, 33.5843709 ] } },
{ "type": "Feature", "properties": { "内容": "特別養護老人ホーム南紀園【短期入所生活介護】和歌山県東牟婁郡太地町大字太地1770番15", "url": "https://www.kaigokensaku.mhlw.go.jp/30/index.php?action_kouhyou_detail_004_kani=true&JigyosyoCd=3072500881-00&ServiceCd=210&Type=search", "url2": null }, "geometry": { "type": "Point", "coordinates": [ 135.946286699999973, 33.589701 ] } },
{ "type": "Feature", "properties": { "内容": "特別養護老人ホーム古座川園【短期入所生活介護】和歌山県東牟婁郡古座川町高瀬353番地", "url": "https://www.kaigokensaku.mhlw.go.jp/30/index.php?action_kouhyou_detail_004_kani=true&JigyosyoCd=3072500162-00&ServiceCd=210&Type=search", "url2": "http://www.takasekai.or.jp/" }, "geometry": { "type": "Point", "coordinates": [ 135.778202, 33.535302 ] } },
{ "type": "Feature", "properties": { "内容": "在宅複合型施設　グリーンヴィレッジ古座川【短期入所生活介護】和歌山県東牟婁郡古座川町高瀬406番地", "url": "https://www.kaigokensaku.mhlw.go.jp/30/index.php?action_kouhyou_detail_004_kani=true&JigyosyoCd=3072500196-00&ServiceCd=210&Type=search", "url2": "http://www.takasekai.or.jp/" }, "geometry": { "type": "Point", "coordinates": [ 135.778357568122857, 33.536294664419714 ] } },
{ "type": "Feature", "properties": { "内容": "にしき園指定短期入所生活介護事業所【短期入所生活介護】和歌山県東牟婁郡串本町二色１６０", "url": "https://www.kaigokensaku.mhlw.go.jp/30/index.php?action_kouhyou_detail_004_kani=true&JigyosyoCd=3072400306-00&ServiceCd=210&Type=search", "url2": "http://www2.ocn.ne.jp/~nisikien" }, "geometry": { "type": "Point", "coordinates": [ 135.768860600000039, 33.489038 ] } },
{ "type": "Feature", "properties": { "内容": "にしき園指定短期入所生活介護事業所【短期入所生活介護】和歌山県東牟婁郡串本町二色１６０番地", "url": "https://www.kaigokensaku.mhlw.go.jp/30/index.php?action_kouhyou_detail_004_kani=true&JigyosyoCd=3072500758-00&ServiceCd=210&Type=search", "url2": "http://www.nishikien.ne.jp/" }, "geometry": { "type": "Point", "coordinates": [ 135.768860600000039, 33.489038 ] } },
{ "type": "Feature", "properties": { "内容": "ショートステイ上野山にしき園【短期入所生活介護】和歌山県東牟婁郡串本町津荷29-2上野山にしき園", "url": "https://www.kaigokensaku.mhlw.go.jp/30/index.php?action_kouhyou_detail_004_kani=true&JigyosyoCd=3072500873-00&ServiceCd=210&Type=search", "url2": "http://www2.ocn.ne.jp/~nisikien/" }, "geometry": { "type": "Point", "coordinates": [ 135.838628814819344, 33.514951429544446 ] } }
]
}
