{
"type": "FeatureCollection",
"name": "geo_30_特別支援学校",
"crs": { "type": "name", "properties": { "name": "urn:ogc:def:crs:EPSG::6668" } },
"features": [
{ "type": "Feature", "properties": { "P29_001": "30201", "P29_002": "E130110000018", "P29_003": "16012", "P29_004": "和歌山大学教育学部附属特別支援学校", "P29_005": "和歌山県和歌山市西小二里2-5-18", "P29_006": "1", "P29_007": "0", "P29_008": "00", "P29_009": null }, "geometry": { "type": "Point", "coordinates": [ 135.161136095894705, 34.205783822218038 ] } },
{ "type": "Feature", "properties": { "P29_001": "30201", "P29_002": "E130210000016", "P29_003": "16012", "P29_004": "和歌山県立和歌山盲学校", "P29_005": "和歌山県和歌山市府中949-23", "P29_006": "2", "P29_007": "0", "P29_008": "00", "P29_009": null }, "geometry": { "type": "Point", "coordinates": [ 135.232313480692198, 34.262838768226331 ] } },
{ "type": "Feature", "properties": { "P29_001": "30201", "P29_002": "E130210000025", "P29_003": "16012", "P29_004": "和歌山県立和歌山ろう学校", "P29_005": "和歌山県和歌山市砂山南3-1-73", "P29_006": "2", "P29_007": "0", "P29_008": "00", "P29_009": null }, "geometry": { "type": "Point", "coordinates": [ 135.16221623948698, 34.217697931802789 ] } },
{ "type": "Feature", "properties": { "P29_001": "30201", "P29_002": "E130210000043", "P29_003": "16012", "P29_004": "和歌山県立紀北支援学校", "P29_005": "和歌山県和歌山市冬野227", "P29_006": "2", "P29_007": "0", "P29_008": "00", "P29_009": null }, "geometry": { "type": "Point", "coordinates": [ 135.214567439537035, 34.192925118399167 ] } },
{ "type": "Feature", "properties": { "P29_001": "30381", "P29_002": "E130210000061", "P29_003": "16012", "P29_004": "和歌山県立みはま支援学校", "P29_005": "和歌山県日高郡美浜町和田字松原1138-259", "P29_006": "2", "P29_007": "0", "P29_008": "00", "P29_009": null }, "geometry": { "type": "Point", "coordinates": [ 135.133128292712001, 33.892369285599628 ] } },
{ "type": "Feature", "properties": { "P29_001": "30203", "P29_002": "E130210000070", "P29_003": "16012", "P29_004": "和歌山県立きのかわ支援学校", "P29_005": "和歌山県橋本市高野口町向島101-3", "P29_006": "2", "P29_007": "0", "P29_008": "00", "P29_009": null }, "geometry": { "type": "Point", "coordinates": [ 135.554236317474874, 34.298577528134352 ] } },
{ "type": "Feature", "properties": { "P29_001": "30207", "P29_002": "E130210000089", "P29_003": "16012", "P29_004": "和歌山県立みくまの支援学校", "P29_005": "和歌山県新宮市蜂伏13-26", "P29_006": "2", "P29_007": "0", "P29_008": "00", "P29_009": null }, "geometry": { "type": "Point", "coordinates": [ 135.960929552028233, 33.685153943185043 ] } },
{ "type": "Feature", "properties": { "P29_001": "30362", "P29_002": "E130210000098", "P29_003": "16012", "P29_004": "和歌山県立たちばな支援学校", "P29_005": "和歌山県有田郡広川町和田21-3", "P29_006": "2", "P29_007": "0", "P29_008": "00", "P29_009": null }, "geometry": { "type": "Point", "coordinates": [ 135.165961761762617, 34.024493826327728 ] } },
{ "type": "Feature", "properties": { "P29_001": "30201", "P29_002": "E130210000105", "P29_003": "16012", "P29_004": "和歌山県立紀伊コスモス支援学校", "P29_005": "和歌山県和歌山市弘西555", "P29_006": "2", "P29_007": "0", "P29_008": "00", "P29_009": null }, "geometry": { "type": "Point", "coordinates": [ 135.239712594712643, 34.272609296200109 ] } },
{ "type": "Feature", "properties": { "P29_001": "30201", "P29_002": "E130210000114", "P29_003": "16012", "P29_004": "和歌山県立和歌山さくら支援学校", "P29_005": "和歌山県和歌山市西庄1148-1", "P29_006": "2", "P29_007": "0", "P29_008": "00", "P29_009": null }, "geometry": { "type": "Point", "coordinates": [ 135.109662655311837, 34.266904393443525 ] } },
{ "type": "Feature", "properties": { "P29_001": "30404", "P29_002": "E130210000124", "P29_003": "16012", "P29_004": "和歌山県立南紀はまゆう支援学校", "P29_005": "和歌山県西牟婁郡上富田町岩田1787-1", "P29_006": "2", "P29_007": "0", "P29_008": "00", "P29_009": null }, "geometry": { "type": "Point", "coordinates": [ 135.444788032564418, 33.708931217389527 ] } }
]
}
