{
"type": "FeatureCollection",
"name": "geo_30_地域密着型通所介護",
"crs": { "type": "name", "properties": { "name": "urn:ogc:def:crs:OGC:1.3:CRS84" } },
"features": [
{ "type": "Feature", "properties": { "内容": "自遊会園部デイサービス【地域密着型通所介護】和歌山県和歌山市園部1218-75", "url": "https://www.kaigokensaku.mhlw.go.jp/30/index.php?action_kouhyou_detail_004_kani=true&JigyosyoCd=3070109800-00&ServiceCd=780&Type=search", "url2": null }, "geometry": { "type": "Point", "coordinates": [ 135.187533900000062, 34.2548428 ] } },
{ "type": "Feature", "properties": { "内容": "つるかめ庵東松江【地域密着型通所介護】和歌山市松江東4丁目8-19", "url": "https://www.kaigokensaku.mhlw.go.jp/30/index.php?action_kouhyou_detail_004_kani=true&JigyosyoCd=3070111699-00&ServiceCd=780&Type=search", "url2": null }, "geometry": { "type": "Point", "coordinates": [ 135.141226299999971, 34.2470257 ] } },
{ "type": "Feature", "properties": { "内容": "プラムデイサービス【地域密着型通所介護】和歌山県和歌山市湊1820-28", "url": "https://www.kaigokensaku.mhlw.go.jp/30/index.php?action_kouhyou_detail_004_kani=true&JigyosyoCd=3070110683-00&ServiceCd=780&Type=search", "url2": null }, "geometry": { "type": "Point", "coordinates": [ 135.1535652, 34.2345548 ] } },
{ "type": "Feature", "properties": { "内容": "デイサービス　ケアネット布引【地域密着型通所介護】和歌山県和歌山市布引704-3", "url": "https://www.kaigokensaku.mhlw.go.jp/30/index.php?action_kouhyou_detail_004_kani=true&JigyosyoCd=3070110170-00&ServiceCd=780&Type=search", "url2": "ｈｔｔｐ//ｃａｒｅｎｅｔ-ｗａｋａｙａｍａ.ｃｏｍ/" }, "geometry": { "type": "Point", "coordinates": [ 135.1831886, 34.1713742 ] } },
{ "type": "Feature", "properties": { "内容": "デイサービス　ライフサイズのざき【地域密着型通所介護】和歌山県和歌山市野崎62-1ライフサイズ野崎", "url": "https://www.kaigokensaku.mhlw.go.jp/30/index.php?action_kouhyou_detail_004_kani=true&JigyosyoCd=3090101290-00&ServiceCd=780&Type=search", "url2": null }, "geometry": { "type": "Point", "coordinates": [ 135.1554784, 34.2421829 ] } },
{ "type": "Feature", "properties": { "内容": "デイサービス絆【地域密着型通所介護】和歌山県和歌山市井戸192-1", "url": "https://www.kaigokensaku.mhlw.go.jp/30/index.php?action_kouhyou_detail_004_kani=true&JigyosyoCd=3090101530-00&ServiceCd=780&Type=search", "url2": null }, "geometry": { "type": "Point", "coordinates": [ 135.226645699999978, 34.197461599999983 ] } },
{ "type": "Feature", "properties": { "内容": "まつい訪問看護ステーション　メイプル【地域密着型通所介護】和歌山県和歌山市西浜１２２３－１８", "url": "https://www.kaigokensaku.mhlw.go.jp/30/index.php?action_kouhyou_detail_004_kani=true&JigyosyoCd=3090101506-00&ServiceCd=780&Type=search", "url2": "http://matsui-houmonkango.co.jp/" }, "geometry": { "type": "Point", "coordinates": [ 135.154451852280005, 34.196723937765562 ] } },
{ "type": "Feature", "properties": { "内容": "デイサービスセンターしるばあはっぴい道場町【地域密着型通所介護】和歌山市道場町7番地はっぴいビル2Ｆ", "url": "https://www.kaigokensaku.mhlw.go.jp/30/index.php?action_kouhyou_detail_004_kani=true&JigyosyoCd=3070105162-00&ServiceCd=780&Type=search", "url2": null }, "geometry": { "type": "Point", "coordinates": [ 135.164964300000065, 34.2307472 ] } },
{ "type": "Feature", "properties": { "内容": "パインデイサービス【地域密着型通所介護】久保丁1丁目21番地", "url": "https://www.kaigokensaku.mhlw.go.jp/30/index.php?action_kouhyou_detail_004_kani=true&JigyosyoCd=3070107374-00&ServiceCd=780&Type=search", "url2": null }, "geometry": { "type": "Point", "coordinates": [ 135.16754190000006, 34.2311389 ] } },
{ "type": "Feature", "properties": { "内容": "寿寿ソーラス【地域密着型通所介護】和歌山県和歌山市福島898番6", "url": "https://www.kaigokensaku.mhlw.go.jp/30/index.php?action_kouhyou_detail_004_kani=true&JigyosyoCd=3090101415-00&ServiceCd=780&Type=search", "url2": "http://www.hukumikai.jp/" }, "geometry": { "type": "Point", "coordinates": [ 135.1639623, 34.2461099 ] } },
{ "type": "Feature", "properties": { "内容": "てんまりてんてん【地域密着型通所介護】和歌山県和歌山市西浜1407-1", "url": "https://www.kaigokensaku.mhlw.go.jp/30/index.php?action_kouhyou_detail_004_kani=true&JigyosyoCd=3090101779-00&ServiceCd=780&Type=search", "url2": null }, "geometry": { "type": "Point", "coordinates": [ 135.1537715, 34.2068826 ] } },
{ "type": "Feature", "properties": { "内容": "シニアカレッジtomorrow【地域密着型通所介護】和歌山県和歌山市新留丁136", "url": "https://www.kaigokensaku.mhlw.go.jp/30/index.php?action_kouhyou_detail_004_kani=true&JigyosyoCd=3090101340-00&ServiceCd=780&Type=search", "url2": null }, "geometry": { "type": "Point", "coordinates": [ 135.1853082, 34.2268431 ] } },
{ "type": "Feature", "properties": { "内容": "デイサービスおかえり【地域密着型通所介護】和歌山市善明寺645-5", "url": "https://www.kaigokensaku.mhlw.go.jp/30/index.php?action_kouhyou_detail_004_kani=true&JigyosyoCd=3070109131-00&ServiceCd=780&Type=search", "url2": null }, "geometry": { "type": "Point", "coordinates": [ 135.185649080145595, 34.271381251679607 ] } },
{ "type": "Feature", "properties": { "内容": "オリーブの丘デイサービス宮前【地域密着型通所介護】和歌山県和歌山市新中島130", "url": "https://www.kaigokensaku.mhlw.go.jp/30/index.php?action_kouhyou_detail_004_kani=true&JigyosyoCd=3090101803-00&ServiceCd=780&Type=search", "url2": "https://hp.kaipoke.biz/4eb/184089/base_0004.html" }, "geometry": { "type": "Point", "coordinates": [ 135.195820261342249, 34.215177214470344 ] } },
{ "type": "Feature", "properties": { "内容": "デイサービス　陽なた【地域密着型通所介護】和歌山市有家320-1", "url": "https://www.kaigokensaku.mhlw.go.jp/30/index.php?action_kouhyou_detail_004_kani=true&JigyosyoCd=3070110832-00&ServiceCd=780&Type=search", "url2": null }, "geometry": { "type": "Point", "coordinates": [ 135.201092, 34.2210604 ] } },
{ "type": "Feature", "properties": { "内容": "プライマリーリハビリ・デイサービス和歌山北【地域密着型通所介護】和歌山市園部８７０－１", "url": "https://www.kaigokensaku.mhlw.go.jp/30/index.php?action_kouhyou_detail_004_kani=true&JigyosyoCd=3070108166-00&ServiceCd=780&Type=search", "url2": "http://primary.style" }, "geometry": { "type": "Point", "coordinates": [ 135.194458199999985, 34.2627534 ] } },
{ "type": "Feature", "properties": { "内容": "デイサービス　りゅうじん【地域密着型通所介護】和歌山市北中島1丁目2番4号", "url": "https://www.kaigokensaku.mhlw.go.jp/30/index.php?action_kouhyou_detail_004_kani=true&JigyosyoCd=3070106574-00&ServiceCd=780&Type=search", "url2": null }, "geometry": { "type": "Point", "coordinates": [ 135.188223900000025, 34.214311 ] } },
{ "type": "Feature", "properties": { "内容": "わかうら園デイサービスセンター【地域密着型通所介護】和歌山市田野178番地", "url": "https://www.kaigokensaku.mhlw.go.jp/30/index.php?action_kouhyou_detail_004_kani=true&JigyosyoCd=3090101696-00&ServiceCd=780&Type=search", "url2": "wakaurakai.or.jp" }, "geometry": { "type": "Point", "coordinates": [ 135.150065074868792, 34.185887650364045 ] } },
{ "type": "Feature", "properties": { "内容": "楽しみやデイ和歌山【地域密着型通所介護】和歌山県和歌山市北島58-3", "url": "https://www.kaigokensaku.mhlw.go.jp/30/index.php?action_kouhyou_detail_004_kani=true&JigyosyoCd=3090101829-00&ServiceCd=780&Type=search", "url2": null }, "geometry": { "type": "Point", "coordinates": [ 135.160878, 34.2438767 ] } },
{ "type": "Feature", "properties": { "内容": "そうわヘルスケア【地域密着型通所介護】和歌山県和歌山市屋形町2丁目7番地西川ビル1階", "url": "https://www.kaigokensaku.mhlw.go.jp/30/index.php?action_kouhyou_detail_004_kani=true&JigyosyoCd=3090101589-00&ServiceCd=780&Type=search", "url2": "www.souwacare.org" }, "geometry": { "type": "Point", "coordinates": [ 135.1773254, 34.2296309 ] } },
{ "type": "Feature", "properties": { "内容": "デイサービス　リデンテ【地域密着型通所介護】和歌山県和歌山市湊２丁目11-7", "url": "https://www.kaigokensaku.mhlw.go.jp/30/index.php?action_kouhyou_detail_004_kani=true&JigyosyoCd=3070111541-00&ServiceCd=780&Type=search", "url2": null }, "geometry": { "type": "Point", "coordinates": [ 135.145564141840396, 34.233893856664551 ] } },
{ "type": "Feature", "properties": { "内容": "デイサービス　ゆうゆうライフ【地域密着型通所介護】西浜１１７０－２サービス付き高齢者向け住宅ふるさと内１Ｆ", "url": "https://www.kaigokensaku.mhlw.go.jp/30/index.php?action_kouhyou_detail_004_kani=true&JigyosyoCd=3070109552-00&ServiceCd=780&Type=search", "url2": "http://www.lifecare-soyokaze.jp/" }, "geometry": { "type": "Point", "coordinates": [ 135.152604967289818, 34.193890918868298 ] } },
{ "type": "Feature", "properties": { "内容": "はっぴー＆はーとⅢ【地域密着型通所介護】和歌山県和歌山市布施屋339-2", "url": "https://www.kaigokensaku.mhlw.go.jp/30/index.php?action_kouhyou_detail_004_kani=true&JigyosyoCd=3090101282-00&ServiceCd=780&Type=search", "url2": null }, "geometry": { "type": "Point", "coordinates": [ 135.267700499999989, 34.2414169 ] } },
{ "type": "Feature", "properties": { "内容": "デイサービス喜楽々【地域密着型通所介護】和歌山県和歌山市狐島691-17", "url": "https://www.kaigokensaku.mhlw.go.jp/30/index.php?action_kouhyou_detail_004_kani=true&JigyosyoCd=3070108703-00&ServiceCd=780&Type=search", "url2": null }, "geometry": { "type": "Point", "coordinates": [ 135.14924968941304, 34.241774185736325 ] } },
{ "type": "Feature", "properties": { "内容": "デイサービスひなた【地域密着型通所介護】和歌山県和歌山市野崎45-2", "url": "https://www.kaigokensaku.mhlw.go.jp/30/index.php?action_kouhyou_detail_004_kani=true&JigyosyoCd=3070110303-00&ServiceCd=780&Type=search", "url2": null }, "geometry": { "type": "Point", "coordinates": [ 135.153796719712801, 34.242665820838965 ] } },
{ "type": "Feature", "properties": { "内容": "紀風苑デイサービスふうど【地域密着型通所介護】岩橋１２７１－１風土記の丘診療所１階", "url": "https://www.kaigokensaku.mhlw.go.jp/30/index.php?action_kouhyou_detail_004_kani=true&JigyosyoCd=3090101381-00&ServiceCd=780&Type=search", "url2": "https://www.kifuen.net/fuudo/" }, "geometry": { "type": "Point", "coordinates": [ 135.2289889, 34.2303534 ] } },
{ "type": "Feature", "properties": { "内容": "パパイヤデイサービス【地域密着型通所介護】北中間町50", "url": "https://www.kaigokensaku.mhlw.go.jp/30/index.php?action_kouhyou_detail_004_kani=true&JigyosyoCd=3090101225-00&ServiceCd=780&Type=search", "url2": null }, "geometry": { "type": "Point", "coordinates": [ 135.163091, 34.2254004 ] } },
{ "type": "Feature", "properties": { "内容": "リハビリテーションデイサービス紀のいえぷらす【地域密着型通所介護】和歌山市園部1360-5", "url": "https://www.kaigokensaku.mhlw.go.jp/30/index.php?action_kouhyou_detail_004_kani=true&JigyosyoCd=3090101662-00&ServiceCd=780&Type=search", "url2": "https://kinoie-wakayama.jimdofree.com" }, "geometry": { "type": "Point", "coordinates": [ 135.195172500000012, 34.2589506 ] } },
{ "type": "Feature", "properties": { "内容": "吹屋町デイサービス園【地域密着型通所介護】和歌山県和歌山市吹屋町二丁目６９－１", "url": "https://www.kaigokensaku.mhlw.go.jp/30/index.php?action_kouhyou_detail_004_kani=true&JigyosyoCd=3070109735-00&ServiceCd=780&Type=search", "url2": null }, "geometry": { "type": "Point", "coordinates": [ 135.187011831553008, 34.2248191382931 ] } },
{ "type": "Feature", "properties": { "内容": "デイサービスセンターぱせり【地域密着型通所介護】和歌山市狐島３８８－４メゾンKITSUNEJIMA１０１号室", "url": "https://www.kaigokensaku.mhlw.go.jp/30/index.php?action_kouhyou_detail_004_kani=true&JigyosyoCd=3070109313-00&ServiceCd=780&Type=search", "url2": null }, "geometry": { "type": "Point", "coordinates": [ 135.152937, 34.2439594 ] } },
{ "type": "Feature", "properties": { "内容": "リハビリ特化型デイサービス蒲輪の里【地域密着型通所介護】和歌山県和歌山市西浜1270-1", "url": "https://www.kaigokensaku.mhlw.go.jp/30/index.php?action_kouhyou_detail_004_kani=true&JigyosyoCd=3090101373-00&ServiceCd=780&Type=search", "url2": "https://www.horinnosato.com" }, "geometry": { "type": "Point", "coordinates": [ 135.154955621532395, 34.199122282221865 ] } },
{ "type": "Feature", "properties": { "内容": "ひだまりの家【地域密着型通所介護】和歌山市金谷206-6", "url": "https://www.kaigokensaku.mhlw.go.jp/30/index.php?action_kouhyou_detail_004_kani=true&JigyosyoCd=3070103894-00&ServiceCd=780&Type=search", "url2": null }, "geometry": { "type": "Point", "coordinates": [ 135.276219099999906, 34.2393597 ] } },
{ "type": "Feature", "properties": { "内容": "デイサービス　さやか【地域密着型通所介護】和歌山県和歌山市布引９３５－１", "url": "https://www.kaigokensaku.mhlw.go.jp/30/index.php?action_kouhyou_detail_004_kani=true&JigyosyoCd=3090101720-00&ServiceCd=780&Type=search", "url2": null }, "geometry": { "type": "Point", "coordinates": [ 135.187085700000011, 34.1750785 ] } },
{ "type": "Feature", "properties": { "内容": "ピーチデイサービス【地域密着型通所介護】和歌山市土佐町2丁目53-1", "url": "https://www.kaigokensaku.mhlw.go.jp/30/index.php?action_kouhyou_detail_004_kani=true&JigyosyoCd=3070108885-00&ServiceCd=780&Type=search", "url2": null }, "geometry": { "type": "Point", "coordinates": [ 135.161109099999976, 34.2220426 ] } },
{ "type": "Feature", "properties": { "内容": "和歌山市布施屋５５７番地１７【地域密着型通所介護】和歌山県和歌山市布施屋５５７番地１７", "url": "https://www.kaigokensaku.mhlw.go.jp/30/index.php?action_kouhyou_detail_004_kani=true&JigyosyoCd=3090101811-00&ServiceCd=780&Type=search", "url2": "https://colors7716.com/" }, "geometry": { "type": "Point", "coordinates": [ 135.2648126, 34.2454498 ] } },
{ "type": "Feature", "properties": { "内容": "デイサービスいろは【地域密着型通所介護】有家375-24", "url": "https://www.kaigokensaku.mhlw.go.jp/30/index.php?action_kouhyou_detail_004_kani=true&JigyosyoCd=3070108281-00&ServiceCd=780&Type=search", "url2": "https://iroha-robust.com/" }, "geometry": { "type": "Point", "coordinates": [ 135.201510628096571, 34.218004882794943 ] } },
{ "type": "Feature", "properties": { "内容": "デイサービスセンターつばさ【地域密着型通所介護】和歌山県和歌山市六十谷1030-3", "url": "https://www.kaigokensaku.mhlw.go.jp/30/index.php?action_kouhyou_detail_004_kani=true&JigyosyoCd=3070105196-00&ServiceCd=780&Type=search", "url2": "http://www.sakai-sekkotsu.jp/tsubasa/index.html" }, "geometry": { "type": "Point", "coordinates": [ 135.200633438204108, 34.2626937855485 ] } },
{ "type": "Feature", "properties": { "内容": "機能訓練＆ケアデイサービスエイル【地域密着型通所介護】和歌山県和歌山市六十谷180-22", "url": "https://www.kaigokensaku.mhlw.go.jp/30/index.php?action_kouhyou_detail_004_kani=true&JigyosyoCd=3070111475-00&ServiceCd=780&Type=search", "url2": "www.sakai-sekkotsu.jp" }, "geometry": { "type": "Point", "coordinates": [ 135.205071399999952, 34.2607622 ] } },
{ "type": "Feature", "properties": { "内容": "リハビリ特化型デイサービススマイルラボ和歌浦【地域密着型通所介護】和歌山県和歌山市和歌浦東３丁目１－１６", "url": "https://www.kaigokensaku.mhlw.go.jp/30/index.php?action_kouhyou_detail_004_kani=true&JigyosyoCd=3090101134-00&ServiceCd=780&Type=search", "url2": "http://smilelabo-wakaura.com/" }, "geometry": { "type": "Point", "coordinates": [ 135.175337442852765, 34.189980228370679 ] } },
{ "type": "Feature", "properties": { "内容": "一織庵デイサービス直川【地域密着型通所介護】和歌山県和歌山市府中18-1", "url": "https://www.kaigokensaku.mhlw.go.jp/30/index.php?action_kouhyou_detail_004_kani=true&JigyosyoCd=3070111129-00&ServiceCd=780&Type=search", "url2": null }, "geometry": { "type": "Point", "coordinates": [ 135.223909, 34.2634653 ] } },
{ "type": "Feature", "properties": { "内容": "デイサ－ビス吉祥【地域密着型通所介護】和歌山県和歌山市禰宜１０２７-１サービス付き高齢者向け住宅　吉祥苑", "url": "https://www.kaigokensaku.mhlw.go.jp/30/index.php?action_kouhyou_detail_004_kani=true&JigyosyoCd=3070109875-00&ServiceCd=780&Type=search", "url2": "http://kishou-w.jp/" }, "geometry": { "type": "Point", "coordinates": [ 135.246128326597585, 34.239206627163014 ] } },
{ "type": "Feature", "properties": { "内容": "デイサービス心和【地域密着型通所介護】雄松町一丁目61番地1", "url": "https://www.kaigokensaku.mhlw.go.jp/30/index.php?action_kouhyou_detail_004_kani=true&JigyosyoCd=3070109206-00&ServiceCd=780&Type=search", "url2": null }, "geometry": { "type": "Point", "coordinates": [ 135.183038085953598, 34.222281040174778 ] } },
{ "type": "Feature", "properties": { "内容": "北浦デイサービス【地域密着型通所介護】和歌山県和歌山市森小手穂７３８－３", "url": "https://www.kaigokensaku.mhlw.go.jp/30/index.php?action_kouhyou_detail_004_kani=true&JigyosyoCd=3070107580-00&ServiceCd=780&Type=search", "url2": null }, "geometry": { "type": "Point", "coordinates": [ 135.223816176032045, 34.209283369131334 ] } },
{ "type": "Feature", "properties": { "内容": "あすかリハビリデイサービス【地域密着型通所介護】新在家165-8", "url": "https://www.kaigokensaku.mhlw.go.jp/30/index.php?action_kouhyou_detail_004_kani=true&JigyosyoCd=3070110782-00&ServiceCd=780&Type=search", "url2": null }, "geometry": { "type": "Point", "coordinates": [ 135.197247026898594, 34.244106927954519 ] } },
{ "type": "Feature", "properties": { "内容": "いやしハウスカインド【地域密着型通所介護】和歌山市和歌町12番地", "url": "https://www.kaigokensaku.mhlw.go.jp/30/index.php?action_kouhyou_detail_004_kani=true&JigyosyoCd=3070103613-00&ServiceCd=780&Type=search", "url2": "http://www.tba-net.co.jp" }, "geometry": { "type": "Point", "coordinates": [ 135.179735299999948, 34.2293728 ] } },
{ "type": "Feature", "properties": { "内容": "オリーブの丘デイサービス【地域密着型通所介護】和歌山県和歌山市園部110-6", "url": "https://www.kaigokensaku.mhlw.go.jp/30/index.php?action_kouhyou_detail_004_kani=true&JigyosyoCd=3090101670-00&ServiceCd=780&Type=search", "url2": null }, "geometry": { "type": "Point", "coordinates": [ 135.1935561, 34.269597 ] } },
{ "type": "Feature", "properties": { "内容": "より処デイサービス塩屋【地域密着型通所介護】和歌山県和歌山市塩屋３丁目２－２１", "url": "https://www.kaigokensaku.mhlw.go.jp/30/index.php?action_kouhyou_detail_004_kani=true&JigyosyoCd=3090101761-00&ServiceCd=780&Type=search", "url2": null }, "geometry": { "type": "Point", "coordinates": [ 135.174471098147592, 34.199927968109016 ] } },
{ "type": "Feature", "properties": { "内容": "ポシブルわかやま楠見中【地域密着型通所介護】和歌山市楠見中188-1", "url": "https://www.kaigokensaku.mhlw.go.jp/30/index.php?action_kouhyou_detail_004_kani=true&JigyosyoCd=3090101837-00&ServiceCd=780&Type=search", "url2": "https://www.possible-plus.co.jp/" }, "geometry": { "type": "Point", "coordinates": [ 135.1785322, 34.2534888 ] } },
{ "type": "Feature", "properties": { "内容": "ケアセンターやわらぎ【地域密着型通所介護】和歌山市葵町6番11号", "url": "https://www.kaigokensaku.mhlw.go.jp/30/index.php?action_kouhyou_detail_004_kani=true&JigyosyoCd=3070105188-00&ServiceCd=780&Type=search", "url2": null }, "geometry": { "type": "Point", "coordinates": [ 135.162712499999969, 34.213234200000024 ] } },
{ "type": "Feature", "properties": { "内容": "ひかりサロンりゅうじん【地域密着型通所介護】小雑賀805-1オークワセントラルシティ和歌山店", "url": "https://www.kaigokensaku.mhlw.go.jp/30/index.php?action_kouhyou_detail_004_kani=true&JigyosyoCd=3090101472-00&ServiceCd=780&Type=search", "url2": "https://www.ryujin-seikei.com" }, "geometry": { "type": "Point", "coordinates": [ 135.183182039744707, 34.195560151192595 ] } },
{ "type": "Feature", "properties": { "内容": "デイサービス　ケアネット雑賀屋町【地域密着型通所介護】和歌山県和歌山市雑賀屋町１２番地", "url": "https://www.kaigokensaku.mhlw.go.jp/30/index.php?action_kouhyou_detail_004_kani=true&JigyosyoCd=3070107093-00&ServiceCd=780&Type=search", "url2": "http//carenet-wakayama.com/" }, "geometry": { "type": "Point", "coordinates": [ 135.167561299999988, 34.227681 ] } },
{ "type": "Feature", "properties": { "内容": "デイサービス　ケアネット新生町【地域密着型通所介護】和歌山県和歌山市新生町2-5", "url": "https://www.kaigokensaku.mhlw.go.jp/30/index.php?action_kouhyou_detail_004_kani=true&JigyosyoCd=3070111574-00&ServiceCd=780&Type=search", "url2": "ｈｔｔｐ//ｗｗｗ.ｃａｒｅｎｅｔ-ｗａｋａｙａｍａ.ｃｏｍ/" }, "geometry": { "type": "Point", "coordinates": [ 135.189479099999971, 34.224021 ] } },
{ "type": "Feature", "properties": { "内容": "デイサービスケアネット大谷【地域密着型通所介護】和歌山県和歌山市大谷264-9", "url": "https://www.kaigokensaku.mhlw.go.jp/30/index.php?action_kouhyou_detail_004_kani=true&JigyosyoCd=3090101050-00&ServiceCd=780&Type=search", "url2": "ｈｔｔｐ//ｃａｒｅｎｅｔ-ｗａｋａｙａｍａ.ｃｏｍ/" }, "geometry": { "type": "Point", "coordinates": [ 135.173890300000039, 34.2587226 ] } },
{ "type": "Feature", "properties": { "内容": "一織庵デイサービス秋月【地域密着型通所介護】和歌山県和歌山市秋月95-9", "url": "https://www.kaigokensaku.mhlw.go.jp/30/index.php?action_kouhyou_detail_004_kani=true&JigyosyoCd=3070111103-00&ServiceCd=780&Type=search", "url2": "http://ameblo.jp/sawa-arimoto/" }, "geometry": { "type": "Point", "coordinates": [ 135.203844200000049, 34.2340257 ] } },
{ "type": "Feature", "properties": { "内容": "デイサービスハピネス【地域密着型通所介護】和歌山県和歌山市直川1700番地3", "url": "https://www.kaigokensaku.mhlw.go.jp/30/index.php?action_kouhyou_detail_004_kani=true&JigyosyoCd=3090101522-00&ServiceCd=780&Type=search", "url2": null }, "geometry": { "type": "Point", "coordinates": [ 135.215094538531048, 34.262905744850322 ] } },
{ "type": "Feature", "properties": { "内容": "デイサービスたいようの風【地域密着型通所介護】和歌山県和歌山市六十谷208-12サンライト坂本1F西号室", "url": "https://www.kaigokensaku.mhlw.go.jp/30/index.php?action_kouhyou_detail_004_kani=true&JigyosyoCd=3070111301-00&ServiceCd=780&Type=search", "url2": null }, "geometry": { "type": "Point", "coordinates": [ 135.2023716, 34.2610038 ] } },
{ "type": "Feature", "properties": { "内容": "りはびりデイ長寿館【地域密着型通所介護】和歌山県和歌山市神前194-5", "url": "https://www.kaigokensaku.mhlw.go.jp/30/index.php?action_kouhyou_detail_004_kani=true&JigyosyoCd=3070109727-00&ServiceCd=780&Type=search", "url2": "http://care-net.biz/30/marix" }, "geometry": { "type": "Point", "coordinates": [ 135.20429003729555, 34.215950465846021 ] } },
{ "type": "Feature", "properties": { "内容": "デイサービスきしゅう【地域密着型通所介護】和歌山市和佐関戸20", "url": "https://www.kaigokensaku.mhlw.go.jp/30/index.php?action_kouhyou_detail_004_kani=true&JigyosyoCd=3070108331-00&ServiceCd=780&Type=search", "url2": null }, "geometry": { "type": "Point", "coordinates": [ 135.262637003210443, 34.23997094984901 ] } },
{ "type": "Feature", "properties": { "内容": "ほうらい苑デイサービスセンター【地域密着型通所介護】和歌山県和歌山市新和歌浦２番９号", "url": "https://www.kaigokensaku.mhlw.go.jp/30/index.php?action_kouhyou_detail_004_kani=true&JigyosyoCd=3090101597-00&ServiceCd=780&Type=search", "url2": "www.horai-en.com" }, "geometry": { "type": "Point", "coordinates": [ 135.1566875, 34.1858097 ] } },
{ "type": "Feature", "properties": { "内容": "デイサービス　やまごや【地域密着型通所介護】和歌山県和歌山市上野537番地の12", "url": "https://www.kaigokensaku.mhlw.go.jp/30/index.php?action_kouhyou_detail_004_kani=true&JigyosyoCd=3070105113-00&ServiceCd=780&Type=search", "url2": "yamagoya-shinwa@hera.eonet.ne.jp" }, "geometry": { "type": "Point", "coordinates": [ 135.254972800000019, 34.2744929 ] } },
{ "type": "Feature", "properties": { "内容": "デイサービスココア【地域密着型通所介護】和歌山県和歌山市冬野1305-1", "url": "https://www.kaigokensaku.mhlw.go.jp/30/index.php?action_kouhyou_detail_004_kani=true&JigyosyoCd=3090101019-00&ServiceCd=780&Type=search", "url2": null }, "geometry": { "type": "Point", "coordinates": [ 135.207565342163065, 34.176287903439217 ] } },
{ "type": "Feature", "properties": { "内容": "株式会社やすらぎ介護事業部【地域密着型通所介護】和歌山市府中１０５－１", "url": "https://www.kaigokensaku.mhlw.go.jp/30/index.php?action_kouhyou_detail_004_kani=true&JigyosyoCd=3070107218-00&ServiceCd=780&Type=search", "url2": null }, "geometry": { "type": "Point", "coordinates": [ 135.222261900000035, 34.2665761 ] } },
{ "type": "Feature", "properties": { "内容": "今福いきいきデイサービス【地域密着型通所介護】和歌山県和歌山市今福3丁目5-10", "url": "https://www.kaigokensaku.mhlw.go.jp/30/index.php?action_kouhyou_detail_004_kani=true&JigyosyoCd=3070105873-00&ServiceCd=780&Type=search", "url2": null }, "geometry": { "type": "Point", "coordinates": [ 135.164284, 34.2112884 ] } },
{ "type": "Feature", "properties": { "内容": "さくら庵【地域密着型通所介護】和歌山県和歌山市布引865-19", "url": "https://www.kaigokensaku.mhlw.go.jp/30/index.php?action_kouhyou_detail_004_kani=true&JigyosyoCd=3090101787-00&ServiceCd=780&Type=search", "url2": "http://harukazekai.jp/" }, "geometry": { "type": "Point", "coordinates": [ 135.188897693379261, 34.16945944044587 ] } },
{ "type": "Feature", "properties": { "内容": "デイサービス　アンダンテ【地域密着型通所介護】和歌山県和歌山市東高松3丁目3－39Ｃａｓａ・東高松", "url": "https://www.kaigokensaku.mhlw.go.jp/30/index.php?action_kouhyou_detail_004_kani=true&JigyosyoCd=3070111608-00&ServiceCd=780&Type=search", "url2": "https://www.maruyama-seikei.com/content/casa" }, "geometry": { "type": "Point", "coordinates": [ 135.172847400000023, 34.2055977 ] } },
{ "type": "Feature", "properties": { "内容": "デイサービスあみご【地域密着型通所介護】和歌山県和歌山市湊5丁目7番11号", "url": "https://www.kaigokensaku.mhlw.go.jp/30/index.php?action_kouhyou_detail_004_kani=true&JigyosyoCd=3090101316-00&ServiceCd=780&Type=search", "url2": null }, "geometry": { "type": "Point", "coordinates": [ 135.146022687835767, 34.228162211270622 ] } },
{ "type": "Feature", "properties": { "内容": "本町デイサービスセンターしあわせ【地域密着型通所介護】和歌山市北新博労町８－４", "url": "https://www.kaigokensaku.mhlw.go.jp/30/index.php?action_kouhyou_detail_004_kani=true&JigyosyoCd=3070107069-00&ServiceCd=780&Type=search", "url2": "http://www.shiawase-kaigo.or.jp" }, "geometry": { "type": "Point", "coordinates": [ 135.1782657, 34.2401133 ] } },
{ "type": "Feature", "properties": { "内容": "ジョイフルホームやつなみ【地域密着型通所介護】和歌山市西庄527-4", "url": "https://www.kaigokensaku.mhlw.go.jp/30/index.php?action_kouhyou_detail_004_kani=true&JigyosyoCd=3070100346-00&ServiceCd=780&Type=search", "url2": null }, "geometry": { "type": "Point", "coordinates": [ 135.10872489999997, 34.262407 ] } },
{ "type": "Feature", "properties": { "内容": "デイサービスあい楠見【地域密着型通所介護】和歌山市楠見中197-8", "url": "https://www.kaigokensaku.mhlw.go.jp/30/index.php?action_kouhyou_detail_004_kani=true&JigyosyoCd=3070106798-00&ServiceCd=780&Type=search", "url2": "http://www.nakae.or.jp/contents/ai/index.html" }, "geometry": { "type": "Point", "coordinates": [ 135.1798844, 34.2547287 ] } },
{ "type": "Feature", "properties": { "内容": "ケアセンターおたっしゃ倶楽部れくらん【地域密着型通所介護】和歌山県和歌山市里198-2やまぐちおたっしゃ館", "url": "https://www.kaigokensaku.mhlw.go.jp/30/index.php?action_kouhyou_detail_004_kani=true&JigyosyoCd=3070111491-00&ServiceCd=780&Type=search", "url2": "http://www.s-co-op.or.jp/" }, "geometry": { "type": "Point", "coordinates": [ 135.267032154492171, 34.268973212144125 ] } },
{ "type": "Feature", "properties": { "内容": "リハビリ特化型デイサービスOhana【地域密着型通所介護】和歌山県和歌山市六十谷158番地6", "url": "https://www.kaigokensaku.mhlw.go.jp/30/index.php?action_kouhyou_detail_004_kani=true&JigyosyoCd=3090101902-00&ServiceCd=780&Type=search", "url2": null }, "geometry": { "type": "Point", "coordinates": [ 135.2026198, 34.2592872 ] } },
{ "type": "Feature", "properties": { "内容": "デイサービスセンターピース【地域密着型通所介護】新中島118新中島エクセランス１Ｆ", "url": "https://www.kaigokensaku.mhlw.go.jp/30/index.php?action_kouhyou_detail_004_kani=true&JigyosyoCd=3070109883-00&ServiceCd=780&Type=search", "url2": null }, "geometry": { "type": "Point", "coordinates": [ 135.196325900000033, 34.2156998 ] } },
{ "type": "Feature", "properties": { "内容": "キララリハビリデイサービス【地域密着型通所介護】和歌山県和歌山市太田299番地7", "url": "https://www.kaigokensaku.mhlw.go.jp/30/index.php?action_kouhyou_detail_004_kani=true&JigyosyoCd=3070110311-00&ServiceCd=780&Type=search", "url2": "http://kiraraday.info" }, "geometry": { "type": "Point", "coordinates": [ 135.19317030000002, 34.2278817 ] } },
{ "type": "Feature", "properties": { "内容": "デイサービスセンター楪～ゆずりは～【地域密着型通所介護】和歌山県　和歌山市　榎原174-100", "url": "https://www.kaigokensaku.mhlw.go.jp/30/index.php?action_kouhyou_detail_004_kani=true&JigyosyoCd=3070107085-00&ServiceCd=780&Type=search", "url2": "https://www.ancianatio.com/" }, "geometry": { "type": "Point", "coordinates": [ 135.13069889999997, 34.2531555 ] } },
{ "type": "Feature", "properties": { "内容": "湊ﾘﾊﾋﾞﾘﾃﾞｲｻｰﾋﾞｽひぐち【地域密着型通所介護】和歌山県和歌山市湊1丁目８－１３", "url": "https://www.kaigokensaku.mhlw.go.jp/30/index.php?action_kouhyou_detail_004_kani=true&JigyosyoCd=3090101167-00&ServiceCd=780&Type=search", "url2": null }, "geometry": { "type": "Point", "coordinates": [ 135.150106899999969, 34.2350131 ] } },
{ "type": "Feature", "properties": { "内容": "特化型デイサービス湊リハ【地域密着型通所介護】和歌山県和歌山市湊1丁目8番33号", "url": "https://www.kaigokensaku.mhlw.go.jp/30/index.php?action_kouhyou_detail_004_kani=true&JigyosyoCd=3090101431-00&ServiceCd=780&Type=search", "url2": null }, "geometry": { "type": "Point", "coordinates": [ 135.1503094, 34.2358805 ] } },
{ "type": "Feature", "properties": { "内容": "デイサービス　草原【地域密着型通所介護】和歌山市田尻１５３番地の５", "url": "https://www.kaigokensaku.mhlw.go.jp/30/index.php?action_kouhyou_detail_004_kani=true&JigyosyoCd=3070102243-00&ServiceCd=780&Type=search", "url2": null }, "geometry": { "type": "Point", "coordinates": [ 135.197764799999959, 34.2121947 ] } },
{ "type": "Feature", "properties": { "内容": "デイサービスおれんじ【地域密着型通所介護】相坂534-22", "url": "https://www.kaigokensaku.mhlw.go.jp/30/index.php?action_kouhyou_detail_004_kani=true&JigyosyoCd=3070109891-00&ServiceCd=780&Type=search", "url2": null }, "geometry": { "type": "Point", "coordinates": [ 135.2264626, 34.2021571 ] } },
{ "type": "Feature", "properties": { "内容": "デイサービスパンゲア【地域密着型通所介護】和歌山市久保丁2丁目32", "url": "https://www.kaigokensaku.mhlw.go.jp/30/index.php?action_kouhyou_detail_004_kani=true&JigyosyoCd=3090101936-00&ServiceCd=780&Type=search", "url2": null }, "geometry": { "type": "Point", "coordinates": [ 135.166185366270469, 34.231146502208837 ] } },
{ "type": "Feature", "properties": { "内容": "デイサービスひろみ【地域密着型通所介護】和歌山県和歌山市福島674番地3住宅型有料老人ホームひろみ", "url": "https://www.kaigokensaku.mhlw.go.jp/30/index.php?action_kouhyou_detail_004_kani=true&JigyosyoCd=3070109404-00&ServiceCd=780&Type=search", "url2": null }, "geometry": { "type": "Point", "coordinates": [ 135.161161727638046, 34.246804358606461 ] } },
{ "type": "Feature", "properties": { "内容": "リハビリテーション倶楽部ひかり【地域密着型通所介護】和歌山県和歌山市和歌浦南2丁目3-11", "url": "https://www.kaigokensaku.mhlw.go.jp/30/index.php?action_kouhyou_detail_004_kani=true&JigyosyoCd=3070109461-00&ServiceCd=780&Type=search", "url2": "http://rehabilitation-hikari.com" }, "geometry": { "type": "Point", "coordinates": [ 135.167251746032662, 34.1877880235606 ] } },
{ "type": "Feature", "properties": { "内容": "第二親和園　デイサービスセンター【地域密着型通所介護】和歌山市杭ノ瀬462-2特別養護老人ホーム第二親和園", "url": "https://www.kaigokensaku.mhlw.go.jp/30/index.php?action_kouhyou_detail_004_kani=true&JigyosyoCd=3070101062-00&ServiceCd=780&Type=search", "url2": "http://shinwaen.jp/" }, "geometry": { "type": "Point", "coordinates": [ 135.189710200000036, 34.2021291 ] } },
{ "type": "Feature", "properties": { "内容": "デイサービス宝夢【地域密着型通所介護】榎原84-4", "url": "https://www.kaigokensaku.mhlw.go.jp/30/index.php?action_kouhyou_detail_004_kani=true&JigyosyoCd=3070108596-00&ServiceCd=780&Type=search", "url2": null }, "geometry": { "type": "Point", "coordinates": [ 135.1352597, 34.254386 ] } },
{ "type": "Feature", "properties": { "内容": "生協芦原診療所【地域密着型通所介護】和歌山市雄松町２－５５", "url": "https://www.kaigokensaku.mhlw.go.jp/30/index.php?action_kouhyou_detail_004_kani=true&JigyosyoCd=3010111148-00&ServiceCd=780&Type=search", "url2": null }, "geometry": { "type": "Point", "coordinates": [ 135.182685200000037, 34.2218155 ] } },
{ "type": "Feature", "properties": { "内容": "デイサービスえみろっと和歌山【地域密着型通所介護】本渡800番1", "url": "https://www.kaigokensaku.mhlw.go.jp/30/index.php?action_kouhyou_detail_004_kani=true&JigyosyoCd=3090101795-00&ServiceCd=780&Type=search", "url2": "https://www.emi-rot.co.jp" }, "geometry": { "type": "Point", "coordinates": [ 135.2236105, 34.1790259 ] } },
{ "type": "Feature", "properties": { "内容": "デイサービスがじゅまる【地域密着型通所介護】和歌山市木ノ本３０７ー１", "url": "https://www.kaigokensaku.mhlw.go.jp/30/index.php?action_kouhyou_detail_004_kani=true&JigyosyoCd=3090101480-00&ServiceCd=780&Type=search", "url2": null }, "geometry": { "type": "Point", "coordinates": [ 135.127663499944788, 34.258881868673512 ] } },
{ "type": "Feature", "properties": { "内容": "大日倶楽部ヒメジオン【地域密着型通所介護】和歌山県和歌山市吉田４２３番地", "url": "https://www.kaigokensaku.mhlw.go.jp/30/index.php?action_kouhyou_detail_004_kani=true&JigyosyoCd=3070107572-00&ServiceCd=780&Type=search", "url2": "http://www.jukeikai.jp" }, "geometry": { "type": "Point", "coordinates": [ 135.189978699999983, 34.2355224 ] } },
{ "type": "Feature", "properties": { "内容": "河西診療所【地域密着型通所介護】和歌山市平井66-1", "url": "https://www.kaigokensaku.mhlw.go.jp/30/index.php?action_kouhyou_detail_004_kani=true&JigyosyoCd=3010110827-00&ServiceCd=780&Type=search", "url2": "http://www.w-iryoseikyo.com/inst/kasei.html" }, "geometry": { "type": "Point", "coordinates": [ 135.166021300000011, 34.2599361 ] } },
{ "type": "Feature", "properties": { "内容": "一織庵デイサービス安原【地域密着型通所介護】桑山157-1", "url": "https://www.kaigokensaku.mhlw.go.jp/30/index.php?action_kouhyou_detail_004_kani=true&JigyosyoCd=3090101464-00&ServiceCd=780&Type=search", "url2": null }, "geometry": { "type": "Point", "coordinates": [ 135.223319, 34.197994 ] } },
{ "type": "Feature", "properties": { "内容": "憩いの郷　デイサービス【地域密着型通所介護】三葛243憩いの郷　紀三井寺", "url": "https://www.kaigokensaku.mhlw.go.jp/30/index.php?action_kouhyou_detail_004_kani=true&JigyosyoCd=3070109180-00&ServiceCd=780&Type=search", "url2": null }, "geometry": { "type": "Point", "coordinates": [ 135.186005, 34.191958 ] } },
{ "type": "Feature", "properties": { "内容": "医療法人　甃友会　リハビリ・フィットネス型デイサービス　ＢＬＩＳＳ　ＭＯＲＥ【地域密着型通所介護】和歌山県和歌山市米屋町３番地ぶらくり丁ブリスビル１階", "url": "https://www.kaigokensaku.mhlw.go.jp/30/index.php?action_kouhyou_detail_004_kani=true&JigyosyoCd=3090101498-00&ServiceCd=780&Type=search", "url2": "http://www.bliss-burakuri.com/" }, "geometry": { "type": "Point", "coordinates": [ 135.1755355, 34.2337504 ] } },
{ "type": "Feature", "properties": { "内容": "リハテラス　響【地域密着型通所介護】和歌山県和歌山市弘西889番地３", "url": "https://www.kaigokensaku.mhlw.go.jp/30/index.php?action_kouhyou_detail_004_kani=true&JigyosyoCd=3090101332-00&ServiceCd=780&Type=search", "url2": "http://kyowa.ac.jp/hibiki/index.html" }, "geometry": { "type": "Point", "coordinates": [ 135.243154128697199, 34.264705267798647 ] } },
{ "type": "Feature", "properties": { "内容": "デイサービスマーガレット【地域密着型通所介護】畑屋敷新道丁９番地セレブ畑屋敷", "url": "https://www.kaigokensaku.mhlw.go.jp/30/index.php?action_kouhyou_detail_004_kani=true&JigyosyoCd=3070109594-00&ServiceCd=780&Type=search", "url2": null }, "geometry": { "type": "Point", "coordinates": [ 135.181706964418026, 34.236294325527794 ] } },
{ "type": "Feature", "properties": { "内容": "ユア・デイサービス【地域密着型通所介護】小雑賀１３４－５", "url": "https://www.kaigokensaku.mhlw.go.jp/30/index.php?action_kouhyou_detail_004_kani=true&JigyosyoCd=3070109701-00&ServiceCd=780&Type=search", "url2": null }, "geometry": { "type": "Point", "coordinates": [ 135.182763499999965, 34.2035621 ] } },
{ "type": "Feature", "properties": { "内容": "デイサービスセンター　光彩【地域密着型通所介護】大河内188-3", "url": "https://www.kaigokensaku.mhlw.go.jp/30/index.php?action_kouhyou_detail_004_kani=true&JigyosyoCd=3070109768-00&ServiceCd=780&Type=search", "url2": null }, "geometry": { "type": "Point", "coordinates": [ 135.259970952417689, 34.199305540367803 ] } },
{ "type": "Feature", "properties": { "内容": "デイサービス　夢広場【地域密着型通所介護】和歌山県和歌山市駕町56番地", "url": "https://www.kaigokensaku.mhlw.go.jp/30/index.php?action_kouhyou_detail_004_kani=true&JigyosyoCd=3070110691-00&ServiceCd=780&Type=search", "url2": null }, "geometry": { "type": "Point", "coordinates": [ 135.162530391346223, 34.225677180122709 ] } },
{ "type": "Feature", "properties": { "内容": "リハビリ特化型デイサービスリハいち【地域密着型通所介護】和歌山県和歌山市宇治鉄砲場112フジコーポ1F", "url": "https://www.kaigokensaku.mhlw.go.jp/30/index.php?action_kouhyou_detail_004_kani=true&JigyosyoCd=3070110519-00&ServiceCd=780&Type=search", "url2": "http://axis-support.com/" }, "geometry": { "type": "Point", "coordinates": [ 135.174965899999961, 34.2429601 ] } },
{ "type": "Feature", "properties": { "内容": "デイサービスアーク【地域密着型通所介護】和歌山県和歌山市野崎3番地4", "url": "https://www.kaigokensaku.mhlw.go.jp/30/index.php?action_kouhyou_detail_004_kani=true&JigyosyoCd=3070109362-00&ServiceCd=780&Type=search", "url2": null }, "geometry": { "type": "Point", "coordinates": [ 135.15339288769681, 34.245180368854278 ] } },
{ "type": "Feature", "properties": { "内容": "地域密着型デイサービスぴゅあ【地域密着型通所介護】和歌山市下和佐441", "url": "https://www.kaigokensaku.mhlw.go.jp/30/index.php?action_kouhyou_detail_004_kani=true&JigyosyoCd=3070109081-00&ServiceCd=780&Type=search", "url2": null }, "geometry": { "type": "Point", "coordinates": [ 135.236800099999982, 34.2302516 ] } },
{ "type": "Feature", "properties": { "内容": "デイサービス　浜風の家【地域密着型通所介護】和歌山市内原882番地1", "url": "https://www.kaigokensaku.mhlw.go.jp/30/index.php?action_kouhyou_detail_004_kani=true&JigyosyoCd=3070109560-00&ServiceCd=780&Type=search", "url2": null }, "geometry": { "type": "Point", "coordinates": [ 135.193968543267943, 34.169907708101597 ] } },
{ "type": "Feature", "properties": { "内容": "デイサービス旺【地域密着型通所介護】和歌山県和歌山市元博労町29シオジビル1F", "url": "https://www.kaigokensaku.mhlw.go.jp/30/index.php?action_kouhyou_detail_004_kani=true&JigyosyoCd=3070111657-00&ServiceCd=780&Type=search", "url2": null }, "geometry": { "type": "Point", "coordinates": [ 135.169236100000035, 34.2349496 ] } },
{ "type": "Feature", "properties": { "内容": "デイサービス成幸【地域密着型通所介護】和歌山県和歌山市岩橋1632-9", "url": "https://www.kaigokensaku.mhlw.go.jp/30/index.php?action_kouhyou_detail_004_kani=true&JigyosyoCd=3070106848-00&ServiceCd=780&Type=search", "url2": null }, "geometry": { "type": "Point", "coordinates": [ 135.221369384519136, 34.230873805251839 ] } },
{ "type": "Feature", "properties": { "内容": "デイサービス　成幸出島【地域密着型通所介護】出島472-5", "url": "https://www.kaigokensaku.mhlw.go.jp/30/index.php?action_kouhyou_detail_004_kani=true&JigyosyoCd=3090100987-00&ServiceCd=780&Type=search", "url2": null }, "geometry": { "type": "Point", "coordinates": [ 138.252924, 36.204824 ] } },
{ "type": "Feature", "properties": { "内容": "デイサービス成幸紀三井寺【地域密着型通所介護】紀三井寺748-3", "url": "https://www.kaigokensaku.mhlw.go.jp/30/index.php?action_kouhyou_detail_004_kani=true&JigyosyoCd=3090101514-00&ServiceCd=780&Type=search", "url2": null }, "geometry": { "type": "Point", "coordinates": [ 135.1867061, 34.1860775 ] } },
{ "type": "Feature", "properties": { "内容": "デイサービス成幸西浜【地域密着型通所介護】湊4-1プレザントパレス1階", "url": "https://www.kaigokensaku.mhlw.go.jp/30/index.php?action_kouhyou_detail_004_kani=true&JigyosyoCd=3090101639-00&ServiceCd=780&Type=search", "url2": null }, "geometry": { "type": "Point", "coordinates": [ 135.18459, 34.233143 ] } },
{ "type": "Feature", "properties": { "内容": "デイサービス成幸出水【地域密着型通所介護】出水43-8", "url": "https://www.kaigokensaku.mhlw.go.jp/30/index.php?action_kouhyou_detail_004_kani=true&JigyosyoCd=3090101746-00&ServiceCd=780&Type=search", "url2": null }, "geometry": { "type": "Point", "coordinates": [ 130.353190500000011, 32.0903001 ] } },
{ "type": "Feature", "properties": { "内容": "デイサービス　ふたば【地域密着型通所介護】和歌山県和歌山市太田６６７番地６", "url": "https://www.kaigokensaku.mhlw.go.jp/30/index.php?action_kouhyou_detail_004_kani=true&JigyosyoCd=3090101738-00&ServiceCd=780&Type=search", "url2": "https://satonaika.or.jp/" }, "geometry": { "type": "Point", "coordinates": [ 135.2050808, 34.2363758 ] } },
{ "type": "Feature", "properties": { "内容": "輝楽魂やすらぎの家【地域密着型通所介護】和歌山市北出島87－7メゾンタニアイ8・10号", "url": "https://www.kaigokensaku.mhlw.go.jp/30/index.php?action_kouhyou_detail_004_kani=true&JigyosyoCd=3070107283-00&ServiceCd=780&Type=search", "url2": null }, "geometry": { "type": "Point", "coordinates": [ 135.192297215448434, 34.219819353559835 ] } },
{ "type": "Feature", "properties": { "内容": "つくし介護センター【地域密着型通所介護】和歌山県和歌山市東高松1-3-4", "url": "https://www.kaigokensaku.mhlw.go.jp/30/index.php?action_kouhyou_detail_004_kani=true&JigyosyoCd=3070105246-00&ServiceCd=780&Type=search", "url2": null }, "geometry": { "type": "Point", "coordinates": [ 138.252924, 36.204824 ] } },
{ "type": "Feature", "properties": { "内容": "いこいデイサービス【地域密着型通所介護】和歌山市手平１０番５号", "url": "https://www.kaigokensaku.mhlw.go.jp/30/index.php?action_kouhyou_detail_004_kani=true&JigyosyoCd=3070108380-00&ServiceCd=780&Type=search", "url2": "http://www.heart-careservice.jp/" }, "geometry": { "type": "Point", "coordinates": [ 135.185385200000042, 34.2147136 ] } },
{ "type": "Feature", "properties": { "内容": "デイサービスセンター　かしの木【地域密着型通所介護】和歌山市府中114", "url": "https://www.kaigokensaku.mhlw.go.jp/30/index.php?action_kouhyou_detail_004_kani=true&JigyosyoCd=3070107796-00&ServiceCd=780&Type=search", "url2": "http://kasinoki.in" }, "geometry": { "type": "Point", "coordinates": [ 135.222731299999964, 34.2669455 ] } },
{ "type": "Feature", "properties": { "内容": "ﾃﾞｲｻｰﾋﾞｽｾﾝﾀｰ　かしの木　舟津【地域密着型通所介護】和歌山市舟津町１丁目13-1", "url": "https://www.kaigokensaku.mhlw.go.jp/30/index.php?action_kouhyou_detail_004_kani=true&JigyosyoCd=3070110444-00&ServiceCd=780&Type=search", "url2": "http://kasinoki.in" }, "geometry": { "type": "Point", "coordinates": [ 135.1593537, 34.2231757 ] } },
{ "type": "Feature", "properties": { "内容": "桜園【地域密着型通所介護】和歌山県和歌山市紀三井寺437ー1", "url": "https://www.kaigokensaku.mhlw.go.jp/30/index.php?action_kouhyou_detail_004_kani=true&JigyosyoCd=3070100551-00&ServiceCd=780&Type=search", "url2": "http://w-sakuraen.com" }, "geometry": { "type": "Point", "coordinates": [ 135.188593203346301, 34.176716624377491 ] } },
{ "type": "Feature", "properties": { "内容": "彩友【地域密着型通所介護】和歌山県和歌山市鳴神870-1", "url": "https://www.kaigokensaku.mhlw.go.jp/30/index.php?action_kouhyou_detail_004_kani=true&JigyosyoCd=3070103597-00&ServiceCd=780&Type=search", "url2": null }, "geometry": { "type": "Point", "coordinates": [ 135.209551131877106, 34.236633773850841 ] } },
{ "type": "Feature", "properties": { "内容": "フィットネス型デイサービス　か・ら・ふ・る【地域密着型通所介護】和歌山県和歌山市次郎丸80－3パークハウスJ2　1F", "url": "https://www.kaigokensaku.mhlw.go.jp/30/index.php?action_kouhyou_detail_004_kani=true&JigyosyoCd=3090101712-00&ServiceCd=780&Type=search", "url2": "https://peraichi.com/landing_pages/view/kenko-style?_ga=2.23300857.2141631270.1680833520-1353048768.1678275817" }, "geometry": { "type": "Point", "coordinates": [ 135.1478444, 34.2547248 ] } },
{ "type": "Feature", "properties": { "内容": "グリーン介護センター【地域密着型通所介護】和歌山県和歌山市黒田３５９番地", "url": "https://www.kaigokensaku.mhlw.go.jp/30/index.php?action_kouhyou_detail_004_kani=true&JigyosyoCd=3070110899-00&ServiceCd=780&Type=search", "url2": null }, "geometry": { "type": "Point", "coordinates": [ 135.1942282, 34.2387888 ] } },
{ "type": "Feature", "properties": { "内容": "デイサービスクローバー【地域密着型通所介護】和歌山市杭ノ瀬４４９－２", "url": "https://www.kaigokensaku.mhlw.go.jp/30/index.php?action_kouhyou_detail_004_kani=true&JigyosyoCd=3070110352-00&ServiceCd=780&Type=search", "url2": "http://www.hs-clover.co.jp/" }, "geometry": { "type": "Point", "coordinates": [ 135.190319968717176, 34.204869296895765 ] } },
{ "type": "Feature", "properties": { "内容": "つるかめ庵東松江【地域密着型通所介護】和歌山県和歌山市松江東4丁目８－１９", "url": "https://www.kaigokensaku.mhlw.go.jp/30/index.php?action_kouhyou_detail_004_kani=true&JigyosyoCd=3090101845-00&ServiceCd=780&Type=search", "url2": null }, "geometry": { "type": "Point", "coordinates": [ 135.141252010739237, 34.247045569046243 ] } },
{ "type": "Feature", "properties": { "内容": "デイサービス小人町【地域密着型通所介護】和歌山県和歌山市小人町５番地県貿ビル", "url": "https://www.kaigokensaku.mhlw.go.jp/30/index.php?action_kouhyou_detail_004_kani=true&JigyosyoCd=3070108240-00&ServiceCd=780&Type=search", "url2": null }, "geometry": { "type": "Point", "coordinates": [ 135.167508600000019, 34.2259867 ] } },
{ "type": "Feature", "properties": { "内容": "わくわくMOTHERデイ・ホーム【地域密着型通所介護】和歌山市向167番地", "url": "https://www.kaigokensaku.mhlw.go.jp/30/index.php?action_kouhyou_detail_004_kani=true&JigyosyoCd=3090101159-00&ServiceCd=780&Type=search", "url2": null }, "geometry": { "type": "Point", "coordinates": [ 135.144200700000056, 34.2569942 ] } },
{ "type": "Feature", "properties": { "内容": "わくわくMOTHERデイホーム北島【地域密着型通所介護】和歌山県和歌山市北島468-8", "url": "https://www.kaigokensaku.mhlw.go.jp/30/index.php?action_kouhyou_detail_004_kani=true&JigyosyoCd=3090101555-00&ServiceCd=780&Type=search", "url2": null }, "geometry": { "type": "Point", "coordinates": [ 135.1551957, 34.2373208 ] } },
{ "type": "Feature", "properties": { "内容": "デイサービス　アトム【地域密着型通所介護】和歌山市宇治家裏278番地", "url": "https://www.kaigokensaku.mhlw.go.jp/30/index.php?action_kouhyou_detail_004_kani=true&JigyosyoCd=3070109370-00&ServiceCd=780&Type=search", "url2": null }, "geometry": { "type": "Point", "coordinates": [ 135.177519827894599, 34.242581275823206 ] } },
{ "type": "Feature", "properties": { "内容": "リハビリテーションデイサービス紀のいえ【地域密着型通所介護】園部416-11小林ビル105", "url": "https://www.kaigokensaku.mhlw.go.jp/30/index.php?action_kouhyou_detail_004_kani=true&JigyosyoCd=3090101654-00&ServiceCd=780&Type=search", "url2": "https://kinoie-wakayama.jimdofree.com" }, "geometry": { "type": "Point", "coordinates": [ 135.19604, 34.262394 ] } },
{ "type": "Feature", "properties": { "内容": "君里苑デイサービスセンター【地域密着型通所介護】和歌山市木ノ本権現山1837番地の1", "url": "https://www.kaigokensaku.mhlw.go.jp/30/index.php?action_kouhyou_detail_004_kani=true&JigyosyoCd=3070101237-00&ServiceCd=780&Type=search", "url2": "http://www.medi-wel.jp/" }, "geometry": { "type": "Point", "coordinates": [ 135.130049782478267, 34.265260935843365 ] } },
{ "type": "Feature", "properties": { "内容": "一般社団法人デイサロンハイディ【地域密着型通所介護】和歌山県和歌山市西浜1307−3", "url": "https://www.kaigokensaku.mhlw.go.jp/30/index.php?action_kouhyou_detail_004_kani=true&JigyosyoCd=3090101969-00&ServiceCd=780&Type=search", "url2": null }, "geometry": { "type": "Point", "coordinates": [ 135.154316150682916, 34.201192423813083 ] } },
{ "type": "Feature", "properties": { "内容": "実【地域密着型通所介護】和歌山県海南市井田151-4", "url": "https://www.kaigokensaku.mhlw.go.jp/30/index.php?action_kouhyou_detail_004_kani=true&JigyosyoCd=3091400113-00&ServiceCd=780&Type=search", "url2": "ism-coltd.com" }, "geometry": { "type": "Point", "coordinates": [ 135.223590599999966, 34.1594412 ] } },
{ "type": "Feature", "properties": { "内容": "デイサービスセンター・スイミー【地域密着型通所介護】和歌山県海南市下津町方2088番地28", "url": "https://www.kaigokensaku.mhlw.go.jp/30/index.php?action_kouhyou_detail_004_kani=true&JigyosyoCd=3071400919-00&ServiceCd=780&Type=search", "url2": "http://cocolo4031.com" }, "geometry": { "type": "Point", "coordinates": [ 135.132781379762264, 34.12256243142231 ] } },
{ "type": "Feature", "properties": { "内容": "ケアチーム大河【地域密着型通所介護】名高474番地", "url": "https://www.kaigokensaku.mhlw.go.jp/30/index.php?action_kouhyou_detail_004_kani=true&JigyosyoCd=3071401040-00&ServiceCd=780&Type=search", "url2": null }, "geometry": { "type": "Point", "coordinates": [ 135.21185289999994, 34.1521584 ] } },
{ "type": "Feature", "properties": { "内容": "ケアセンター和が家【地域密着型通所介護】和歌山県海南市木津273", "url": "https://www.kaigokensaku.mhlw.go.jp/30/index.php?action_kouhyou_detail_004_kani=true&JigyosyoCd=3071400570-00&ServiceCd=780&Type=search", "url2": "http://kainan-wagaya.jp/" }, "geometry": { "type": "Point", "coordinates": [ 135.27565, 34.154087 ] } },
{ "type": "Feature", "properties": { "内容": "デイサービス和が家【地域密着型通所介護】和歌山県海南市木津285", "url": "https://www.kaigokensaku.mhlw.go.jp/30/index.php?action_kouhyou_detail_004_kani=true&JigyosyoCd=3071401156-00&ServiceCd=780&Type=search", "url2": "http://kainan-wagaya.jp/" }, "geometry": { "type": "Point", "coordinates": [ 135.2761868, 34.1547815 ] } },
{ "type": "Feature", "properties": { "内容": "北浦デイサービス（海南）【地域密着型通所介護】和歌山県海南市小野田７４", "url": "https://www.kaigokensaku.mhlw.go.jp/30/index.php?action_kouhyou_detail_004_kani=true&JigyosyoCd=3091400121-00&ServiceCd=780&Type=search", "url2": null }, "geometry": { "type": "Point", "coordinates": [ 135.253459279512384, 34.171847514152454 ] } },
{ "type": "Feature", "properties": { "内容": "一織庵デイサービス海南【地域密着型通所介護】和歌山県海南市日方１５１２－３", "url": "https://www.kaigokensaku.mhlw.go.jp/30/index.php?action_kouhyou_detail_004_kani=true&JigyosyoCd=3071401230-00&ServiceCd=780&Type=search", "url2": null }, "geometry": { "type": "Point", "coordinates": [ 135.212491699999987, 34.155583 ] } },
{ "type": "Feature", "properties": { "内容": "デイサービスつどいの家【地域密着型通所介護】海南市名高506-4", "url": "https://www.kaigokensaku.mhlw.go.jp/30/index.php?action_kouhyou_detail_004_kani=true&JigyosyoCd=3071400604-00&ServiceCd=780&Type=search", "url2": "http://care-net.biz/30/kyuseikai/" }, "geometry": { "type": "Point", "coordinates": [ 135.212116230791054, 34.153164359531786 ] } },
{ "type": "Feature", "properties": { "内容": "デイサービスセンター　ウェルネス【地域密着型通所介護】日方1274-76", "url": "https://www.kaigokensaku.mhlw.go.jp/30/index.php?action_kouhyou_detail_004_kani=true&JigyosyoCd=3091400139-00&ServiceCd=780&Type=search", "url2": "https://www.w428.jp/" }, "geometry": { "type": "Point", "coordinates": [ 135.206225600000039, 34.1570047 ] } },
{ "type": "Feature", "properties": { "内容": "デイサービス　ひだまりの里【地域密着型通所介護】高野口町応其36", "url": "https://www.kaigokensaku.mhlw.go.jp/30/index.php?action_kouhyou_detail_004_kani=true&JigyosyoCd=3071000867-00&ServiceCd=780&Type=search", "url2": null }, "geometry": { "type": "Point", "coordinates": [ 135.5682971, 34.3120247 ] } },
{ "type": "Feature", "properties": { "内容": "あおいデイサービス【地域密着型通所介護】和歌山県橋本市あやの台1丁目44-3", "url": "https://www.kaigokensaku.mhlw.go.jp/30/index.php?action_kouhyou_detail_004_kani=true&JigyosyoCd=3091000236-00&ServiceCd=780&Type=search", "url2": null }, "geometry": { "type": "Point", "coordinates": [ 135.6549354, 34.3382765 ] } },
{ "type": "Feature", "properties": { "内容": "デイサービスもも【地域密着型通所介護】山田86-3", "url": "https://www.kaigokensaku.mhlw.go.jp/30/index.php?action_kouhyou_detail_004_kani=true&JigyosyoCd=3091000202-00&ServiceCd=780&Type=search", "url2": null }, "geometry": { "type": "Point", "coordinates": [ 135.582717, 34.333603 ] } },
{ "type": "Feature", "properties": { "内容": "スマイルデイサービス【地域密着型通所介護】和歌山県　橋本市　隅田町　芋生178番地の1", "url": "https://www.kaigokensaku.mhlw.go.jp/30/index.php?action_kouhyou_detail_004_kani=true&JigyosyoCd=3071000362-00&ServiceCd=780&Type=search", "url2": null }, "geometry": { "type": "Point", "coordinates": [ 135.655049370548056, 34.330898016422644 ] } },
{ "type": "Feature", "properties": { "内容": "デイサービスひらい【地域密着型通所介護】橋本２－７３－１", "url": "https://www.kaigokensaku.mhlw.go.jp/30/index.php?action_kouhyou_detail_004_kani=true&JigyosyoCd=3071000958-00&ServiceCd=780&Type=search", "url2": null }, "geometry": { "type": "Point", "coordinates": [ 140.567776200000026, 37.2334172 ] } },
{ "type": "Feature", "properties": { "内容": "リハビリデイサービス　わが家【地域密着型通所介護】和歌山県橋本市高野口町伏原１０１１", "url": "https://www.kaigokensaku.mhlw.go.jp/30/index.php?action_kouhyou_detail_004_kani=true&JigyosyoCd=3071001170-00&ServiceCd=780&Type=search", "url2": "http://itou-clinic-hashimoto.jp/" }, "geometry": { "type": "Point", "coordinates": [ 135.574034152382012, 34.309975437737997 ] } },
{ "type": "Feature", "properties": { "内容": "あやの台リハビリデイサービスセンター【地域密着型通所介護】和歌山県橋本市あやの台一丁目44－1", "url": "https://www.kaigokensaku.mhlw.go.jp/30/index.php?action_kouhyou_detail_004_kani=true&JigyosyoCd=3071001105-00&ServiceCd=780&Type=search", "url2": null }, "geometry": { "type": "Point", "coordinates": [ 135.654913599999986, 34.3379726 ] } },
{ "type": "Feature", "properties": { "内容": "リハビリデイサービスももたろう橋本【地域密着型通所介護】橋本市隅田町中島993-1", "url": "https://www.kaigokensaku.mhlw.go.jp/30/index.php?action_kouhyou_detail_004_kani=true&JigyosyoCd=3071000909-00&ServiceCd=780&Type=search", "url2": null }, "geometry": { "type": "Point", "coordinates": [ 135.635546, 34.3286654 ] } },
{ "type": "Feature", "properties": { "内容": "ケアガーデンズデイサービスセンター【地域密着型通所介護】和歌山県橋本市神野々1028", "url": "https://www.kaigokensaku.mhlw.go.jp/30/index.php?action_kouhyou_detail_004_kani=true&JigyosyoCd=3071001055-00&ServiceCd=780&Type=search", "url2": "http://www.caregardens.zilch-international.com/" }, "geometry": { "type": "Point", "coordinates": [ 135.577757354847648, 34.30480088543986 ] } },
{ "type": "Feature", "properties": { "内容": "ひまわり福祉サービス橋本事業所【地域密着型通所介護】和歌山県橋本市隅田町下兵庫514-3", "url": "https://www.kaigokensaku.mhlw.go.jp/30/index.php?action_kouhyou_detail_004_kani=true&JigyosyoCd=3091000186-00&ServiceCd=780&Type=search", "url2": "http://www.himawari-welfare.jp" }, "geometry": { "type": "Point", "coordinates": [ 135.633060099999966, 34.3240576 ] } },
{ "type": "Feature", "properties": { "内容": "デイサービスまりっくす【地域密着型通所介護】橋本市高野口町小田６４３－１", "url": "https://www.kaigokensaku.mhlw.go.jp/30/index.php?action_kouhyou_detail_004_kani=true&JigyosyoCd=3071000735-00&ServiceCd=780&Type=search", "url2": "http://www.marix317.com" }, "geometry": { "type": "Point", "coordinates": [ 135.561253599999986, 34.2997679 ] } },
{ "type": "Feature", "properties": { "内容": "ジュレデイサービス【地域密着型通所介護】橋本市紀見463-1", "url": "https://www.kaigokensaku.mhlw.go.jp/30/index.php?action_kouhyou_detail_004_kani=true&JigyosyoCd=3071000818-00&ServiceCd=780&Type=search", "url2": "http://www.marix317.com" }, "geometry": { "type": "Point", "coordinates": [ 135.61780269999997, 34.3469575 ] } },
{ "type": "Feature", "properties": { "内容": "デイサービス柚っ子【地域密着型通所介護】和歌山県橋本市城山台2-11-4", "url": "https://www.kaigokensaku.mhlw.go.jp/30/index.php?action_kouhyou_detail_004_kani=true&JigyosyoCd=3091000129-00&ServiceCd=780&Type=search", "url2": null }, "geometry": { "type": "Point", "coordinates": [ 135.613228099999986, 34.3484905 ] } },
{ "type": "Feature", "properties": { "内容": "デイサロン柚っ子【地域密着型通所介護】城山台2-15-13丸山ビル1階", "url": "https://www.kaigokensaku.mhlw.go.jp/30/index.php?action_kouhyou_detail_004_kani=true&JigyosyoCd=3091000251-00&ServiceCd=780&Type=search", "url2": "https://waizu-plan.co.jp/" }, "geometry": { "type": "Point", "coordinates": [ 135.833257300000014, 34.734581 ] } },
{ "type": "Feature", "properties": { "内容": "デイサービスセンター　ライフ・パル【地域密着型通所介護】和歌山県橋本市胡麻生467番住宅型有料老人ホーム　ジョイ楽園", "url": "https://www.kaigokensaku.mhlw.go.jp/30/index.php?action_kouhyou_detail_004_kani=true&JigyosyoCd=3071001022-00&ServiceCd=780&Type=search", "url2": "http://www.joy-rakuen.jp/" }, "geometry": { "type": "Point", "coordinates": [ 135.6074261, 34.3391998 ] } },
{ "type": "Feature", "properties": { "内容": "神野々北デイサービス【地域密着型通所介護】橋本市神野々308-1", "url": "https://www.kaigokensaku.mhlw.go.jp/30/index.php?action_kouhyou_detail_004_kani=true&JigyosyoCd=3071000651-00&ServiceCd=780&Type=search", "url2": null }, "geometry": { "type": "Point", "coordinates": [ 135.582808195780103, 34.313769916746232 ] } },
{ "type": "Feature", "properties": { "内容": "デイサービス愛がある伏原【地域密着型通所介護】和歌山県橋本市高野口町伏原734－1", "url": "https://www.kaigokensaku.mhlw.go.jp/30/index.php?action_kouhyou_detail_004_kani=true&JigyosyoCd=3071000941-00&ServiceCd=780&Type=search", "url2": null }, "geometry": { "type": "Point", "coordinates": [ 135.575643799999966, 34.3095084 ] } },
{ "type": "Feature", "properties": { "内容": "シルバートレーニング【地域密着型通所介護】和歌山県橋本市岸上415-1", "url": "https://www.kaigokensaku.mhlw.go.jp/30/index.php?action_kouhyou_detail_004_kani=true&JigyosyoCd=3091000160-00&ServiceCd=780&Type=search", "url2": null }, "geometry": { "type": "Point", "coordinates": [ 135.586450799999966, 34.3135957 ] } },
{ "type": "Feature", "properties": { "内容": "デイサービス　愛がある大野【地域密着型通所介護】和歌山県橋本市高野口町大野687", "url": "https://www.kaigokensaku.mhlw.go.jp/30/index.php?action_kouhyou_detail_004_kani=true&JigyosyoCd=3071001162-00&ServiceCd=780&Type=search", "url2": "http://aigaaru.co.jp/" }, "geometry": { "type": "Point", "coordinates": [ 135.549086822784403, 34.307361970744928 ] } },
{ "type": "Feature", "properties": { "内容": "ゆりのき苑デイサービス【地域密着型通所介護】和歌山県有田市山地４４", "url": "https://www.kaigokensaku.mhlw.go.jp/30/index.php?action_kouhyou_detail_004_kani=true&JigyosyoCd=3071500346-00&ServiceCd=780&Type=search", "url2": "http://www.technologybox.co.jp/yurinoki/" }, "geometry": { "type": "Point", "coordinates": [ 135.132390500000042, 34.0744327 ] } },
{ "type": "Feature", "properties": { "内容": "デイサービスびっくりOrange【地域密着型通所介護】和歌山県有田市初島町里1923-1", "url": "https://www.kaigokensaku.mhlw.go.jp/30/index.php?action_kouhyou_detail_004_kani=true&JigyosyoCd=3071500544-00&ServiceCd=780&Type=search", "url2": null }, "geometry": { "type": "Point", "coordinates": [ 135.11540455767215, 34.094234330306953 ] } },
{ "type": "Feature", "properties": { "内容": "リハトレみのしま【地域密着型通所介護】和歌山県有田市箕島１００－７", "url": "https://www.kaigokensaku.mhlw.go.jp/30/index.php?action_kouhyou_detail_004_kani=true&JigyosyoCd=3071500668-00&ServiceCd=780&Type=search", "url2": "http://nakatune.com/" }, "geometry": { "type": "Point", "coordinates": [ 135.125943499999948, 34.0847895 ] } },
{ "type": "Feature", "properties": { "内容": "リハトレこえみ【地域密着型通所介護】有田市古江見57-2", "url": "https://www.kaigokensaku.mhlw.go.jp/30/index.php?action_kouhyou_detail_004_kani=true&JigyosyoCd=3091500128-00&ServiceCd=780&Type=search", "url2": null }, "geometry": { "type": "Point", "coordinates": [ 135.1248798, 34.0792941 ] } },
{ "type": "Feature", "properties": { "内容": "デイサービス　あすなろ【地域密着型通所介護】和歌山県有田市港町231-62", "url": "https://www.kaigokensaku.mhlw.go.jp/30/index.php?action_kouhyou_detail_004_kani=true&JigyosyoCd=3091500110-00&ServiceCd=780&Type=search", "url2": "https://care-net.biz/30/asunaro/" }, "geometry": { "type": "Point", "coordinates": [ 135.108555200000012, 34.0896036 ] } },
{ "type": "Feature", "properties": { "内容": "フィットネスデイキタデRe【地域密着型通所介護】和歌山県御坊市財部728-4北出病院B棟2F", "url": "https://www.kaigokensaku.mhlw.go.jp/30/index.php?action_kouhyou_detail_004_kani=true&JigyosyoCd=3092000110-00&ServiceCd=780&Type=search", "url2": "http://www.hck.jp/" }, "geometry": { "type": "Point", "coordinates": [ 135.155238, 33.896886 ] } },
{ "type": "Feature", "properties": { "内容": "三和デイサービス【地域密着型通所介護】和歌山県御坊市湯川町小松原607-4", "url": "https://www.kaigokensaku.mhlw.go.jp/30/index.php?action_kouhyou_detail_004_kani=true&JigyosyoCd=3072000411-00&ServiceCd=780&Type=search", "url2": null }, "geometry": { "type": "Point", "coordinates": [ 135.146324700000037, 33.9025827 ] } },
{ "type": "Feature", "properties": { "内容": "三和デイサービス本町店【地域密着型通所介護】和歌山県御坊市園198-8", "url": "https://www.kaigokensaku.mhlw.go.jp/30/index.php?action_kouhyou_detail_004_kani=true&JigyosyoCd=3072000536-00&ServiceCd=780&Type=search", "url2": null }, "geometry": { "type": "Point", "coordinates": [ 135.157090675649187, 33.890075880468466 ] } },
{ "type": "Feature", "properties": { "内容": "株式会社ADVANCE【地域密着型通所介護】和歌山県西牟婁郡上富田町生馬1190番地の10", "url": "https://www.kaigokensaku.mhlw.go.jp/30/index.php?action_kouhyou_detail_004_kani=true&JigyosyoCd=3092400070-00&ServiceCd=780&Type=search", "url2": "https://www.catachi.jp/" }, "geometry": { "type": "Point", "coordinates": [ 135.418081, 33.689339 ] } },
{ "type": "Feature", "properties": { "内容": "むつみの家【地域密着型通所介護】和歌山県田辺市むつみ10-4", "url": "https://www.kaigokensaku.mhlw.go.jp/30/index.php?action_kouhyou_detail_004_kani=true&JigyosyoCd=3072201308-00&ServiceCd=780&Type=search", "url2": null }, "geometry": { "type": "Point", "coordinates": [ 135.380356600000027, 33.7422456 ] } },
{ "type": "Feature", "properties": { "内容": "デイサービスセンター龍トピア【地域密着型通所介護】和歌山県田辺市龍神村柳瀬530番地", "url": "https://www.kaigokensaku.mhlw.go.jp/30/index.php?action_kouhyou_detail_004_kani=true&JigyosyoCd=3072100385-00&ServiceCd=780&Type=search", "url2": "https://care-net.biz/30/kisei" }, "geometry": { "type": "Point", "coordinates": [ 135.4544737, 33.8792885 ] } },
{ "type": "Feature", "properties": { "内容": "イクリハ【地域密着型通所介護】和歌山県田辺市明洋一丁目19-13", "url": "https://www.kaigokensaku.mhlw.go.jp/30/index.php?action_kouhyou_detail_004_kani=true&JigyosyoCd=3092200249-00&ServiceCd=780&Type=search", "url2": null }, "geometry": { "type": "Point", "coordinates": [ 135.360184940596724, 33.735537071334242 ] } },
{ "type": "Feature", "properties": { "内容": "田辺市社会福祉協議会　龍神事業所【地域密着型通所介護】和歌山県田辺市龍神村柳瀬1134", "url": "https://www.kaigokensaku.mhlw.go.jp/30/index.php?action_kouhyou_detail_004_kani=true&JigyosyoCd=3092200306-00&ServiceCd=780&Type=search", "url2": null }, "geometry": { "type": "Point", "coordinates": [ 135.4704561, 33.8801738 ] } },
{ "type": "Feature", "properties": { "内容": "デイサービスセンター湯あみ【地域密着型通所介護】和歌山県田辺市下屋敷町7-4", "url": "https://www.kaigokensaku.mhlw.go.jp/30/index.php?action_kouhyou_detail_004_kani=true&JigyosyoCd=3092200264-00&ServiceCd=780&Type=search", "url2": null }, "geometry": { "type": "Point", "coordinates": [ 135.3825607, 33.7306854 ] } },
{ "type": "Feature", "properties": { "内容": "まごころの家【地域密着型通所介護】和歌山県田辺市中辺路町内井川120-1", "url": "https://www.kaigokensaku.mhlw.go.jp/30/index.php?action_kouhyou_detail_004_kani=true&JigyosyoCd=3092200231-00&ServiceCd=780&Type=search", "url2": null }, "geometry": { "type": "Point", "coordinates": [ 135.5016253, 33.8403059 ] } },
{ "type": "Feature", "properties": { "内容": "ハナミズキ・デイサービス【地域密着型通所介護】和歌山県田辺市新屋敷町42-2", "url": "https://www.kaigokensaku.mhlw.go.jp/30/index.php?action_kouhyou_detail_004_kani=true&JigyosyoCd=3092200272-00&ServiceCd=780&Type=search", "url2": "https://youmikaigo.wixsite.com/home" }, "geometry": { "type": "Point", "coordinates": [ 135.3813486, 33.727331 ] } },
{ "type": "Feature", "properties": { "内容": "みんなのデイサービスもくれん【地域密着型通所介護】和歌山県田辺市上芳養973-1", "url": "https://www.kaigokensaku.mhlw.go.jp/30/index.php?action_kouhyou_detail_004_kani=true&JigyosyoCd=3072201407-00&ServiceCd=780&Type=search", "url2": "https://mokuren-tanabe.com/" }, "geometry": { "type": "Point", "coordinates": [ 135.363623499999989, 33.8004987 ] } },
{ "type": "Feature", "properties": { "内容": "わかわかリハあきづ【地域密着型通所介護】和歌山県田辺市秋津町277-1", "url": "https://www.kaigokensaku.mhlw.go.jp/30/index.php?action_kouhyou_detail_004_kani=true&JigyosyoCd=3092200314-00&ServiceCd=780&Type=search", "url2": null }, "geometry": { "type": "Point", "coordinates": [ 135.391891, 33.7485262 ] } },
{ "type": "Feature", "properties": { "内容": "通所介護　潮風【地域密着型通所介護】和歌山県田辺市上屋敷２－３－３３", "url": "https://www.kaigokensaku.mhlw.go.jp/30/index.php?action_kouhyou_detail_004_kani=true&JigyosyoCd=3072200730-00&ServiceCd=780&Type=search", "url2": null }, "geometry": { "type": "Point", "coordinates": [ 135.3758487, 33.7302888 ] } },
{ "type": "Feature", "properties": { "内容": "デイ・ハウスいなり【地域密着型通所介護】和歌山県田辺市稲成町２１８７番地の３", "url": "https://www.kaigokensaku.mhlw.go.jp/30/index.php?action_kouhyou_detail_004_kani=true&JigyosyoCd=3072200961-00&ServiceCd=780&Type=search", "url2": "https://dayservice-inari.com" }, "geometry": { "type": "Point", "coordinates": [ 135.37271839999994, 33.7615846 ] } },
{ "type": "Feature", "properties": { "内容": "デイサービスあいづ【地域密着型通所介護】和歌山県田辺市秋津町209", "url": "https://www.kaigokensaku.mhlw.go.jp/30/index.php?action_kouhyou_detail_004_kani=true&JigyosyoCd=3072201415-00&ServiceCd=780&Type=search", "url2": null }, "geometry": { "type": "Point", "coordinates": [ 135.395083, 33.745064 ] } },
{ "type": "Feature", "properties": { "内容": "デイサービスセンターほほえみ【地域密着型通所介護】和歌山県田辺市下万呂951-6", "url": "https://www.kaigokensaku.mhlw.go.jp/30/index.php?action_kouhyou_detail_004_kani=true&JigyosyoCd=3072201282-00&ServiceCd=780&Type=search", "url2": null }, "geometry": { "type": "Point", "coordinates": [ 135.39278, 33.74023 ] } },
{ "type": "Feature", "properties": { "内容": "プラント　マロ【地域密着型通所介護】和歌山県田辺市上万呂146-6", "url": "https://www.kaigokensaku.mhlw.go.jp/30/index.php?action_kouhyou_detail_004_kani=true&JigyosyoCd=3092200348-00&ServiceCd=780&Type=search", "url2": null }, "geometry": { "type": "Point", "coordinates": [ 135.404842699999989, 33.7357037 ] } },
{ "type": "Feature", "properties": { "内容": "デイサービスセンターあおい【地域密着型通所介護】和歌山県田辺市下屋敷町1-78アオイプラザビル", "url": "https://www.kaigokensaku.mhlw.go.jp/30/index.php?action_kouhyou_detail_004_kani=true&JigyosyoCd=3092200223-00&ServiceCd=780&Type=search", "url2": "http://aoi2006.jp/" }, "geometry": { "type": "Point", "coordinates": [ 135.381359299999986, 33.7309276 ] } },
{ "type": "Feature", "properties": { "内容": "真寿苑三栖谷デイサービスセンター【地域密着型通所介護】和歌山県田辺市中三栖110-9", "url": "https://www.kaigokensaku.mhlw.go.jp/30/index.php?action_kouhyou_detail_004_kani=true&JigyosyoCd=3072200490-00&ServiceCd=780&Type=search", "url2": "http://www.sjk-tanabe.or.jp/" }, "geometry": { "type": "Point", "coordinates": [ 135.431083757344936, 33.740732372676746 ] } },
{ "type": "Feature", "properties": { "内容": "真寿苑三川デイサービスセンター【地域密着型通所介護】田辺市向山354-1三川福祉センター内", "url": "https://www.kaigokensaku.mhlw.go.jp/30/index.php?action_kouhyou_detail_004_kani=true&JigyosyoCd=3072200912-00&ServiceCd=780&Type=search", "url2": "http://www.sjk-tanabe.or.jp/" }, "geometry": { "type": "Point", "coordinates": [ 135.572406011639373, 33.703492573321356 ] } },
{ "type": "Feature", "properties": { "内容": "ほくそぎデイサービスセンター【地域密着型通所介護】和歌山県田辺市中辺路町北郡1000-3", "url": "https://www.kaigokensaku.mhlw.go.jp/30/index.php?action_kouhyou_detail_004_kani=true&JigyosyoCd=3072201365-00&ServiceCd=780&Type=search", "url2": "http://www.sjk-tanabe.or.jp/" }, "geometry": { "type": "Point", "coordinates": [ 135.5012898, 33.7528761 ] } },
{ "type": "Feature", "properties": { "内容": "芳養の里デイサービスセンター【地域密着型通所介護】和歌山県田辺市中芳養1591-1生活支援ハウス芳養の里内", "url": "https://www.kaigokensaku.mhlw.go.jp/30/index.php?action_kouhyou_detail_004_kani=true&JigyosyoCd=3092200322-00&ServiceCd=780&Type=search", "url2": "http://www.sjk-tanabe.or.jp" }, "geometry": { "type": "Point", "coordinates": [ 135.3553772, 33.764379 ] } },
{ "type": "Feature", "properties": { "内容": "社会福祉法人　田辺市社会福祉協議会　田辺事業所【地域密着型通所介護】和歌山県田辺市高雄一丁目２３番１号田辺市民総合センター", "url": "https://www.kaigokensaku.mhlw.go.jp/30/index.php?action_kouhyou_detail_004_kani=true&JigyosyoCd=3072200169-00&ServiceCd=780&Type=search", "url2": "https://zchiiki.net/hp/1289/" }, "geometry": { "type": "Point", "coordinates": [ 135.377379099999985, 33.735496500000032 ] } },
{ "type": "Feature", "properties": { "内容": "田辺市社会福祉協議会大塔事業所（富里）【地域密着型通所介護】和歌山県田辺市下川下994番地の４富里福祉センター", "url": "https://www.kaigokensaku.mhlw.go.jp/30/index.php?action_kouhyou_detail_004_kani=true&JigyosyoCd=3092200298-00&ServiceCd=780&Type=search", "url2": null }, "geometry": { "type": "Point", "coordinates": [ 135.585434054106173, 33.742562725951117 ] } },
{ "type": "Feature", "properties": { "内容": "カノンデイサービス【地域密着型通所介護】和歌山県田辺市下三栖1483-15", "url": "https://www.kaigokensaku.mhlw.go.jp/30/index.php?action_kouhyou_detail_004_kani=true&JigyosyoCd=3092200215-00&ServiceCd=780&Type=search", "url2": "http://kanon-potalaka.com" }, "geometry": { "type": "Point", "coordinates": [ 135.42052769695897, 33.729728443070996 ] } },
{ "type": "Feature", "properties": { "内容": "デイサービス　なごみ【地域密着型通所介護】和歌山県田辺市東陽23-15", "url": "https://www.kaigokensaku.mhlw.go.jp/30/index.php?action_kouhyou_detail_004_kani=true&JigyosyoCd=3072200375-00&ServiceCd=780&Type=search", "url2": null }, "geometry": { "type": "Point", "coordinates": [ 138.252924, 36.204824 ] } },
{ "type": "Feature", "properties": { "内容": "通所介護事業所　元気【地域密着型通所介護】新宮市三輪崎２丁目１４番４号", "url": "https://www.kaigokensaku.mhlw.go.jp/30/index.php?action_kouhyou_detail_004_kani=true&JigyosyoCd=3072300548-00&ServiceCd=780&Type=search", "url2": null }, "geometry": { "type": "Point", "coordinates": [ 135.983123200000023, 33.6852294 ] } },
{ "type": "Feature", "properties": { "内容": "デイサービスセンターふじだな【地域密着型通所介護】和歌山県新宮市橋本２丁目２番地１６", "url": "https://www.kaigokensaku.mhlw.go.jp/30/index.php?action_kouhyou_detail_004_kani=true&JigyosyoCd=3072300571-00&ServiceCd=780&Type=search", "url2": "http://www.wisteria-fujidana.com/" }, "geometry": { "type": "Point", "coordinates": [ 135.9879625, 33.717746700000042 ] } },
{ "type": "Feature", "properties": { "内容": "リハプライド新宮【地域密着型通所介護】和歌山県新宮市徐福1-3-19", "url": "https://www.kaigokensaku.mhlw.go.jp/30/index.php?action_kouhyou_detail_004_kani=true&JigyosyoCd=3092300080-00&ServiceCd=780&Type=search", "url2": "http://www.rehapride.co.jp/shingu/" }, "geometry": { "type": "Point", "coordinates": [ 135.994500199999948, 33.7258964 ] } },
{ "type": "Feature", "properties": { "内容": "デイサービスセンターあんじゅ新宮店【地域密着型通所介護】和歌山県新宮市三輪崎2丁目5-16", "url": "https://www.kaigokensaku.mhlw.go.jp/30/index.php?action_kouhyou_detail_004_kani=true&JigyosyoCd=3092300064-00&ServiceCd=780&Type=search", "url2": null }, "geometry": { "type": "Point", "coordinates": [ 135.984089700000027, 33.6868736 ] } },
{ "type": "Feature", "properties": { "内容": "デイサービスきしゅう【地域密着型通所介護】和歌山県新宮市熊野地２－１７－１４", "url": "https://www.kaigokensaku.mhlw.go.jp/30/index.php?action_kouhyou_detail_004_kani=true&JigyosyoCd=3092300114-00&ServiceCd=780&Type=search", "url2": null }, "geometry": { "type": "Point", "coordinates": [ 136.004023192729193, 33.721085532983921 ] } },
{ "type": "Feature", "properties": { "内容": "デイサービスとわ【地域密着型通所介護】和歌山県新宮市大橋通４－１－８", "url": "https://www.kaigokensaku.mhlw.go.jp/30/index.php?action_kouhyou_detail_004_kani=true&JigyosyoCd=3092300072-00&ServiceCd=780&Type=search", "url2": null }, "geometry": { "type": "Point", "coordinates": [ 135.9864533, 33.7277994 ] } },
{ "type": "Feature", "properties": { "内容": "デイサービスセンター熊野川園【地域密着型通所介護】和歌山県新宮市熊野川町西２０４番地１", "url": "https://www.kaigokensaku.mhlw.go.jp/30/index.php?action_kouhyou_detail_004_kani=true&JigyosyoCd=3072500170-00&ServiceCd=780&Type=search", "url2": null }, "geometry": { "type": "Point", "coordinates": [ 135.839851100000033, 33.7581293 ] } },
{ "type": "Feature", "properties": { "内容": "デイサービスひだまり【地域密着型通所介護】和歌山県紀の川市杉原３９－４", "url": "https://www.kaigokensaku.mhlw.go.jp/30/index.php?action_kouhyou_detail_004_kani=true&JigyosyoCd=3071700730-00&ServiceCd=780&Type=search", "url2": null }, "geometry": { "type": "Point", "coordinates": [ 135.405940034393296, 34.258382559567444 ] } },
{ "type": "Feature", "properties": { "内容": "リハビリデイサービスももたろう貴志川【地域密着型通所介護】紀の川市貴志川町長原650-1", "url": "https://www.kaigokensaku.mhlw.go.jp/30/index.php?action_kouhyou_detail_004_kani=true&JigyosyoCd=3071700516-00&ServiceCd=780&Type=search", "url2": null }, "geometry": { "type": "Point", "coordinates": [ 135.3001868, 34.2135244 ] } },
{ "type": "Feature", "properties": { "内容": "一織庵デイサービス名手【地域密着型通所介護】名手市場729-1", "url": "https://www.kaigokensaku.mhlw.go.jp/30/index.php?action_kouhyou_detail_004_kani=true&JigyosyoCd=3071700748-00&ServiceCd=780&Type=search", "url2": "http://iorian-dayservice.com/company/" }, "geometry": { "type": "Point", "coordinates": [ 135.434014499999989, 34.277263500000011 ] } },
{ "type": "Feature", "properties": { "内容": "デイサービスひまわり【地域密着型通所介護】和歌山県紀の川市貴志川町神戸28番地の1", "url": "https://www.kaigokensaku.mhlw.go.jp/30/index.php?action_kouhyou_detail_004_kani=true&JigyosyoCd=3071700490-00&ServiceCd=780&Type=search", "url2": null }, "geometry": { "type": "Point", "coordinates": [ 135.318434499999967, 34.2168299 ] } },
{ "type": "Feature", "properties": { "内容": "茶話本舗デイサービス夢音貴志川【地域密着型通所介護】和歌山県紀の川市貴志川町井ノ口６１５－５", "url": "https://www.kaigokensaku.mhlw.go.jp/30/index.php?action_kouhyou_detail_004_kani=true&JigyosyoCd=3071700698-00&ServiceCd=780&Type=search", "url2": null }, "geometry": { "type": "Point", "coordinates": [ 135.313332700000046, 34.2029207 ] } },
{ "type": "Feature", "properties": { "内容": "夢音ディサービスセンター貴志川【地域密着型通所介護】貴志川町井ノ口６１５－１", "url": "https://www.kaigokensaku.mhlw.go.jp/30/index.php?action_kouhyou_detail_004_kani=true&JigyosyoCd=3071700771-00&ServiceCd=780&Type=search", "url2": null }, "geometry": { "type": "Point", "coordinates": [ 135.3132938, 34.2033067 ] } },
{ "type": "Feature", "properties": { "内容": "えぇわっしょ貴志川【地域密着型通所介護】和歌山県紀の川市貴志川町北843", "url": "https://www.kaigokensaku.mhlw.go.jp/30/index.php?action_kouhyou_detail_004_kani=true&JigyosyoCd=3071700649-00&ServiceCd=780&Type=search", "url2": null }, "geometry": { "type": "Point", "coordinates": [ 135.328274762868659, 34.212897745409286 ] } },
{ "type": "Feature", "properties": { "内容": "デイサービスセンター雅【地域密着型通所介護】和歌山県紀の川市深田101番地１", "url": "https://www.kaigokensaku.mhlw.go.jp/30/index.php?action_kouhyou_detail_004_kani=true&JigyosyoCd=3071700706-00&ServiceCd=780&Type=search", "url2": "https://www.myb1.net/" }, "geometry": { "type": "Point", "coordinates": [ 135.419485099999946, 34.291703500000011 ] } },
{ "type": "Feature", "properties": { "内容": "デイサービスUUGO【地域密着型通所介護】和歌山県紀の川市打田1248-1", "url": "https://www.kaigokensaku.mhlw.go.jp/30/index.php?action_kouhyou_detail_004_kani=true&JigyosyoCd=3091700165-00&ServiceCd=780&Type=search", "url2": null }, "geometry": { "type": "Point", "coordinates": [ 135.365241772338578, 34.264511024844872 ] } },
{ "type": "Feature", "properties": { "内容": "デイサービスこころね【地域密着型通所介護】紀の川市西井阪１３９－２", "url": "https://www.kaigokensaku.mhlw.go.jp/30/index.php?action_kouhyou_detail_004_kani=true&JigyosyoCd=3071700557-00&ServiceCd=780&Type=search", "url2": null }, "geometry": { "type": "Point", "coordinates": [ 135.337475899999959, 34.2576808 ] } },
{ "type": "Feature", "properties": { "内容": "OCEANリハビリデイサービス【地域密着型通所介護】和歌山県紀の川市貴志川町丸栖1171番地31", "url": "https://www.kaigokensaku.mhlw.go.jp/30/index.php?action_kouhyou_detail_004_kani=true&JigyosyoCd=3091700181-00&ServiceCd=780&Type=search", "url2": null }, "geometry": { "type": "Point", "coordinates": [ 135.3309865, 34.2328301 ] } },
{ "type": "Feature", "properties": { "内容": "ケアセンター憩いの里　船戸【地域密着型通所介護】和歌山県岩出市船戸１１６番地", "url": "https://www.kaigokensaku.mhlw.go.jp/30/index.php?action_kouhyou_detail_004_kani=true&JigyosyoCd=3071800100-00&ServiceCd=780&Type=search", "url2": "http://www.ikoi-sato.jp" }, "geometry": { "type": "Point", "coordinates": [ 135.309009800000013, 34.248987 ] } },
{ "type": "Feature", "properties": { "内容": "デイサービスセンターえんがわ【地域密着型通所介護】岩出市畑毛111-1エルダリーハウスえんがわ内", "url": "https://www.kaigokensaku.mhlw.go.jp/30/index.php?action_kouhyou_detail_004_kani=true&JigyosyoCd=3071800340-00&ServiceCd=780&Type=search", "url2": null }, "geometry": { "type": "Point", "coordinates": [ 135.3024633, 34.2630968 ] } },
{ "type": "Feature", "properties": { "内容": "たんぽぽ苑【地域密着型通所介護】和歌山県岩出市西安上267番地", "url": "https://www.kaigokensaku.mhlw.go.jp/30/index.php?action_kouhyou_detail_004_kani=true&JigyosyoCd=3071800142-00&ServiceCd=780&Type=search", "url2": "http://www.tomita.or.jp" }, "geometry": { "type": "Point", "coordinates": [ 135.293164599999955, 34.2801811 ] } },
{ "type": "Feature", "properties": { "内容": "デイサービスセンターひなたぼっこ【地域密着型通所介護】和歌山県岩出市西国分32", "url": "https://www.kaigokensaku.mhlw.go.jp/30/index.php?action_kouhyou_detail_004_kani=true&JigyosyoCd=3071800282-00&ServiceCd=780&Type=search", "url2": null }, "geometry": { "type": "Point", "coordinates": [ 135.337065914267328, 34.267500642903528 ] } },
{ "type": "Feature", "properties": { "内容": "地域密着型デイサービスこうのとり【地域密着型通所介護】和歌山県海草郡紀美野町動木1586-1", "url": "https://www.kaigokensaku.mhlw.go.jp/30/index.php?action_kouhyou_detail_004_kani=true&JigyosyoCd=3091100069-00&ServiceCd=780&Type=search", "url2": null }, "geometry": { "type": "Point", "coordinates": [ 135.3111204, 34.166956 ] } },
{ "type": "Feature", "properties": { "内容": "太陽の家【地域密着型通所介護】和歌山県伊都郡かつらぎ町高田196番地", "url": "https://www.kaigokensaku.mhlw.go.jp/30/index.php?action_kouhyou_detail_004_kani=true&JigyosyoCd=3071300853-00&ServiceCd=780&Type=search", "url2": null }, "geometry": { "type": "Point", "coordinates": [ 135.450771, 34.2814301 ] } },
{ "type": "Feature", "properties": { "内容": "デイサービス愛がある【地域密着型通所介護】和歌山県伊都郡かつらぎ町中飯降1657－2", "url": "https://www.kaigokensaku.mhlw.go.jp/30/index.php?action_kouhyou_detail_004_kani=true&JigyosyoCd=3071300812-00&ServiceCd=780&Type=search", "url2": "http://aigaaru.co.jp/" }, "geometry": { "type": "Point", "coordinates": [ 135.540863811314324, 34.306383067571446 ] } },
{ "type": "Feature", "properties": { "内容": "かつらぎ町社会福祉協議会　花園介護事業所【地域密着型通所介護】和歌山県伊都郡かつらぎ町大字花園梁瀬１５７８番地の２かつらぎ町高齢者生活福祉センター", "url": "https://www.kaigokensaku.mhlw.go.jp/30/index.php?action_kouhyou_detail_004_kani=true&JigyosyoCd=3071300101-00&ServiceCd=780&Type=search", "url2": "https://katsuragishakyo.or.jp/" }, "geometry": { "type": "Point", "coordinates": [ 135.51495606008416, 34.138007938785364 ] } },
{ "type": "Feature", "properties": { "内容": "デサービス夢心【地域密着型通所介護】和歌山県伊都郡かつらぎ町大字佐野347番地", "url": "https://www.kaigokensaku.mhlw.go.jp/30/index.php?action_kouhyou_detail_004_kani=true&JigyosyoCd=3071300846-00&ServiceCd=780&Type=search", "url2": "http://www.kokoro-animal.co/" }, "geometry": { "type": "Point", "coordinates": [ 135.481528705259052, 34.294618345447162 ] } },
{ "type": "Feature", "properties": { "内容": "富貴デイ・サービスセンター【地域密着型通所介護】和歌山県伊都郡高野町東富貴442-1富貴高齢者生活福祉センター", "url": "https://www.kaigokensaku.mhlw.go.jp/30/index.php?action_kouhyou_detail_004_kani=true&JigyosyoCd=3071300119-00&ServiceCd=780&Type=search", "url2": null }, "geometry": { "type": "Point", "coordinates": [ 135.700477575038917, 34.261138488725663 ] } },
{ "type": "Feature", "properties": { "内容": "デイサービス　はのや【地域密着型通所介護】和歌山県有田郡湯浅町湯浅1407-6", "url": "https://www.kaigokensaku.mhlw.go.jp/30/index.php?action_kouhyou_detail_004_kani=true&JigyosyoCd=3071601193-00&ServiceCd=780&Type=search", "url2": null }, "geometry": { "type": "Point", "coordinates": [ 135.187494, 34.0337875 ] } },
{ "type": "Feature", "properties": { "内容": "リハビリデイサービス　リプロ【地域密着型通所介護】和歌山県有田郡湯浅町別所７４－５", "url": "https://www.kaigokensaku.mhlw.go.jp/30/index.php?action_kouhyou_detail_004_kani=true&JigyosyoCd=3091600142-00&ServiceCd=780&Type=search", "url2": null }, "geometry": { "type": "Point", "coordinates": [ 135.1847812, 34.0317635 ] } },
{ "type": "Feature", "properties": { "内容": "きびデイサービスセンター【地域密着型通所介護】和歌山県有田郡有田川町小島15", "url": "https://www.kaigokensaku.mhlw.go.jp/30/index.php?action_kouhyou_detail_004_kani=true&JigyosyoCd=3091600100-00&ServiceCd=780&Type=search", "url2": "http://www.akemikai.or.jp" }, "geometry": { "type": "Point", "coordinates": [ 135.193937, 34.0657136 ] } },
{ "type": "Feature", "properties": { "内容": "デイサービスこもれび【地域密着型通所介護】和歌山県有田郡有田川町金屋819番地3", "url": "https://www.kaigokensaku.mhlw.go.jp/30/index.php?action_kouhyou_detail_004_kani=true&JigyosyoCd=3091600118-00&ServiceCd=780&Type=search", "url2": null }, "geometry": { "type": "Point", "coordinates": [ 135.254325800000061, 34.05975 ] } },
{ "type": "Feature", "properties": { "内容": "デイサービスわらく【地域密着型通所介護】和歌山県有田郡有田川町徳田250-2", "url": "https://www.kaigokensaku.mhlw.go.jp/30/index.php?action_kouhyou_detail_004_kani=true&JigyosyoCd=3091600126-00&ServiceCd=780&Type=search", "url2": null }, "geometry": { "type": "Point", "coordinates": [ 135.249091299999975, 34.0636113 ] } },
{ "type": "Feature", "properties": { "内容": "サンライズケアくる笑【地域密着型通所介護】和歌山県有田郡有田川町東丹生図73-3", "url": "https://www.kaigokensaku.mhlw.go.jp/30/index.php?action_kouhyou_detail_004_kani=true&JigyosyoCd=3091600092-00&ServiceCd=780&Type=search", "url2": "http://www.sunrisecare.co.jp/" }, "geometry": { "type": "Point", "coordinates": [ 135.230137, 34.065449 ] } },
{ "type": "Feature", "properties": { "内容": "デイサービスぬくもり【地域密着型通所介護】和歌山県有田郡有田川町徳田192", "url": "https://www.kaigokensaku.mhlw.go.jp/30/index.php?action_kouhyou_detail_004_kani=true&JigyosyoCd=3071601300-00&ServiceCd=780&Type=search", "url2": null }, "geometry": { "type": "Point", "coordinates": [ 135.245447300000023, 34.0519812 ] } },
{ "type": "Feature", "properties": { "内容": "健幸の里【地域密着型通所介護】和歌山県有田郡有田川町水尻１２７－７", "url": "https://www.kaigokensaku.mhlw.go.jp/30/index.php?action_kouhyou_detail_004_kani=true&JigyosyoCd=3071601276-00&ServiceCd=780&Type=search", "url2": null }, "geometry": { "type": "Point", "coordinates": [ 135.192387525382998, 34.054473884596298 ] } },
{ "type": "Feature", "properties": { "内容": "デイサービスセンターえなの家【地域密着型通所介護】和歌山県日高郡由良町大字衣奈685番地旧衣奈保育所", "url": "https://www.kaigokensaku.mhlw.go.jp/30/index.php?action_kouhyou_detail_004_kani=true&JigyosyoCd=3072100930-00&ServiceCd=780&Type=search", "url2": null }, "geometry": { "type": "Point", "coordinates": [ 135.1105771, 33.9853228 ] } },
{ "type": "Feature", "properties": { "内容": "デイサービスほのか【地域密着型通所介護】和歌山県日高郡由良町里248-1", "url": "https://www.kaigokensaku.mhlw.go.jp/30/index.php?action_kouhyou_detail_004_kani=true&JigyosyoCd=3072100898-00&ServiceCd=780&Type=search", "url2": null }, "geometry": { "type": "Point", "coordinates": [ 135.122456400000033, 33.9606952 ] } },
{ "type": "Feature", "properties": { "内容": "三和デイサービス　印南店【地域密着型通所介護】和歌山県日高郡印南町印南1961-6", "url": "https://www.kaigokensaku.mhlw.go.jp/30/index.php?action_kouhyou_detail_004_kani=true&JigyosyoCd=3092100084-00&ServiceCd=780&Type=search", "url2": null }, "geometry": { "type": "Point", "coordinates": [ 135.219403100000022, 33.8142454 ] } },
{ "type": "Feature", "properties": { "内容": "デイサービスセンターシールド【地域密着型通所介護】和歌山県西牟婁郡白浜町堅田2578-443", "url": "https://www.kaigokensaku.mhlw.go.jp/30/index.php?action_kouhyou_detail_004_kani=true&JigyosyoCd=3092400096-00&ServiceCd=780&Type=search", "url2": null }, "geometry": { "type": "Point", "coordinates": [ 135.3844707, 33.680161 ] } },
{ "type": "Feature", "properties": { "内容": "デイサービスでいごの郷【地域密着型通所介護】西牟婁郡白浜町1729-19", "url": "https://www.kaigokensaku.mhlw.go.jp/30/index.php?action_kouhyou_detail_004_kani=true&JigyosyoCd=3072400991-00&ServiceCd=780&Type=search", "url2": null }, "geometry": { "type": "Point", "coordinates": [ 135.348065499999962, 33.6781671 ] } },
{ "type": "Feature", "properties": { "内容": "デイサービスセンター南紀【地域密着型通所介護】和歌山県西牟婁郡白浜町富田1703", "url": "https://www.kaigokensaku.mhlw.go.jp/30/index.php?action_kouhyou_detail_004_kani=true&JigyosyoCd=3092400138-00&ServiceCd=780&Type=search", "url2": "https://www.nankishirahama-fukushikai.or.jp/" }, "geometry": { "type": "Point", "coordinates": [ 135.398153239811677, 33.638091239898785 ] } },
{ "type": "Feature", "properties": { "内容": "デイサービスセンター櫟【地域密着型通所介護】和歌山県西牟婁郡上富田町朝来2824", "url": "https://www.kaigokensaku.mhlw.go.jp/30/index.php?action_kouhyou_detail_004_kani=true&JigyosyoCd=3092400112-00&ServiceCd=780&Type=search", "url2": null }, "geometry": { "type": "Point", "coordinates": [ 135.4168607, 33.7030859 ] } },
{ "type": "Feature", "properties": { "内容": "デイサービスセンターひだまりの華【地域密着型通所介護】和歌山県西牟婁郡上富田町生馬2090-1", "url": "https://www.kaigokensaku.mhlw.go.jp/30/index.php?action_kouhyou_detail_004_kani=true&JigyosyoCd=3072401106-00&ServiceCd=780&Type=search", "url2": null }, "geometry": { "type": "Point", "coordinates": [ 135.443830282825161, 33.687831774734995 ] } },
{ "type": "Feature", "properties": { "内容": "結デイサービス【地域密着型通所介護】和歌山県西牟婁郡上富田町市ノ瀬949-4", "url": "https://www.kaigokensaku.mhlw.go.jp/30/index.php?action_kouhyou_detail_004_kani=true&JigyosyoCd=3092400088-00&ServiceCd=780&Type=search", "url2": null }, "geometry": { "type": "Point", "coordinates": [ 135.463326200000012, 33.7110468 ] } },
{ "type": "Feature", "properties": { "内容": "地域密着型デイサービス　ワンピース【地域密着型通所介護】和歌山県西牟婁郡上富田町市ノ瀬2506-7", "url": "https://www.kaigokensaku.mhlw.go.jp/30/index.php?action_kouhyou_detail_004_kani=true&JigyosyoCd=3092400104-00&ServiceCd=780&Type=search", "url2": null }, "geometry": { "type": "Point", "coordinates": [ 135.458902, 33.7156544 ] } },
{ "type": "Feature", "properties": { "内容": "デイサービス　ダリア【地域密着型通所介護】和歌山県西牟婁郡上富田町岡1-1", "url": "https://www.kaigokensaku.mhlw.go.jp/30/index.php?action_kouhyou_detail_004_kani=true&JigyosyoCd=3092400146-00&ServiceCd=780&Type=search", "url2": null }, "geometry": { "type": "Point", "coordinates": [ 135.4464805, 33.7115705 ] } },
{ "type": "Feature", "properties": { "内容": "デイサービスセンターあかつき【地域密着型通所介護】和歌山県西牟婁郡上富田町生馬2090-1", "url": "https://www.kaigokensaku.mhlw.go.jp/30/index.php?action_kouhyou_detail_004_kani=true&JigyosyoCd=3092400153-00&ServiceCd=780&Type=search", "url2": null }, "geometry": { "type": "Point", "coordinates": [ 135.4438108, 33.6878019 ] } },
{ "type": "Feature", "properties": { "内容": "デイサービスセンターむろの家【地域密着型通所介護】南紀の台５９番-４９号", "url": "https://www.kaigokensaku.mhlw.go.jp/30/index.php?action_kouhyou_detail_004_kani=true&JigyosyoCd=3072400983-00&ServiceCd=780&Type=search", "url2": "muronoie.net/index.html" }, "geometry": { "type": "Point", "coordinates": [ 135.4029574, 33.6964932 ] } },
{ "type": "Feature", "properties": { "内容": "民家型デイサービス　太陽【地域密着型通所介護】和歌山県東牟婁郡那智勝浦町八尺鏡野６５７－１", "url": "https://www.kaigokensaku.mhlw.go.jp/30/index.php?action_kouhyou_detail_004_kani=true&JigyosyoCd=3072500857-00&ServiceCd=780&Type=search", "url2": null }, "geometry": { "type": "Point", "coordinates": [ 135.9195145, 33.577602 ] } },
{ "type": "Feature", "properties": { "内容": "合同会社　YUA　　デイサービス　ゆうが【地域密着型通所介護】和歌山県東牟婁郡那智勝浦町宇久井557-21", "url": "https://www.kaigokensaku.mhlw.go.jp/30/index.php?action_kouhyou_detail_004_kani=true&JigyosyoCd=3092500234-00&ServiceCd=780&Type=search", "url2": null }, "geometry": { "type": "Point", "coordinates": [ 135.9794458, 33.6560293 ] } },
{ "type": "Feature", "properties": { "内容": "ドマーニ宇久井【地域密着型通所介護】宇久井５４９番地", "url": "https://www.kaigokensaku.mhlw.go.jp/30/index.php?action_kouhyou_detail_004_kani=true&JigyosyoCd=3072500683-00&ServiceCd=780&Type=search", "url2": "http://domani-ugui.jimdo.com/" }, "geometry": { "type": "Point", "coordinates": [ 135.979374199999938, 33.6570328 ] } },
{ "type": "Feature", "properties": { "内容": "かいてきライフ　ハピネス【地域密着型通所介護】和歌山県東牟婁郡那智勝浦町朝日1-120", "url": "https://www.kaigokensaku.mhlw.go.jp/30/index.php?action_kouhyou_detail_004_kani=true&JigyosyoCd=3092500283-00&ServiceCd=780&Type=search", "url2": null }, "geometry": { "type": "Point", "coordinates": [ 135.9380538, 33.627894 ] } },
{ "type": "Feature", "properties": { "内容": "通所介護事業所はるかぜ【地域密着型通所介護】東牟婁郡那智勝浦町大字宇久井２７１番地", "url": "https://www.kaigokensaku.mhlw.go.jp/30/index.php?action_kouhyou_detail_004_kani=true&JigyosyoCd=3072500501-00&ServiceCd=780&Type=search", "url2": null }, "geometry": { "type": "Point", "coordinates": [ 135.973391299999946, 33.6602629 ] } },
{ "type": "Feature", "properties": { "内容": "デイサービスセンターあんじゅ【地域密着型通所介護】天満442-27", "url": "https://www.kaigokensaku.mhlw.go.jp/30/index.php?action_kouhyou_detail_004_kani=true&JigyosyoCd=3072500931-00&ServiceCd=780&Type=search", "url2": null }, "geometry": { "type": "Point", "coordinates": [ 135.939180399999941, 33.6339096 ] } },
{ "type": "Feature", "properties": { "内容": "デイサービスセンターあんじゅ北浜店【地域密着型通所介護】和歌山県東牟婁郡那智勝浦町北浜1‐52‐1デイサービスセンターあんじゅ北浜店", "url": "https://www.kaigokensaku.mhlw.go.jp/30/index.php?action_kouhyou_detail_004_kani=true&JigyosyoCd=3092500267-00&ServiceCd=780&Type=search", "url2": null }, "geometry": { "type": "Point", "coordinates": [ 135.9430525, 33.6306359 ] } },
{ "type": "Feature", "properties": { "内容": "太地町社会福祉協議会デイサービスセンターであい【地域密着型通所介護】和歌山県東牟婁郡太地町太地1429番地", "url": "https://www.kaigokensaku.mhlw.go.jp/30/index.php?action_kouhyou_detail_004_kani=true&JigyosyoCd=3092500184-00&ServiceCd=780&Type=search", "url2": null }, "geometry": { "type": "Point", "coordinates": [ 135.956681004561034, 33.583371368072129 ] } },
{ "type": "Feature", "properties": { "内容": "和歌山県東牟婁郡古座川町高瀬423-2【地域密着型通所介護】和歌山県東牟婁郡古座川町高瀬423-2", "url": "https://www.kaigokensaku.mhlw.go.jp/30/index.php?action_kouhyou_detail_004_kani=true&JigyosyoCd=3092500275-00&ServiceCd=780&Type=search", "url2": null }, "geometry": { "type": "Point", "coordinates": [ 135.77963, 33.5349784 ] } },
{ "type": "Feature", "properties": { "内容": "古座川町高齢者生活福祉センターささゆり【地域密着型通所介護】和歌山県東牟婁郡古座川町下露598番地", "url": "https://www.kaigokensaku.mhlw.go.jp/30/index.php?action_kouhyou_detail_004_kani=true&JigyosyoCd=3072500220-00&ServiceCd=780&Type=search", "url2": "http://www.takasekai.or.jp" }, "geometry": { "type": "Point", "coordinates": [ 135.7112095, 33.6212802 ] } },
{ "type": "Feature", "properties": { "内容": "北山村社会福祉協議会【地域密着型通所介護】和歌山県東牟婁郡北山村大沼312番地", "url": "https://www.kaigokensaku.mhlw.go.jp/30/index.php?action_kouhyou_detail_004_kani=true&JigyosyoCd=3072500154-00&ServiceCd=780&Type=search", "url2": "http://www.za.ztv.ne.jp/k-fukusi.yamasaki/" }, "geometry": { "type": "Point", "coordinates": [ 135.966907399999968, 33.9295413 ] } },
{ "type": "Feature", "properties": { "内容": "フィットネスデイサービス健康ラボ【地域密着型通所介護】和歌山県東牟婁郡串本町串本2078-10", "url": "https://www.kaigokensaku.mhlw.go.jp/30/index.php?action_kouhyou_detail_004_kani=true&JigyosyoCd=3092500200-00&ServiceCd=780&Type=search", "url2": null }, "geometry": { "type": "Point", "coordinates": [ 135.783728699999983, 33.4753975 ] } },
{ "type": "Feature", "properties": { "内容": "デイサービスセンター　いろは【地域密着型通所介護】和歌山県東牟婁郡串本町出雲1614-25", "url": "https://www.kaigokensaku.mhlw.go.jp/30/index.php?action_kouhyou_detail_004_kani=true&JigyosyoCd=3072500949-00&ServiceCd=780&Type=search", "url2": null }, "geometry": { "type": "Point", "coordinates": [ 135.781402539298199, 33.449066020256005 ] } },
{ "type": "Feature", "properties": { "内容": "デイサービスセンターこんぺいとう【地域密着型通所介護】和歌山県東牟婁郡串本町串本町西向697-2", "url": "https://www.kaigokensaku.mhlw.go.jp/30/index.php?action_kouhyou_detail_004_kani=true&JigyosyoCd=3092500242-00&ServiceCd=780&Type=search", "url2": null }, "geometry": { "type": "Point", "coordinates": [ 135.821767200000011, 33.5148145 ] } },
{ "type": "Feature", "properties": { "内容": "南紀デイサービスセンター【地域密着型通所介護】和歌山県東牟婁郡串本町サンゴ台1060-47", "url": "https://www.kaigokensaku.mhlw.go.jp/30/index.php?action_kouhyou_detail_004_kani=true&JigyosyoCd=3072500840-00&ServiceCd=780&Type=search", "url2": null }, "geometry": { "type": "Point", "coordinates": [ 135.782406600000058, 33.4820358 ] } },
{ "type": "Feature", "properties": { "内容": "かわむらさんち【地域密着型通所介護】和歌山県東牟婁郡串本町田並1073", "url": "https://www.kaigokensaku.mhlw.go.jp/30/index.php?action_kouhyou_detail_004_kani=true&JigyosyoCd=3092500291-00&ServiceCd=780&Type=search", "url2": null }, "geometry": { "type": "Point", "coordinates": [ 135.7170731, 33.4861355 ] } }
]
}
