{
"type": "FeatureCollection",
"name": "geo_30_短期入所療養介護（介護老人保健施設）",
"crs": { "type": "name", "properties": { "name": "urn:ogc:def:crs:OGC:1.3:CRS84" } },
"features": [
{ "type": "Feature", "properties": { "内容": "介護老人保健施設和歌川苑【短期入所療養介護（介護老人保健施設）】和歌山県和歌山市和歌川町5番44号", "url": "https://www.kaigokensaku.mhlw.go.jp/30/index.php?action_kouhyou_detail_004_kani=true&JigyosyoCd=3050180029-00&ServiceCd=220&Type=search", "url2": "http://www.wachuohp.or.jp/wakagawaen" }, "geometry": { "type": "Point", "coordinates": [ 135.177666600000066, 34.1944102 ] } },
{ "type": "Feature", "properties": { "内容": "サテライト型小規模介護老人保健施設　松寿苑【短期入所療養介護（介護老人保健施設）】和歌山県和歌山市有本526-1和歌山生協病院サテライトありもと", "url": "https://www.kaigokensaku.mhlw.go.jp/30/index.php?action_kouhyou_detail_004_kani=true&JigyosyoCd=3050180144-00&ServiceCd=220&Type=search", "url2": null }, "geometry": { "type": "Point", "coordinates": [ 135.196084500000012, 34.249036 ] } },
{ "type": "Feature", "properties": { "内容": "老人保健施設エスポワール【短期入所療養介護（介護老人保健施設）】和歌山市船所３９－１", "url": "https://www.kaigokensaku.mhlw.go.jp/30/index.php?action_kouhyou_detail_004_kani=true&JigyosyoCd=3050180086-00&ServiceCd=220&Type=search", "url2": "http://www.nakae.or.jp/" }, "geometry": { "type": "Point", "coordinates": [ 135.181267700000035, 34.2547481 ] } },
{ "type": "Feature", "properties": { "内容": "介護老人保健施設　かまやま苑【短期入所療養介護（介護老人保健施設）】和歌山市和田３５０番地", "url": "https://www.kaigokensaku.mhlw.go.jp/30/index.php?action_kouhyou_detail_004_kani=true&JigyosyoCd=3050180045-00&ServiceCd=220&Type=search", "url2": "http://www.inada-med.or.jp/" }, "geometry": { "type": "Point", "coordinates": [ 135.205906, 34.2008988 ] } },
{ "type": "Feature", "properties": { "内容": "介護老人保健施設　ラ・エスペランサ【短期入所療養介護（介護老人保健施設）】和歌山市中島192番地", "url": "https://www.kaigokensaku.mhlw.go.jp/30/index.php?action_kouhyou_detail_004_kani=true&JigyosyoCd=3050180078-00&ServiceCd=220&Type=search", "url2": "http://www.la-esperanza.or.jp" }, "geometry": { "type": "Point", "coordinates": [ 135.186302, 34.2076923 ] } },
{ "type": "Feature", "properties": { "内容": "紀伊の里【短期入所療養介護（介護老人保健施設）】和歌山市宇田森２７５の１０", "url": "https://www.kaigokensaku.mhlw.go.jp/30/index.php?action_kouhyou_detail_004_kani=true&JigyosyoCd=3050180102-00&ServiceCd=220&Type=search", "url2": "https://www.kiinosato.net" }, "geometry": { "type": "Point", "coordinates": [ 135.249703899999986, 34.2638657 ] } },
{ "type": "Feature", "properties": { "内容": "介護老人保健施設　こすも【短期入所療養介護（介護老人保健施設）】和歌山市つつじが丘７丁目３－２", "url": "https://www.kaigokensaku.mhlw.go.jp/30/index.php?action_kouhyou_detail_004_kani=true&JigyosyoCd=3050180136-00&ServiceCd=220&Type=search", "url2": "http://www.cosumo-wakayama.jp" }, "geometry": { "type": "Point", "coordinates": [ 135.099466900000039, 34.2653094 ] } },
{ "type": "Feature", "properties": { "内容": "介護老人保健施設　サニーホーム【短期入所療養介護（介護老人保健施設）】和歌山市毛見１４５１番地", "url": "https://www.kaigokensaku.mhlw.go.jp/30/index.php?action_kouhyou_detail_004_kani=true&JigyosyoCd=3050180037-00&ServiceCd=220&Type=search", "url2": "http://www.kotonoura.or.jp" }, "geometry": { "type": "Point", "coordinates": [ 135.186046849703359, 34.158321626069458 ] } },
{ "type": "Feature", "properties": { "内容": "介護老人保健施設パインドーム【短期入所療養介護（介護老人保健施設）】和歌山市松江東2丁目4番26号", "url": "https://www.kaigokensaku.mhlw.go.jp/30/index.php?action_kouhyou_detail_004_kani=true&JigyosyoCd=3050180110-00&ServiceCd=220&Type=search", "url2": "http://www.seishou-kai.jp" }, "geometry": { "type": "Point", "coordinates": [ 135.134748899999977, 34.2453203 ] } },
{ "type": "Feature", "properties": { "内容": "医療法人甃友会介護老人保健施設光苑【短期入所療養介護（介護老人保健施設）】和歌山市秋月５６８－７", "url": "https://www.kaigokensaku.mhlw.go.jp/30/index.php?action_kouhyou_detail_004_kani=true&JigyosyoCd=3050180011-00&ServiceCd=220&Type=search", "url2": "http://www.syuyukai.com" }, "geometry": { "type": "Point", "coordinates": [ 135.2026667, 34.2267237 ] } },
{ "type": "Feature", "properties": { "内容": "サテライト型小規模介護老人保健施設　光苑ケアセンター【短期入所療養介護（介護老人保健施設）】和歌山市秋月５３５－３", "url": "https://www.kaigokensaku.mhlw.go.jp/30/index.php?action_kouhyou_detail_004_kani=true&JigyosyoCd=3050180128-00&ServiceCd=220&Type=search", "url2": "http://www.syuyukai.com" }, "geometry": { "type": "Point", "coordinates": [ 135.20356670000001, 34.2255294 ] } },
{ "type": "Feature", "properties": { "内容": "介護老人保健施設　天竹苑【短期入所療養介護（介護老人保健施設）】海南市重根11番地1", "url": "https://www.kaigokensaku.mhlw.go.jp/30/index.php?action_kouhyou_detail_004_kani=true&JigyosyoCd=3051480030-00&ServiceCd=220&Type=search", "url2": null }, "geometry": { "type": "Point", "coordinates": [ 135.23896830000001, 34.1533965 ] } },
{ "type": "Feature", "properties": { "内容": "老人保健施設　恵友ライフケアーセンター【短期入所療養介護（介護老人保健施設）】和歌山県海南市船尾２６５-１５", "url": "https://www.kaigokensaku.mhlw.go.jp/30/index.php?action_kouhyou_detail_004_kani=true&JigyosyoCd=3051480022-00&ServiceCd=220&Type=search", "url2": "https://keiyuu.com/" }, "geometry": { "type": "Point", "coordinates": [ 135.198998500000016, 34.1594902 ] } },
{ "type": "Feature", "properties": { "内容": "老人保健施設カルフール・ド・ルポ【短期入所療養介護（介護老人保健施設）】和歌山県海南市築地１－６１", "url": "https://www.kaigokensaku.mhlw.go.jp/30/index.php?action_kouhyou_detail_004_kani=true&JigyosyoCd=3051480014-00&ServiceCd=220&Type=search", "url2": "http://www.doujin-kai.or.jp/" }, "geometry": { "type": "Point", "coordinates": [ 135.2108002, 34.1521223 ] } },
{ "type": "Feature", "properties": { "内容": "老人保健施設　恵友サザンホーム【短期入所療養介護（介護老人保健施設）】和歌山県海南市下津町小南125番地", "url": "https://www.kaigokensaku.mhlw.go.jp/30/index.php?action_kouhyou_detail_004_kani=true&JigyosyoCd=3051180028-00&ServiceCd=220&Type=search", "url2": "https://keiyuu.com/kaigojigyou/sazan/" }, "geometry": { "type": "Point", "coordinates": [ 135.168096099999957, 34.127952 ] } },
{ "type": "Feature", "properties": { "内容": "介護老人保健施設グリーンガーデン橋本【短期入所療養介護（介護老人保健施設）】和歌山県橋本市隅田町山内字栢谷１９１９番", "url": "https://www.kaigokensaku.mhlw.go.jp/30/index.php?action_kouhyou_detail_004_kani=true&JigyosyoCd=3051080020-00&ServiceCd=220&Type=search", "url2": "http://keieikai.com" }, "geometry": { "type": "Point", "coordinates": [ 135.649033, 34.35464 ] } },
{ "type": "Feature", "properties": { "内容": "介護老人保健施設メディケアはしもと【短期入所療養介護（介護老人保健施設）】橋本市神野々877-1", "url": "https://www.kaigokensaku.mhlw.go.jp/30/index.php?action_kouhyou_detail_004_kani=true&JigyosyoCd=3051080004-00&ServiceCd=220&Type=search", "url2": "http://www.shitsugu.or.jp" }, "geometry": { "type": "Point", "coordinates": [ 135.57978520000006, 34.3064504 ] } },
{ "type": "Feature", "properties": { "内容": "紀伊クリニック【短期入所療養介護（介護老人保健施設）】和歌山県御坊市湯川町小松原６１５－１", "url": "https://www.kaigokensaku.mhlw.go.jp/30/index.php?action_kouhyou_detail_004_kani=true&JigyosyoCd=3012010207-00&ServiceCd=220&Type=search", "url2": null }, "geometry": { "type": "Point", "coordinates": [ 135.1508028, 33.9057903 ] } },
{ "type": "Feature", "properties": { "内容": "老人保健施設リバティ博愛【短期入所療養介護（介護老人保健施設）】和歌山県御坊市名田町野島１番地9", "url": "https://www.kaigokensaku.mhlw.go.jp/30/index.php?action_kouhyou_detail_004_kani=true&JigyosyoCd=3052080011-00&ServiceCd=220&Type=search", "url2": "hakuaikai.net" }, "geometry": { "type": "Point", "coordinates": [ 135.178952699999968, 33.8326171 ] } },
{ "type": "Feature", "properties": { "内容": "介護老人保健施設　セントポーリア【短期入所療養介護（介護老人保健施設）】和歌山県田辺市東山1-7-23", "url": "https://www.kaigokensaku.mhlw.go.jp/30/index.php?action_kouhyou_detail_004_kani=true&JigyosyoCd=3052280041-00&ServiceCd=220&Type=search", "url2": "http://yuuga.blogdehp.ne.jp/14828993007953" }, "geometry": { "type": "Point", "coordinates": [ 138.252924, 36.204824 ] } },
{ "type": "Feature", "properties": { "内容": "介護老人保健施設　田辺すみれ苑【短期入所療養介護（介護老人保健施設）】和歌山県田辺市城山台４番５号", "url": "https://www.kaigokensaku.mhlw.go.jp/30/index.php?action_kouhyou_detail_004_kani=true&JigyosyoCd=3052280033-00&ServiceCd=220&Type=search", "url2": "https://tanabesumire.jp/" }, "geometry": { "type": "Point", "coordinates": [ 135.426949700000023, 33.7285976 ] } },
{ "type": "Feature", "properties": { "内容": "介護老人保健施設あきつの【短期入所療養介護（介護老人保健施設）】和歌山県田辺市上秋津２３１０－９", "url": "https://www.kaigokensaku.mhlw.go.jp/30/index.php?action_kouhyou_detail_004_kani=true&JigyosyoCd=3052280025-00&ServiceCd=220&Type=search", "url2": "http://care-net.biz/30/akituno/" }, "geometry": { "type": "Point", "coordinates": [ 135.411748, 33.7499864 ] } },
{ "type": "Feature", "properties": { "内容": "自彊館【短期入所療養介護（介護老人保健施設）】田辺市たきない町6番11号", "url": "https://www.kaigokensaku.mhlw.go.jp/30/index.php?action_kouhyou_detail_004_kani=true&JigyosyoCd=3052280017-00&ServiceCd=220&Type=search", "url2": null }, "geometry": { "type": "Point", "coordinates": [ 135.402524099999937, 33.7037618 ] } },
{ "type": "Feature", "properties": { "内容": "老人保健施設みさき【短期入所療養介護（介護老人保健施設）】和歌山県新宮市蜂伏14－27", "url": "https://www.kaigokensaku.mhlw.go.jp/30/index.php?action_kouhyou_detail_004_kani=true&JigyosyoCd=3052380015-00&ServiceCd=220&Type=search", "url2": "http://misaki8.jp/" }, "geometry": { "type": "Point", "coordinates": [ 135.961883400000033, 33.6861956 ] } },
{ "type": "Feature", "properties": { "内容": "介護老人保健施設みくるま【短期入所療養介護（介護老人保健施設）】和歌山県紀の川市貴志川町丸栖936-3", "url": "https://www.kaigokensaku.mhlw.go.jp/30/index.php?action_kouhyou_detail_004_kani=true&JigyosyoCd=3051780017-00&ServiceCd=220&Type=search", "url2": "http://www.mikurumakai.or.jp" }, "geometry": { "type": "Point", "coordinates": [ 135.3273811, 34.2372178 ] } },
{ "type": "Feature", "properties": { "内容": "介護老人保健施設　さくらの丘【短期入所療養介護（介護老人保健施設）】紀の川市黒土153", "url": "https://www.kaigokensaku.mhlw.go.jp/30/index.php?action_kouhyou_detail_004_kani=true&JigyosyoCd=3051280034-00&ServiceCd=220&Type=search", "url2": "http://www.koyokai.or.jp" }, "geometry": { "type": "Point", "coordinates": [ 135.3798921, 34.2633089 ] } },
{ "type": "Feature", "properties": { "内容": "介護老人保健施設　やすらぎ苑【短期入所療養介護（介護老人保健施設）】和歌山県岩出市清水311番地の1医療法人殿田会　介護老人保健施設やすらぎ苑", "url": "https://www.kaigokensaku.mhlw.go.jp/30/index.php?action_kouhyou_detail_004_kani=true&JigyosyoCd=3051280026-00&ServiceCd=220&Type=search", "url2": "www.tonodakai.or.jp/yasuragien.html" }, "geometry": { "type": "Point", "coordinates": [ 135.316067100000026, 34.2543893 ] } },
{ "type": "Feature", "properties": { "内容": "老人保健施設　天寿苑【短期入所療養介護（介護老人保健施設）】海草郡紀美野町下佐々385番地１", "url": "https://www.kaigokensaku.mhlw.go.jp/30/index.php?action_kouhyou_detail_004_kani=true&JigyosyoCd=3051180010-00&ServiceCd=220&Type=search", "url2": "http://www.tenchikukai.jp" }, "geometry": { "type": "Point", "coordinates": [ 135.31853209999997, 34.1578068 ] } },
{ "type": "Feature", "properties": { "内容": "医療法人　志嗣会　介護老人保健施設　アメニティかつらぎ【短期入所療養介護（介護老人保健施設）】和歌山県伊都郡かつらぎ町妙寺１８４７－４２", "url": "https://www.kaigokensaku.mhlw.go.jp/30/index.php?action_kouhyou_detail_004_kani=true&JigyosyoCd=3051380008-00&ServiceCd=220&Type=search", "url2": "http://www.shithugu.or.jp" }, "geometry": { "type": "Point", "coordinates": [ 135.525580900000023, 34.3170019 ] } },
{ "type": "Feature", "properties": { "内容": "介護老人保健施設ライフケア有田【短期入所療養介護（介護老人保健施設）】和歌山県有田郡湯浅町大字吉川５２－１", "url": "https://www.kaigokensaku.mhlw.go.jp/30/index.php?action_kouhyou_detail_004_kani=true&JigyosyoCd=3051680027-00&ServiceCd=220&Type=search", "url2": "http://www.lcarida.jp/" }, "geometry": { "type": "Point", "coordinates": [ 135.193112700000029, 34.0462415 ] } },
{ "type": "Feature", "properties": { "内容": "クオリティライフ和歌山【短期入所療養介護（介護老人保健施設）】和歌山県有田郡有田川町庄６３７", "url": "https://www.kaigokensaku.mhlw.go.jp/30/index.php?action_kouhyou_detail_004_kani=true&JigyosyoCd=3051680019-00&ServiceCd=220&Type=search", "url2": "http://www.ql-wakayama.com" }, "geometry": { "type": "Point", "coordinates": [ 135.233708299999989, 34.0686902 ] } },
{ "type": "Feature", "properties": { "内容": "介護老人保健施設　オレンジの郷【短期入所療養介護（介護老人保健施設）】和歌山県有田郡有田川町吉原522番地", "url": "https://www.kaigokensaku.mhlw.go.jp/30/index.php?action_kouhyou_detail_004_kani=true&JigyosyoCd=3071601516-00&ServiceCd=220&Type=search", "url2": "http://care-net.biz/30/orenji-hp" }, "geometry": { "type": "Point", "coordinates": [ 135.2579998, 34.0488631 ] } },
{ "type": "Feature", "properties": { "内容": "老人保健施設プラトン【短期入所療養介護（介護老人保健施設）】日高郡　美浜町　田井　402-1", "url": "https://www.kaigokensaku.mhlw.go.jp/30/index.php?action_kouhyou_detail_004_kani=true&JigyosyoCd=3052180019-00&ServiceCd=220&Type=search", "url2": null }, "geometry": { "type": "Point", "coordinates": [ 135.149359299999986, 33.8902954 ] } },
{ "type": "Feature", "properties": { "内容": "介護老人保健施設和佐の里　サテライト千寿【短期入所療養介護（介護老人保健施設）】日高郡日高川町土生1205-1", "url": "https://www.kaigokensaku.mhlw.go.jp/30/index.php?action_kouhyou_detail_004_kani=true&JigyosyoCd=3052180035-00&ServiceCd=220&Type=search", "url2": "https://reimeikai.com" }, "geometry": { "type": "Point", "coordinates": [ 135.178261102069087, 33.912951849163846 ] } },
{ "type": "Feature", "properties": { "内容": "介護老人保健施設　和佐の里【短期入所療養介護（介護老人保健施設）】日高郡日高川町和佐2136", "url": "https://www.kaigokensaku.mhlw.go.jp/30/index.php?action_kouhyou_detail_004_kani=true&JigyosyoCd=3052180027-00&ServiceCd=220&Type=search", "url2": "http://www.reimeikai.com" }, "geometry": { "type": "Point", "coordinates": [ 135.210455599999932, 33.8920325 ] } },
{ "type": "Feature", "properties": { "内容": "介護老人保健施設　成華苑【短期入所療養介護（介護老人保健施設）】和歌山県西牟婁郡白浜町富田1360-20", "url": "https://www.kaigokensaku.mhlw.go.jp/30/index.php?action_kouhyou_detail_004_kani=true&JigyosyoCd=3052480013-00&ServiceCd=220&Type=search", "url2": "https://www.nankishirahama-fukushikai.or.jp/" }, "geometry": { "type": "Point", "coordinates": [ 135.398926658860773, 33.638489240167118 ] } },
{ "type": "Feature", "properties": { "内容": "介護老人保健施設　けんゆう苑【短期入所療養介護（介護老人保健施設）】和歌山県西牟婁郡すさみ町江住上ミ平見800", "url": "https://www.kaigokensaku.mhlw.go.jp/30/index.php?action_kouhyou_detail_004_kani=true&JigyosyoCd=3052480021-00&ServiceCd=220&Type=search", "url2": "https://www.i-kenyukai.com" }, "geometry": { "type": "Point", "coordinates": [ 135.595987799999989, 33.523561 ] } },
{ "type": "Feature", "properties": { "内容": "介護老人保健施設　ルピナス【短期入所療養介護（介護老人保健施設）】和歌山県東牟婁郡那智勝浦町宇久井714-3", "url": "https://www.kaigokensaku.mhlw.go.jp/30/index.php?action_kouhyou_detail_004_kani=true&JigyosyoCd=3052580002-00&ServiceCd=220&Type=search", "url2": "http://rupinasu.jp/" }, "geometry": { "type": "Point", "coordinates": [ 135.982915600000069, 33.6594993 ] } },
{ "type": "Feature", "properties": { "内容": "介護老人保健施設あじさい苑【短期入所療養介護（介護老人保健施設）】和歌山県東牟婁郡古座川町高瀬415番地", "url": "https://www.kaigokensaku.mhlw.go.jp/30/index.php?action_kouhyou_detail_004_kani=true&JigyosyoCd=3052580010-00&ServiceCd=220&Type=search", "url2": "http://www.takasekai.or.jp/" }, "geometry": { "type": "Point", "coordinates": [ 135.779193699999951, 33.5352992 ] } }
]
}
