{
"type": "FeatureCollection",
"name": "geo_30_4",
"crs": { "type": "name", "properties": { "name": "urn:ogc:def:crs:OGC:1.3:CRS84" } },
"features": [
{ "type": "Feature", "properties": { "ID": 3045004400000, "正式名称": "育助産所", "機関区分": 4, "都道府県コード": 30, "市区町村コード": 206, "所在地": "和歌山県田辺市朝日ヶ丘５番３号", "緯度": 33.733331, "経度": 135.390911, "url": "https://www.iryou.teikyouseido.mhlw.go.jp/znk-web/juminkanja/S2430/initialize?prefCd=30&kikanCd=5004400000&kikanKbn=4", "url2": null, "内容": "育助産所【4:助産院】和歌山県田辺市朝日ヶ丘５番３号" }, "geometry": { "type": "Point", "coordinates": [ 135.390911, 33.733331 ] } },
{ "type": "Feature", "properties": { "ID": 3045004600000, "正式名称": "バース・ハウス　なかにし　助産院", "機関区分": 4, "都道府県コード": 30, "市区町村コード": 205, "所在地": "和歌山県御坊市湯川町小松原１３９", "緯度": 33.903644, "経度": 135.164256, "url": "https://www.iryou.teikyouseido.mhlw.go.jp/znk-web/juminkanja/S2430/initialize?prefCd=30&kikanCd=5004600000&kikanKbn=4", "url2": null, "内容": "バース・ハウス　なかにし　助産院【4:助産院】和歌山県御坊市湯川町小松原１３９" }, "geometry": { "type": "Point", "coordinates": [ 135.164256, 33.903644 ] } },
{ "type": "Feature", "properties": { "ID": 3045004800000, "正式名称": "ひろ母乳育児相談室", "機関区分": 4, "都道府県コード": 30, "市区町村コード": 201, "所在地": "和歌山県和歌山市楠本１－４５", "緯度": 34.261244, "経度": 135.254981, "url": "https://www.iryou.teikyouseido.mhlw.go.jp/znk-web/juminkanja/S2430/initialize?prefCd=30&kikanCd=5004800000&kikanKbn=4", "url2": null, "内容": "ひろ母乳育児相談室【4:助産院】和歌山県和歌山市楠本１－４５" }, "geometry": { "type": "Point", "coordinates": [ 135.254981, 34.261244 ] } },
{ "type": "Feature", "properties": { "ID": 3045004900000, "正式名称": "リリーベル助産院", "機関区分": 4, "都道府県コード": 30, "市区町村コード": 201, "所在地": "和歌山県和歌山市吹上５－１－２３－１０２", "緯度": 34.220636, "経度": 135.17435, "url": "https://www.iryou.teikyouseido.mhlw.go.jp/znk-web/juminkanja/S2430/initialize?prefCd=30&kikanCd=5004900000&kikanKbn=4", "url2": null, "内容": "リリーベル助産院【4:助産院】和歌山県和歌山市吹上５－１－２３－１０２" }, "geometry": { "type": "Point", "coordinates": [ 135.17435, 34.220636 ] } },
{ "type": "Feature", "properties": { "ID": 3045005300000, "正式名称": "あつ子助産院", "機関区分": 4, "都道府県コード": 30, "市区町村コード": 201, "所在地": "和歌山県和歌山市太田１丁目１－２３　フジパレス和歌山駅南２番館１０１", "緯度": 34.229024, "経度": 135.193265, "url": "https://www.iryou.teikyouseido.mhlw.go.jp/znk-web/juminkanja/S2430/initialize?prefCd=30&kikanCd=5005300000&kikanKbn=4", "url2": null, "内容": "あつ子助産院【4:助産院】和歌山県和歌山市太田１丁目１－２３　フジパレス和歌山駅南２番館１０１" }, "geometry": { "type": "Point", "coordinates": [ 135.193265, 34.229024 ] } },
{ "type": "Feature", "properties": { "ID": 3045005600000, "正式名称": "産前産後ケアルーム　Ｓｈｉｎ", "機関区分": 4, "都道府県コード": 30, "市区町村コード": 204, "所在地": "和歌山県有田市初島町里１５４６－１", "緯度": 34.096176, "経度": 135.122471, "url": "https://www.iryou.teikyouseido.mhlw.go.jp/znk-web/juminkanja/S2430/initialize?prefCd=30&kikanCd=5005600000&kikanKbn=4", "url2": null, "内容": "産前産後ケアルーム　Ｓｈｉｎ【4:助産院】和歌山県有田市初島町里１５４６－１" }, "geometry": { "type": "Point", "coordinates": [ 135.122471, 34.096176 ] } },
{ "type": "Feature", "properties": { "ID": 3045005700000, "正式名称": "Ｂａｂｙ　ママサロン", "機関区分": 4, "都道府県コード": 30, "市区町村コード": 201, "所在地": "和歌山県和歌山市有本４０１－１２", "緯度": 34.2518, "経度": 135.199958, "url": "https://www.iryou.teikyouseido.mhlw.go.jp/znk-web/juminkanja/S2430/initialize?prefCd=30&kikanCd=5005700000&kikanKbn=4", "url2": "https://www.waka-midwife.com/jyosanjyo/baby-mama-salon", "内容": "Ｂａｂｙ　ママサロン【4:助産院】和歌山県和歌山市有本４０１－１２" }, "geometry": { "type": "Point", "coordinates": [ 135.199958, 34.2518 ] } },
{ "type": "Feature", "properties": { "ID": 3045005900000, "正式名称": "マタニティハウス　ｃａｌｍ", "機関区分": 4, "都道府県コード": 30, "市区町村コード": 201, "所在地": "和歌山県和歌山市紀三井寺４３８－９", "緯度": 34.17678, "経度": 135.188407, "url": "https://www.iryou.teikyouseido.mhlw.go.jp/znk-web/juminkanja/S2430/initialize?prefCd=30&kikanCd=5005900000&kikanKbn=4", "url2": "www.maternity-calm.com", "内容": "マタニティハウス　ｃａｌｍ【4:助産院】和歌山県和歌山市紀三井寺４３８－９" }, "geometry": { "type": "Point", "coordinates": [ 135.188407, 34.17678 ] } },
{ "type": "Feature", "properties": { "ID": 3045006000000, "正式名称": "新生助産所", "機関区分": 4, "都道府県コード": 30, "市区町村コード": 404, "所在地": "和歌山県西牟婁郡上富田町市ノ瀬２２５６－１５", "緯度": 33.717862, "経度": 135.460378, "url": "https://www.iryou.teikyouseido.mhlw.go.jp/znk-web/juminkanja/S2430/initialize?prefCd=30&kikanCd=5006000000&kikanKbn=4", "url2": null, "内容": "新生助産所【4:助産院】和歌山県西牟婁郡上富田町市ノ瀬２２５６－１５" }, "geometry": { "type": "Point", "coordinates": [ 135.460378, 33.717862 ] } },
{ "type": "Feature", "properties": { "ID": 3045006100000, "正式名称": "ちえの和助産院", "機関区分": 4, "都道府県コード": 30, "市区町村コード": 404, "所在地": "和歌山県西牟婁郡上富田町岩田２２００－２", "緯度": 33.711779, "経度": 135.441712, "url": "https://www.iryou.teikyouseido.mhlw.go.jp/znk-web/juminkanja/S2430/initialize?prefCd=30&kikanCd=5006100000&kikanKbn=4", "url2": null, "内容": "ちえの和助産院【4:助産院】和歌山県西牟婁郡上富田町岩田２２００－２" }, "geometry": { "type": "Point", "coordinates": [ 135.441712, 33.711779 ] } },
{ "type": "Feature", "properties": { "ID": 3045006200000, "正式名称": "翠助産院", "機関区分": 4, "都道府県コード": 30, "市区町村コード": 204, "所在地": "和歌山県有田市宮原町東２１５", "緯度": 34.080985, "経度": 135.178356, "url": "https://www.iryou.teikyouseido.mhlw.go.jp/znk-web/juminkanja/S2430/initialize?prefCd=30&kikanCd=5006200000&kikanKbn=4", "url2": "https://midori-josanin.jp", "内容": "翠助産院【4:助産院】和歌山県有田市宮原町東２１５" }, "geometry": { "type": "Point", "coordinates": [ 135.178356, 34.080985 ] } },
{ "type": "Feature", "properties": { "ID": 3045006500000, "正式名称": "産前産後ケアサポートフィーカ", "機関区分": 4, "都道府県コード": 30, "市区町村コード": 209, "所在地": "和歌山県岩出市曽屋２１０－２７", "緯度": 34.266596, "経度": 135.300774, "url": "https://www.iryou.teikyouseido.mhlw.go.jp/znk-web/juminkanja/S2430/initialize?prefCd=30&kikanCd=5006500000&kikanKbn=4", "url2": "https://fika-sanzensango.com", "内容": "産前産後ケアサポートフィーカ【4:助産院】和歌山県岩出市曽屋２１０－２７" }, "geometry": { "type": "Point", "coordinates": [ 135.300774, 34.266596 ] } },
{ "type": "Feature", "properties": { "ID": 3045006600000, "正式名称": "ゆるり助産院", "機関区分": 4, "都道府県コード": 30, "市区町村コード": 201, "所在地": "和歌山県和歌山市有家３２４－３　ラフォーレ壱番館１０２号", "緯度": 34.220859, "経度": 135.201515, "url": "https://www.iryou.teikyouseido.mhlw.go.jp/znk-web/juminkanja/S2430/initialize?prefCd=30&kikanCd=5006600000&kikanKbn=4", "url2": null, "内容": "ゆるり助産院【4:助産院】和歌山県和歌山市有家３２４－３　ラフォーレ壱番館１０２号" }, "geometry": { "type": "Point", "coordinates": [ 135.201515, 34.220859 ] } },
{ "type": "Feature", "properties": { "ID": 3045006700000, "正式名称": "まある助産院", "機関区分": 4, "都道府県コード": 30, "市区町村コード": 206, "所在地": "和歌山県田辺市秋津町９６－７", "緯度": 33.747357, "経度": 135.390993, "url": "https://www.iryou.teikyouseido.mhlw.go.jp/znk-web/juminkanja/S2430/initialize?prefCd=30&kikanCd=5006700000&kikanKbn=4", "url2": null, "内容": "まある助産院【4:助産院】和歌山県田辺市秋津町９６－７" }, "geometry": { "type": "Point", "coordinates": [ 135.390993, 33.747357 ] } },
{ "type": "Feature", "properties": { "ID": 3045006800000, "正式名称": "Ｇｒａｃｅ　Ｍａｔｅｒｎｉｔｙ　Ｈｏｍｅ", "機関区分": 4, "都道府県コード": 30, "市区町村コード": 201, "所在地": "和歌山県和歌山市谷１０８－６", "緯度": 34.269882, "経度": 135.26984, "url": "https://www.iryou.teikyouseido.mhlw.go.jp/znk-web/juminkanja/S2430/initialize?prefCd=30&kikanCd=5006800000&kikanKbn=4", "url2": null, "内容": "Ｇｒａｃｅ　Ｍａｔｅｒｎｉｔｙ　Ｈｏｍｅ【4:助産院】和歌山県和歌山市谷１０８－６" }, "geometry": { "type": "Point", "coordinates": [ 135.26984, 34.269882 ] } },
{ "type": "Feature", "properties": { "ID": 3045007100000, "正式名称": "プレママ＆ママサロン　ここねっと", "機関区分": 4, "都道府県コード": 30, "市区町村コード": 201, "所在地": "和歌山県和歌山市吹上", "緯度": 34.23033, "経度": 135.170739, "url": "https://www.iryou.teikyouseido.mhlw.go.jp/znk-web/juminkanja/S2430/initialize?prefCd=30&kikanCd=5007100000&kikanKbn=4", "url2": null, "内容": "プレママ＆ママサロン　ここねっと【4:助産院】和歌山県和歌山市吹上" }, "geometry": { "type": "Point", "coordinates": [ 135.170739, 34.23033 ] } },
{ "type": "Feature", "properties": { "ID": 3045007300000, "正式名称": "ＴＳＵＧＵＭＩ助産院", "機関区分": 4, "都道府県コード": 30, "市区町村コード": 203, "所在地": "和歌山県橋本市高野口町名古曽１１６１", "緯度": 34.309072, "経度": 135.561778, "url": "https://www.iryou.teikyouseido.mhlw.go.jp/znk-web/juminkanja/S2430/initialize?prefCd=30&kikanCd=5007300000&kikanKbn=4", "url2": "https://mw-tsugumi.com/", "内容": "ＴＳＵＧＵＭＩ助産院【4:助産院】和歌山県橋本市高野口町名古曽１１６１" }, "geometry": { "type": "Point", "coordinates": [ 135.561778, 34.309072 ] } },
{ "type": "Feature", "properties": { "ID": 3045007500000, "正式名称": "母乳育児相談　ながさこ", "機関区分": 4, "都道府県コード": 30, "市区町村コード": 202, "所在地": "和歌山県海南市且来１２８番地１１", "緯度": 34.173215, "経度": 135.233089, "url": "https://www.iryou.teikyouseido.mhlw.go.jp/znk-web/juminkanja/S2430/initialize?prefCd=30&kikanCd=5007500000&kikanKbn=4", "url2": null, "内容": "母乳育児相談　ながさこ【4:助産院】和歌山県海南市且来１２８番地１１" }, "geometry": { "type": "Point", "coordinates": [ 135.233089, 34.173215 ] } },
{ "type": "Feature", "properties": { "ID": 3045100100000, "正式名称": "岡本助産院", "機関区分": 4, "都道府県コード": 30, "市区町村コード": 201, "所在地": "和歌山県和歌山市小雑賀２０７", "緯度": 34.204972, "経度": 135.184322, "url": "https://www.iryou.teikyouseido.mhlw.go.jp/znk-web/juminkanja/S2430/initialize?prefCd=30&kikanCd=5100100000&kikanKbn=4", "url2": "http://www.eonet.ne.jp/~anlynina/", "内容": "岡本助産院【4:助産院】和歌山県和歌山市小雑賀２０７" }, "geometry": { "type": "Point", "coordinates": [ 135.184322, 34.204972 ] } },
{ "type": "Feature", "properties": { "ID": 3045100300000, "正式名称": "澤母乳育児相談室", "機関区分": 4, "都道府県コード": 30, "市区町村コード": 201, "所在地": "和歌山県和歌山市新留丁３２", "緯度": 34.225136, "経度": 135.185794, "url": "https://www.iryou.teikyouseido.mhlw.go.jp/znk-web/juminkanja/S2430/initialize?prefCd=30&kikanCd=5100300000&kikanKbn=4", "url2": null, "内容": "澤母乳育児相談室【4:助産院】和歌山県和歌山市新留丁３２" }, "geometry": { "type": "Point", "coordinates": [ 135.185794, 34.225136 ] } },
{ "type": "Feature", "properties": { "ID": 3045101000000, "正式名称": "なぎ助産院", "機関区分": 4, "都道府県コード": 30, "市区町村コード": 209, "所在地": "和歌山県岩出市水栖２６４－２", "緯度": 34.267661, "経度": 135.320253, "url": "https://www.iryou.teikyouseido.mhlw.go.jp/znk-web/juminkanja/S2430/initialize?prefCd=30&kikanCd=5101000000&kikanKbn=4", "url2": null, "内容": "なぎ助産院【4:助産院】和歌山県岩出市水栖２６４－２" }, "geometry": { "type": "Point", "coordinates": [ 135.320253, 34.267661 ] } },
{ "type": "Feature", "properties": { "ID": 3045102000000, "正式名称": "ちひろ助産院", "機関区分": 4, "都道府県コード": 30, "市区町村コード": 206, "所在地": "和歌山県田辺市朝日ヶ丘３－２０", "緯度": 33.733137, "経度": 135.39205, "url": "https://www.iryou.teikyouseido.mhlw.go.jp/znk-web/juminkanja/S2430/initialize?prefCd=30&kikanCd=5102000000&kikanKbn=4", "url2": "http://www.iiosan-chihiro.com/", "内容": "ちひろ助産院【4:助産院】和歌山県田辺市朝日ヶ丘３－２０" }, "geometry": { "type": "Point", "coordinates": [ 135.39205, 33.733137 ] } },
{ "type": "Feature", "properties": { "ID": 3045102300000, "正式名称": "マタニティーハウスはまじ助産院", "機関区分": 4, "都道府県コード": 30, "市区町村コード": 391, "所在地": "和歌山県日高郡みなべ町堺６３７", "緯度": 33.74544, "経度": 135.333748, "url": "https://www.iryou.teikyouseido.mhlw.go.jp/znk-web/juminkanja/S2430/initialize?prefCd=30&kikanCd=5102300000&kikanKbn=4", "url2": null, "内容": "マタニティーハウスはまじ助産院【4:助産院】和歌山県日高郡みなべ町堺６３７" }, "geometry": { "type": "Point", "coordinates": [ 135.333748, 33.74544 ] } },
{ "type": "Feature", "properties": { "ID": 3045102600000, "正式名称": "やよい助産院", "機関区分": 4, "都道府県コード": 30, "市区町村コード": 401, "所在地": "和歌山県西牟婁郡白浜町市鹿野９１０", "緯度": 33.655314, "経度": 135.535346, "url": "https://www.iryou.teikyouseido.mhlw.go.jp/znk-web/juminkanja/S2430/initialize?prefCd=30&kikanCd=5102600000&kikanKbn=4", "url2": null, "内容": "やよい助産院【4:助産院】和歌山県西牟婁郡白浜町市鹿野９１０" }, "geometry": { "type": "Point", "coordinates": [ 135.535346, 33.655314 ] } },
{ "type": "Feature", "properties": { "ID": 3045102800000, "正式名称": "かづこ助産院", "機関区分": 4, "都道府県コード": 30, "市区町村コード": 421, "所在地": "和歌山県東牟婁郡那智勝浦町北浜１丁目１３番地", "緯度": 33.630546, "経度": 135.943064, "url": "https://www.iryou.teikyouseido.mhlw.go.jp/znk-web/juminkanja/S2430/initialize?prefCd=30&kikanCd=5102800000&kikanKbn=4", "url2": "https://sanba-kazuko.com", "内容": "かづこ助産院【4:助産院】和歌山県東牟婁郡那智勝浦町北浜１丁目１３番地" }, "geometry": { "type": "Point", "coordinates": [ 135.943064, 33.630546 ] } },
{ "type": "Feature", "properties": { "ID": 3045103100000, "正式名称": "さつき助産院", "機関区分": 4, "都道府県コード": 30, "市区町村コード": 421, "所在地": "和歌山県東牟婁郡那智勝浦町天満１４０－５", "緯度": 33.639045, "経度": 135.933286, "url": "https://www.iryou.teikyouseido.mhlw.go.jp/znk-web/juminkanja/S2430/initialize?prefCd=30&kikanCd=5103100000&kikanKbn=4", "url2": null, "内容": "さつき助産院【4:助産院】和歌山県東牟婁郡那智勝浦町天満１４０－５" }, "geometry": { "type": "Point", "coordinates": [ 135.933286, 33.639045 ] } },
{ "type": "Feature", "properties": { "ID": 3045103600000, "正式名称": "むとう助産院", "機関区分": 4, "都道府県コード": 30, "市区町村コード": 201, "所在地": "和歌山県和歌山市内原５８２番地の６", "緯度": 34.176308, "経度": 135.197406, "url": "https://www.iryou.teikyouseido.mhlw.go.jp/znk-web/juminkanja/S2430/initialize?prefCd=30&kikanCd=5103600000&kikanKbn=4", "url2": "https://muto-jyosanin.amebaownd.com", "内容": "むとう助産院【4:助産院】和歌山県和歌山市内原５８２番地の６" }, "geometry": { "type": "Point", "coordinates": [ 135.197406, 34.176308 ] } },
{ "type": "Feature", "properties": { "ID": 3045103700000, "正式名称": "福助産院", "機関区分": 4, "都道府県コード": 30, "市区町村コード": 206, "所在地": "和歌山県田辺市明洋二丁目１０－３６", "緯度": 33.741801, "経度": 135.360718, "url": "https://www.iryou.teikyouseido.mhlw.go.jp/znk-web/juminkanja/S2430/initialize?prefCd=30&kikanCd=5103700000&kikanKbn=4", "url2": "https://www.fuku-josanin.com", "内容": "福助産院【4:助産院】和歌山県田辺市明洋二丁目１０－３６" }, "geometry": { "type": "Point", "coordinates": [ 135.360718, 33.741801 ] } },
{ "type": "Feature", "properties": { "ID": 3045103800000, "正式名称": "大西助産院　（出張専門）", "機関区分": 4, "都道府県コード": 30, "市区町村コード": 202, "所在地": "和歌山県海南市重根２１４８－１８", "緯度": 34.151561, "経度": 135.243931, "url": "https://www.iryou.teikyouseido.mhlw.go.jp/znk-web/juminkanja/S2430/initialize?prefCd=30&kikanCd=5103800000&kikanKbn=4", "url2": null, "内容": "大西助産院　（出張専門）【4:助産院】和歌山県海南市重根２１４８－１８" }, "geometry": { "type": "Point", "coordinates": [ 135.243931, 34.151561 ] } },
{ "type": "Feature", "properties": { "ID": 3045305200001, "正式名称": "和の子みらい助産院", "機関区分": 4, "都道府県コード": 30, "市区町村コード": 208, "所在地": "和歌山県紀の川市名手西野２８５－２", "緯度": 34.272322, "経度": 135.433863, "url": "https://www.iryou.teikyouseido.mhlw.go.jp/znk-web/juminkanja/S2430/initialize?prefCd=30&kikanCd=5305200001&kikanKbn=4", "url2": "https://www.midwifemap.com/mysite/wanoko/", "内容": "和の子みらい助産院【4:助産院】和歌山県紀の川市名手西野２８５－２" }, "geometry": { "type": "Point", "coordinates": [ 135.433863, 34.272322 ] } }
]
}
