{
"type": "FeatureCollection",
"name": "geo_30_特定施設入居者生活介護（有料老人ホーム（サービス付き高齢者向け住宅））",
"crs": { "type": "name", "properties": { "name": "urn:ogc:def:crs:OGC:1.3:CRS84" } },
"features": [
{ "type": "Feature", "properties": { "内容": "介護付有料老人ホーム和歌山ふじと台花水木【特定施設入居者生活介護（有料老人ホーム（サービス付き高齢者向け住宅））】和歌山県和歌山市ふじと台33番地", "url": "https://www.kaigokensaku.mhlw.go.jp/30/index.php?action_kouhyou_detail_004_kani=true&JigyosyoCd=3070114750-00&ServiceCd=&Type=search", "url2": "https://hanamizuki.tv/service/nursing-home-housing-fujitodai" }, "geometry": { "type": "Point", "coordinates": [ 135.1492651, 34.277887200000016 ] } },
{ "type": "Feature", "properties": { "内容": "介護付き住宅おひさま【特定施設入居者生活介護（有料老人ホーム（サービス付き高齢者向け住宅））】和歌山県和歌山市弘西579サービス付き高齢者向け住宅おひさま", "url": "https://www.kaigokensaku.mhlw.go.jp/30/index.php?action_kouhyou_detail_004_kani=true&JigyosyoCd=3070112432-00&ServiceCd=&Type=search", "url2": "http://orangecoop.jp/" }, "geometry": { "type": "Point", "coordinates": [ 135.239990799999987, 34.2709512 ] } },
{ "type": "Feature", "properties": { "内容": "介護付き住宅おひさま東【特定施設入居者生活介護（有料老人ホーム（サービス付き高齢者向け住宅））】和歌山県和歌山市弘西576サービス付き高齢者向け住宅おひさま東", "url": "https://www.kaigokensaku.mhlw.go.jp/30/index.php?action_kouhyou_detail_004_kani=true&JigyosyoCd=3070113315-00&ServiceCd=&Type=search", "url2": "http://orangecoop.jp/" }, "geometry": { "type": "Point", "coordinates": [ 135.2407599, 34.2771722 ] } },
{ "type": "Feature", "properties": { "内容": "介護付き住宅　あっと宝夢Ⅱ【特定施設入居者生活介護（有料老人ホーム（サービス付き高齢者向け住宅））】和歌山県和歌山市今福1丁目3-26", "url": "https://www.kaigokensaku.mhlw.go.jp/30/index.php?action_kouhyou_detail_004_kani=true&JigyosyoCd=3070110709-00&ServiceCd=&Type=search", "url2": "https://wcma.or.jp/" }, "geometry": { "type": "Point", "coordinates": [ 135.16489219999994, 34.2162962 ] } },
{ "type": "Feature", "properties": { "内容": "特定施設入居者生活介護　あい船所【特定施設入居者生活介護（有料老人ホーム（サービス付き高齢者向け住宅））】和歌山県和歌山市船所55", "url": "https://www.kaigokensaku.mhlw.go.jp/30/index.php?action_kouhyou_detail_004_kani=true&JigyosyoCd=3070113398-00&ServiceCd=&Type=search", "url2": "http://www.nakae.or.jp/contents/ai/index.html" }, "geometry": { "type": "Point", "coordinates": [ 135.1816867, 34.2557978 ] } },
{ "type": "Feature", "properties": { "内容": "健輝苑有田川【特定施設入居者生活介護（有料老人ホーム（サービス付き高齢者向け住宅））】和歌山県有田市下中島西ノ瀬２０２番地１", "url": "https://www.kaigokensaku.mhlw.go.jp/30/index.php?action_kouhyou_detail_004_kani=true&JigyosyoCd=3071500676-00&ServiceCd=&Type=search", "url2": "http://kenkien.com/" }, "geometry": { "type": "Point", "coordinates": [ 135.155272999444634, 34.080787093380764 ] } },
{ "type": "Feature", "properties": { "内容": "ひまわりコーラルハウス【特定施設入居者生活介護（有料老人ホーム（サービス付き高齢者向け住宅））】和歌山県有田市辻堂大字池ノ尻936.937", "url": "https://www.kaigokensaku.mhlw.go.jp/30/index.php?action_kouhyou_detail_004_kani=true&JigyosyoCd=3071500627-00&ServiceCd=&Type=search", "url2": "https://www.primetime.jp" }, "geometry": { "type": "Point", "coordinates": [ 135.145969700000023, 34.0752024 ] } },
{ "type": "Feature", "properties": { "内容": "中屋敷イストワール【特定施設入居者生活介護（有料老人ホーム（サービス付き高齢者向け住宅））】和歌山県田辺市中屋敷町21番地の1", "url": "https://www.kaigokensaku.mhlw.go.jp/30/index.php?action_kouhyou_detail_004_kani=true&JigyosyoCd=3072201621-00&ServiceCd=&Type=search", "url2": "www.nakayashiki-histoire.jp" }, "geometry": { "type": "Point", "coordinates": [ 135.376995800000032, 33.7317136 ] } },
{ "type": "Feature", "properties": { "内容": "特定施設サービス付き高齢者向け住宅　ポータラカ【特定施設入居者生活介護（有料老人ホーム（サービス付き高齢者向け住宅））】和歌山県田辺市下三栖岩屋谷1483番地の15", "url": "https://www.kaigokensaku.mhlw.go.jp/30/index.php?action_kouhyou_detail_004_kani=true&JigyosyoCd=3072201811-00&ServiceCd=&Type=search", "url2": "https://www.kanon-potalaka.com/" }, "geometry": { "type": "Point", "coordinates": [ 135.42049529590912, 33.729903461415603 ] } },
{ "type": "Feature", "properties": { "内容": "特定施設入居者生活介護サービス付き高齢者向け住宅辻の郷【特定施設入居者生活介護（有料老人ホーム（サービス付き高齢者向け住宅））】和歌山県日高郡みなべ町東吉田282辻の郷", "url": "https://www.kaigokensaku.mhlw.go.jp/30/index.php?action_kouhyou_detail_004_kani=true&JigyosyoCd=3072101011-00&ServiceCd=&Type=search", "url2": "https://care-net.biz/30/tujinosato/" }, "geometry": { "type": "Point", "coordinates": [ 135.325066099999958, 33.7762201 ] } },
{ "type": "Feature", "properties": { "内容": "サービス付き高齢者向け住宅ハイツ六木山【特定施設入居者生活介護（有料老人ホーム（サービス付き高齢者向け住宅））】和歌山県西牟婁郡上富田町南紀の台66-61", "url": "https://www.kaigokensaku.mhlw.go.jp/30/index.php?action_kouhyou_detail_004_kani=true&JigyosyoCd=3072401395-00&ServiceCd=&Type=search", "url2": null }, "geometry": { "type": "Point", "coordinates": [ 135.409157, 33.697516 ] } }
]
}
