{
"type": "FeatureCollection",
"name": "geo_30_定期巡回・随時対応型訪問介護看護",
"crs": { "type": "name", "properties": { "name": "urn:ogc:def:crs:OGC:1.3:CRS84" } },
"features": [
{ "type": "Feature", "properties": { "内容": "定期巡回ステーションはーとふる和歌山【定期巡回・随時対応型訪問介護看護】福島700-1", "url": "https://www.kaigokensaku.mhlw.go.jp/30/index.php?action_kouhyou_detail_004_kani=true&JigyosyoCd=3090101753-00&ServiceCd=760&Type=search", "url2": "https://www.heartfulcare.com/royalhome/facility/wakayama/wakayama_01.html" }, "geometry": { "type": "Point", "coordinates": [ 135.1606075, 34.2450287 ] } },
{ "type": "Feature", "properties": { "内容": "定期巡回・随時対応型訪問介護看護　生協みなみ【定期巡回・随時対応型訪問介護看護】和歌山県和歌山市中之島880-1", "url": "https://www.kaigokensaku.mhlw.go.jp/30/index.php?action_kouhyou_detail_004_kani=true&JigyosyoCd=3090101126-00&ServiceCd=760&Type=search", "url2": null }, "geometry": { "type": "Point", "coordinates": [ 135.185656599999987, 34.2433771 ] } },
{ "type": "Feature", "properties": { "内容": "定期巡回・随時対応型訪問介護みやまえ【定期巡回・随時対応型訪問介護看護】和歌山県和歌山市手平1丁目7-27住宅型有料老人ホーム集いの家みやまえ", "url": "https://www.kaigokensaku.mhlw.go.jp/30/index.php?action_kouhyou_detail_004_kani=true&JigyosyoCd=3090100813-00&ServiceCd=760&Type=search", "url2": "http//www/silver.biz/" }, "geometry": { "type": "Point", "coordinates": [ 135.18637949999993, 34.2190631 ] } },
{ "type": "Feature", "properties": { "内容": "巡回型訪問介護シルバーネスト塩屋【定期巡回・随時対応型訪問介護看護】和歌山県和歌山市塩屋4丁目5番16号", "url": "https://www.kaigokensaku.mhlw.go.jp/30/index.php?action_kouhyou_detail_004_kani=true&JigyosyoCd=3090100656-00&ServiceCd=760&Type=search", "url2": "http://www.kaigokohyo-wakayama.jp/kaigosip/Top.do" }, "geometry": { "type": "Point", "coordinates": [ 135.177460966270473, 34.199812252263641 ] } },
{ "type": "Feature", "properties": { "内容": "ライフサポート【定期巡回・随時対応型訪問介護看護】和歌山県和歌山市六十谷414番地1号シャルマンＭ２０２", "url": "https://www.kaigokensaku.mhlw.go.jp/30/index.php?action_kouhyou_detail_004_kani=true&JigyosyoCd=3090101571-00&ServiceCd=760&Type=search", "url2": null }, "geometry": { "type": "Point", "coordinates": [ 135.2055647, 34.2636173 ] } },
{ "type": "Feature", "properties": { "内容": "定期巡回随時対応型訪問介護看護　げんき【定期巡回・随時対応型訪問介護看護】和歌山県海南市沖野々394-3", "url": "https://www.kaigokensaku.mhlw.go.jp/30/index.php?action_kouhyou_detail_004_kani=true&JigyosyoCd=3091400170-00&ServiceCd=760&Type=search", "url2": null }, "geometry": { "type": "Point", "coordinates": [ 135.2706134, 34.1604855 ] } },
{ "type": "Feature", "properties": { "内容": "山本クリニック【定期巡回・随時対応型訪問介護看護】海南市名高５０６－４", "url": "https://www.kaigokensaku.mhlw.go.jp/30/index.php?action_kouhyou_detail_004_kani=true&JigyosyoCd=3091400154-00&ServiceCd=760&Type=search", "url2": "http://care-net.biz/30/kyuseikai/" }, "geometry": { "type": "Point", "coordinates": [ 135.212183399999958, 34.1531527 ] } },
{ "type": "Feature", "properties": { "内容": "ヘルパーステーション瑞穂【定期巡回・随時対応型訪問介護看護】和歌山県紀の川市粉河775-1", "url": "https://www.kaigokensaku.mhlw.go.jp/30/index.php?action_kouhyou_detail_004_kani=true&JigyosyoCd=3091700140-00&ServiceCd=760&Type=search", "url2": "http://inahokaihp.or.jp/mizuho-home" }, "geometry": { "type": "Point", "coordinates": [ 135.4045066, 34.268378 ] } }
]
}
