{
"type": "FeatureCollection",
"name": "geo_30_訪問リハビリテーション",
"crs": { "type": "name", "properties": { "name": "urn:ogc:def:crs:OGC:1.3:CRS84" } },
"features": [
{ "type": "Feature", "properties": { "内容": "半羽胃腸病院【訪問リハビリテーション】和歌山市堀止南ノ丁4-11", "url": "https://www.kaigokensaku.mhlw.go.jp/30/index.php?action_kouhyou_detail_004_kani=true&JigyosyoCd=3010111049-00&ServiceCd=140&Type=search", "url2": null }, "geometry": { "type": "Point", "coordinates": [ 135.171508499999959, 34.2121107 ] } },
{ "type": "Feature", "properties": { "内容": "医療法人杏林会嶋病院【訪問リハビリテーション】和歌山県和歌山市西仲間町1丁目30番地", "url": "https://www.kaigokensaku.mhlw.go.jp/30/index.php?action_kouhyou_detail_004_kani=true&JigyosyoCd=3010111015-00&ServiceCd=140&Type=search", "url2": "http://www.shima-hp.jp/" }, "geometry": { "type": "Point", "coordinates": [ 135.178817400000071, 34.2368894 ] } },
{ "type": "Feature", "properties": { "内容": "伏虎リハビリテーション病院【訪問リハビリテーション】和歌山市屋形町1丁目11番地", "url": "https://www.kaigokensaku.mhlw.go.jp/30/index.php?action_kouhyou_detail_004_kani=true&JigyosyoCd=3010110512-00&ServiceCd=140&Type=search", "url2": "https://www.nakatani.wakayama.jp" }, "geometry": { "type": "Point", "coordinates": [ 135.1771453, 34.231369200000024 ] } },
{ "type": "Feature", "properties": { "内容": "医療法人　光愛心　まつやま整形外科クリニック【訪問リハビリテーション】和歌山県和歌山市里８６－１", "url": "https://www.kaigokensaku.mhlw.go.jp/30/index.php?action_kouhyou_detail_004_kani=true&JigyosyoCd=3010113342-00&ServiceCd=140&Type=search", "url2": "www.matsuyama-orthop.com" }, "geometry": { "type": "Point", "coordinates": [ 135.2637983, 34.2637726 ] } },
{ "type": "Feature", "properties": { "内容": "さとう内科【訪問リハビリテーション】和歌山県和歌山市太田６６７－６", "url": "https://www.kaigokensaku.mhlw.go.jp/30/index.php?action_kouhyou_detail_004_kani=true&JigyosyoCd=3010113300-00&ServiceCd=140&Type=search", "url2": null }, "geometry": { "type": "Point", "coordinates": [ 135.2050808, 34.2363758 ] } },
{ "type": "Feature", "properties": { "内容": "医療法人サン　山東整形外科肛門科医院【訪問リハビリテーション】和歌山県和歌山市和田1202-5", "url": "https://www.kaigokensaku.mhlw.go.jp/30/index.php?action_kouhyou_detail_004_kani=true&JigyosyoCd=3010112583-00&ServiceCd=140&Type=search", "url2": null }, "geometry": { "type": "Point", "coordinates": [ 135.208933399999978, 34.207348 ] } },
{ "type": "Feature", "properties": { "内容": "医療法人裕紫会　中谷病院【訪問リハビリテーション】和歌山県和歌山市鳴神123-1", "url": "https://www.kaigokensaku.mhlw.go.jp/30/index.php?action_kouhyou_detail_004_kani=true&JigyosyoCd=3010110587-00&ServiceCd=140&Type=search", "url2": "http://www.kikyokai.or.jp/" }, "geometry": { "type": "Point", "coordinates": [ 135.2113727, 34.2259269 ] } },
{ "type": "Feature", "properties": { "内容": "綿貫整形外科【訪問リハビリテーション】和歌山県和歌山市北野281番地", "url": "https://www.kaigokensaku.mhlw.go.jp/30/index.php?action_kouhyou_detail_004_kani=true&JigyosyoCd=3010111510-00&ServiceCd=140&Type=search", "url2": "http://watanuki.or.jp/" }, "geometry": { "type": "Point", "coordinates": [ 135.246990200000027, 34.2684988 ] } },
{ "type": "Feature", "properties": { "内容": "うらがみ内科クリニック【訪問リハビリテーション】和歌山県和歌山市加納297-1", "url": "https://www.kaigokensaku.mhlw.go.jp/30/index.php?action_kouhyou_detail_004_kani=true&JigyosyoCd=3010113383-00&ServiceCd=140&Type=search", "url2": "http://uragamiclinic.jp" }, "geometry": { "type": "Point", "coordinates": [ 135.206124300000056, 34.2447192 ] } },
{ "type": "Feature", "properties": { "内容": "宮本医院【訪問リハビリテーション】和歌山県和歌山市西高松1丁目5番36号", "url": "https://www.kaigokensaku.mhlw.go.jp/30/index.php?action_kouhyou_detail_004_kani=true&JigyosyoCd=3010111452-00&ServiceCd=140&Type=search", "url2": "js-miyamoto-iin.jp" }, "geometry": { "type": "Point", "coordinates": [ 135.1712555, 34.2081125 ] } },
{ "type": "Feature", "properties": { "内容": "医療法人　青木整形外科【訪問リハビリテーション】和歌山県和歌山市　布引　763-8", "url": "https://www.kaigokensaku.mhlw.go.jp/30/index.php?action_kouhyou_detail_004_kani=true&JigyosyoCd=3010110934-00&ServiceCd=140&Type=search", "url2": null }, "geometry": { "type": "Point", "coordinates": [ 135.187741, 34.1698246 ] } },
{ "type": "Feature", "properties": { "内容": "医療法人　藤民病院【訪問リハビリテーション】和歌山県和歌山市塩屋３丁目６番２号", "url": "https://www.kaigokensaku.mhlw.go.jp/30/index.php?action_kouhyou_detail_004_kani=true&JigyosyoCd=3010110496-00&ServiceCd=140&Type=search", "url2": "https://www.fujitami.jp/" }, "geometry": { "type": "Point", "coordinates": [ 135.175701299999986, 34.1979731 ] } },
{ "type": "Feature", "properties": { "内容": "老人保健施設エスポワール【訪問リハビリテーション】和歌山県和歌山市船所３９－１", "url": "https://www.kaigokensaku.mhlw.go.jp/30/index.php?action_kouhyou_detail_004_kani=true&JigyosyoCd=3050180086-00&ServiceCd=140&Type=search", "url2": "http://www.nakae.or.jp/" }, "geometry": { "type": "Point", "coordinates": [ 138.252924, 36.204824 ] } },
{ "type": "Feature", "properties": { "内容": "医療法人　福慈会　福外科病院【訪問リハビリテーション】和歌山市和歌浦東3丁目5番31号", "url": "https://www.kaigokensaku.mhlw.go.jp/30/index.php?action_kouhyou_detail_004_kani=true&JigyosyoCd=3010110579-00&ServiceCd=140&Type=search", "url2": "http://www.fukugeka.jp/" }, "geometry": { "type": "Point", "coordinates": [ 135.177608400000054, 34.1891024 ] } },
{ "type": "Feature", "properties": { "内容": "星野クリニック【訪問リハビリテーション】友田町５丁目３２番地", "url": "https://www.kaigokensaku.mhlw.go.jp/30/index.php?action_kouhyou_detail_004_kani=true&JigyosyoCd=3010111502-00&ServiceCd=140&Type=search", "url2": "http://hoshino-cl.com" }, "geometry": { "type": "Point", "coordinates": [ 135.189895400000069, 34.2338726 ] } },
{ "type": "Feature", "properties": { "内容": "伏虎リハビリテーション病院【訪問リハビリテーション】和歌山市畑屋敷東ノ丁１番地", "url": "https://www.kaigokensaku.mhlw.go.jp/30/index.php?action_kouhyou_detail_004_kani=true&JigyosyoCd=3010113680-00&ServiceCd=140&Type=search", "url2": "https://nakatani.wakayama.jp/" }, "geometry": { "type": "Point", "coordinates": [ 135.182810191262831, 34.235402894047503 ] } },
{ "type": "Feature", "properties": { "内容": "瀬藤病院【訪問リハビリテーション】和歌山市岡山丁71", "url": "https://www.kaigokensaku.mhlw.go.jp/30/index.php?action_kouhyou_detail_004_kani=true&JigyosyoCd=3010110454-00&ServiceCd=140&Type=search", "url2": "https://koujin.co/setoh-hp/" }, "geometry": { "type": "Point", "coordinates": [ 135.176235600000041, 34.2266536 ] } },
{ "type": "Feature", "properties": { "内容": "宇治田循環器科内科訪問リハビリテーション事業所【訪問リハビリテーション】和歌山県和歌山市榎原204-8宇治田循環器科内科", "url": "https://www.kaigokensaku.mhlw.go.jp/30/index.php?action_kouhyou_detail_004_kani=true&JigyosyoCd=3010112823-00&ServiceCd=140&Type=search", "url2": "http://www.medi-wel.jp/" }, "geometry": { "type": "Point", "coordinates": [ 135.125382599999966, 34.2541219 ] } },
{ "type": "Feature", "properties": { "内容": "介護老人保健施設　紀伊の里【訪問リハビリテーション】和歌山県和歌山市宇田森275-10", "url": "https://www.kaigokensaku.mhlw.go.jp/30/index.php?action_kouhyou_detail_004_kani=true&JigyosyoCd=3050180102-00&ServiceCd=140&Type=search", "url2": "http://www.kiinosatokiiclinic.com" }, "geometry": { "type": "Point", "coordinates": [ 135.249601200000029, 34.2638825 ] } },
{ "type": "Feature", "properties": { "内容": "医療法人三光会　クリニック三木【訪問リハビリテーション】和歌山市粟250-3", "url": "https://www.kaigokensaku.mhlw.go.jp/30/index.php?action_kouhyou_detail_004_kani=true&JigyosyoCd=3010111973-00&ServiceCd=140&Type=search", "url2": "http://www.sankoukai-ym.jp/service/rehabilitation/" }, "geometry": { "type": "Point", "coordinates": [ 135.173640500000033, 34.2528425 ] } },
{ "type": "Feature", "properties": { "内容": "医療法人真正会　龍神整形外科【訪問リハビリテーション】和歌山市北中島1丁目5番1号", "url": "https://www.kaigokensaku.mhlw.go.jp/30/index.php?action_kouhyou_detail_004_kani=true&JigyosyoCd=3010111635-00&ServiceCd=140&Type=search", "url2": "http://www.ryujin-seikei.com" }, "geometry": { "type": "Point", "coordinates": [ 135.187410099999965, 34.2136666 ] } },
{ "type": "Feature", "properties": { "内容": "医療法人青松会河西田村病院【訪問リハビリテーション】和歌山市島橋東ノ丁1-11", "url": "https://www.kaigokensaku.mhlw.go.jp/30/index.php?action_kouhyou_detail_004_kani=true&JigyosyoCd=3010110769-00&ServiceCd=140&Type=search", "url2": "http://www.seishou-kai.jp/kthp/index.html" }, "geometry": { "type": "Point", "coordinates": [ 135.1504133, 34.242996 ] } },
{ "type": "Feature", "properties": { "内容": "医療法人鶴寿会　酒井内科【訪問リハビリテーション】和歌山県和歌山市加太939-10", "url": "https://www.kaigokensaku.mhlw.go.jp/30/index.php?action_kouhyou_detail_004_kani=true&JigyosyoCd=3010113458-00&ServiceCd=140&Type=search", "url2": "http://kakujyukai.or.jp/" }, "geometry": { "type": "Point", "coordinates": [ 135.0825638, 34.274856 ] } },
{ "type": "Feature", "properties": { "内容": "医療法人　明成会　明成会【訪問リハビリテーション】和歌山県和歌山市北野２８３向井病院", "url": "https://www.kaigokensaku.mhlw.go.jp/30/index.php?action_kouhyou_detail_004_kani=true&JigyosyoCd=3010111288-00&ServiceCd=140&Type=search", "url2": null }, "geometry": { "type": "Point", "coordinates": [ 135.247406, 34.2688039 ] } },
{ "type": "Feature", "properties": { "内容": "社会福祉法人　琴の浦リハビリテーションセンター附属病院　みなし指定訪問リハビリテーション事業所【訪問リハビリテーション】和歌山県和歌山市毛見1451番地", "url": "https://www.kaigokensaku.mhlw.go.jp/30/index.php?action_kouhyou_detail_004_kani=true&JigyosyoCd=3010110413-00&ServiceCd=140&Type=search", "url2": "http://www.kotonoura.or.jp/" }, "geometry": { "type": "Point", "coordinates": [ 135.185449, 34.157981100000015 ] } },
{ "type": "Feature", "properties": { "内容": "医療法人　仁泉会　丸山整形外科【訪問リハビリテーション】和歌山県和歌山市舟大工町１２", "url": "https://www.kaigokensaku.mhlw.go.jp/30/index.php?action_kouhyou_detail_004_kani=true&JigyosyoCd=3010112799-00&ServiceCd=140&Type=search", "url2": "http://www.maruyama-seikei.com" }, "geometry": { "type": "Point", "coordinates": [ 135.169280599999979, 34.234583 ] } },
{ "type": "Feature", "properties": { "内容": "介護老人保健施設パインドーム【訪問リハビリテーション】和歌山市松江東2丁目4-26", "url": "https://www.kaigokensaku.mhlw.go.jp/30/index.php?action_kouhyou_detail_004_kani=true&JigyosyoCd=3050180110-00&ServiceCd=140&Type=search", "url2": "http://www.seishou-kai.jp" }, "geometry": { "type": "Point", "coordinates": [ 135.134781800000042, 34.2453135 ] } },
{ "type": "Feature", "properties": { "内容": "角谷リハビリテーション病院【訪問リハビリテーション】和歌山市納定10-1角谷リハビリテーション病院", "url": "https://www.kaigokensaku.mhlw.go.jp/30/index.php?action_kouhyou_detail_004_kani=true&JigyosyoCd=3010112815-00&ServiceCd=140&Type=search", "url2": "http://www.sumiya.or.jp" }, "geometry": { "type": "Point", "coordinates": [ 135.194722599999977, 34.2399888 ] } },
{ "type": "Feature", "properties": { "内容": "医療法人久仁会　宇都宮病院【訪問リハビリテーション】和歌山県和歌山市鳴神505-4", "url": "https://www.kaigokensaku.mhlw.go.jp/30/index.php?action_kouhyou_detail_004_kani=true&JigyosyoCd=3010110488-00&ServiceCd=140&Type=search", "url2": "http://www.utsunomiya-hospital.com" }, "geometry": { "type": "Point", "coordinates": [ 135.2143503, 34.2272651 ] } },
{ "type": "Feature", "properties": { "内容": "医療法人　友和会　今村病院【訪問リハビリテーション】和歌山県和歌山市砂山南2丁目4番21号", "url": "https://www.kaigokensaku.mhlw.go.jp/30/index.php?action_kouhyou_detail_004_kani=true&JigyosyoCd=3010112963-00&ServiceCd=140&Type=search", "url2": null }, "geometry": { "type": "Point", "coordinates": [ 135.159767126983638, 34.218659579121599 ] } },
{ "type": "Feature", "properties": { "内容": "竹中整形外科・内科【訪問リハビリテーション】和歌山県海南市重根１１－１", "url": "https://www.kaigokensaku.mhlw.go.jp/30/index.php?action_kouhyou_detail_004_kani=true&JigyosyoCd=3011410085-00&ServiceCd=140&Type=search", "url2": "http://www.tenchikukai.jp/" }, "geometry": { "type": "Point", "coordinates": [ 135.239056299999987, 34.1534312 ] } },
{ "type": "Feature", "properties": { "内容": "医療法人琴仁会石本病院【訪問リハビリテーション】和歌山県海南市船尾365番地", "url": "https://www.kaigokensaku.mhlw.go.jp/30/index.php?action_kouhyou_detail_004_kani=true&JigyosyoCd=3011410051-00&ServiceCd=140&Type=search", "url2": "http://www.ishimoto-hospital.jp" }, "geometry": { "type": "Point", "coordinates": [ 135.196001600000045, 34.1595706 ] } },
{ "type": "Feature", "properties": { "内容": "辻秀輝整形外科【訪問リハビリテーション】和歌山県海南市名高178-1", "url": "https://www.kaigokensaku.mhlw.go.jp/30/index.php?action_kouhyou_detail_004_kani=true&JigyosyoCd=3011410143-00&ServiceCd=140&Type=search", "url2": "https://tsujihideki.com/" }, "geometry": { "type": "Point", "coordinates": [ 135.215649699999972, 34.1535723 ] } },
{ "type": "Feature", "properties": { "内容": "さくらクリニック【訪問リハビリテーション】和歌山県海南市名高１４０－１", "url": "https://www.kaigokensaku.mhlw.go.jp/30/index.php?action_kouhyou_detail_004_kani=true&JigyosyoCd=3011410283-00&ServiceCd=140&Type=search", "url2": "http://www.sakuraclinic.org/publics/index/25/" }, "geometry": { "type": "Point", "coordinates": [ 135.220024200000012, 34.1536391 ] } },
{ "type": "Feature", "properties": { "内容": "医療法人　恵友会　恵友病院【訪問リハビリテーション】和歌山県海南市船尾264－2", "url": "https://www.kaigokensaku.mhlw.go.jp/30/index.php?action_kouhyou_detail_004_kani=true&JigyosyoCd=3011410135-00&ServiceCd=140&Type=search", "url2": "http://www.keiyukai.com/main/index.html" }, "geometry": { "type": "Point", "coordinates": [ 135.1992735, 34.159093 ] } },
{ "type": "Feature", "properties": { "内容": "老人保健施設カルフール・ド・ルポ【訪問リハビリテーション】和歌山県海南市築地1-61", "url": "https://www.kaigokensaku.mhlw.go.jp/30/index.php?action_kouhyou_detail_004_kani=true&JigyosyoCd=3051480014-00&ServiceCd=140&Type=search", "url2": "http://www.doujin-kai.or.jp/" }, "geometry": { "type": "Point", "coordinates": [ 135.2109255, 34.1521421 ] } },
{ "type": "Feature", "properties": { "内容": "医療法人　橋本孝祐会　奥野クリニック【訪問リハビリテーション】和歌山県橋本市御幸辻148-1", "url": "https://www.kaigokensaku.mhlw.go.jp/30/index.php?action_kouhyou_detail_004_kani=true&JigyosyoCd=3011010505-00&ServiceCd=140&Type=search", "url2": null }, "geometry": { "type": "Point", "coordinates": [ 135.605581799999982, 34.3369516 ] } },
{ "type": "Feature", "properties": { "内容": "横田整形外科リハビリセンター【訪問リハビリテーション】和歌山県橋本市城山台2-45-14", "url": "https://www.kaigokensaku.mhlw.go.jp/30/index.php?action_kouhyou_detail_004_kani=true&JigyosyoCd=3011010521-00&ServiceCd=140&Type=search", "url2": null }, "geometry": { "type": "Point", "coordinates": [ 135.607261200000011, 34.3484974 ] } },
{ "type": "Feature", "properties": { "内容": "介護老人保健施設グリーンガーデン橋本【訪問リハビリテーション】和歌山県橋本市隅田町山内1919番", "url": "https://www.kaigokensaku.mhlw.go.jp/30/index.php?action_kouhyou_detail_004_kani=true&JigyosyoCd=3051080020-00&ServiceCd=140&Type=search", "url2": "http://keieikai.com" }, "geometry": { "type": "Point", "coordinates": [ 135.6433276, 34.3627121 ] } },
{ "type": "Feature", "properties": { "内容": "医療法人　仁清会　岡本クリニック【訪問リハビリテーション】和歌山県橋本市清水512-7", "url": "https://www.kaigokensaku.mhlw.go.jp/30/index.php?action_kouhyou_detail_004_kani=true&JigyosyoCd=3011010497-00&ServiceCd=140&Type=search", "url2": "http://www.e-okamoto-clinic.com/" }, "geometry": { "type": "Point", "coordinates": [ 135.600371900000027, 34.3072256 ] } },
{ "type": "Feature", "properties": { "内容": "医療法人　岡田整形外科【訪問リハビリテーション】市脇１－４５－２", "url": "https://www.kaigokensaku.mhlw.go.jp/30/index.php?action_kouhyou_detail_004_kani=true&JigyosyoCd=3011010109-00&ServiceCd=140&Type=search", "url2": null }, "geometry": { "type": "Point", "coordinates": [ 135.601193800000033, 34.314672 ] } },
{ "type": "Feature", "properties": { "内容": "医療法人　くりはら会　栗原整形外科【訪問リハビリテーション】和歌山県有田市初島町里1702", "url": "https://www.kaigokensaku.mhlw.go.jp/30/index.php?action_kouhyou_detail_004_kani=true&JigyosyoCd=3011510157-00&ServiceCd=140&Type=search", "url2": null }, "geometry": { "type": "Point", "coordinates": [ 135.117188400000032, 34.0973183 ] } },
{ "type": "Feature", "properties": { "内容": "老人保健施設リバティ博愛【訪問リハビリテーション】和歌山県御坊市名田町野島1番地9", "url": "https://www.kaigokensaku.mhlw.go.jp/30/index.php?action_kouhyou_detail_004_kani=true&JigyosyoCd=3052080011-00&ServiceCd=140&Type=search", "url2": "hakuaikai.net" }, "geometry": { "type": "Point", "coordinates": [ 135.178952699999968, 33.8326171 ] } },
{ "type": "Feature", "properties": { "内容": "社会医療法人黎明会　北出病院【訪問リハビリテーション】御坊市湯川町財部728-4", "url": "https://www.kaigokensaku.mhlw.go.jp/30/index.php?action_kouhyou_detail_004_kani=true&JigyosyoCd=3012010025-00&ServiceCd=140&Type=search", "url2": "http://www.reimeikai.com" }, "geometry": { "type": "Point", "coordinates": [ 135.155107300000026, 33.89699730000001 ] } },
{ "type": "Feature", "properties": { "内容": "医療法人研医会　田辺中央病院【訪問リハビリテーション】和歌山県田辺市南新町147", "url": "https://www.kaigokensaku.mhlw.go.jp/30/index.php?action_kouhyou_detail_004_kani=true&JigyosyoCd=3012210138-00&ServiceCd=140&Type=search", "url2": "http://www.tanabechp.or.jp/" }, "geometry": { "type": "Point", "coordinates": [ 135.379342800000018, 33.7327829 ] } },
{ "type": "Feature", "properties": { "内容": "介護老人保健施設　田辺すみれ苑【訪問リハビリテーション】和歌山県田辺市城山台４番５号", "url": "https://www.kaigokensaku.mhlw.go.jp/30/index.php?action_kouhyou_detail_004_kani=true&JigyosyoCd=3052280033-00&ServiceCd=140&Type=search", "url2": "https://tanabesumire.jp/" }, "geometry": { "type": "Point", "coordinates": [ 135.4268964, 33.7287838 ] } },
{ "type": "Feature", "properties": { "内容": "すずきこどもクリニック　訪問リハビリ紀の風【訪問リハビリテーション】和歌山県新宮市下田２丁目３－２すずきこどもクリニック", "url": "https://www.kaigokensaku.mhlw.go.jp/30/index.php?action_kouhyou_detail_004_kani=true&JigyosyoCd=3012301044-00&ServiceCd=140&Type=search", "url2": "http://www.suzukikodomo.jp/" }, "geometry": { "type": "Point", "coordinates": [ 135.993151602971722, 33.71810192240504 ] } },
{ "type": "Feature", "properties": { "内容": "浜野皮フ科　訪問リハビリテーション【訪問リハビリテーション】和歌山県新宮市井の沢1番28号", "url": "https://www.kaigokensaku.mhlw.go.jp/30/index.php?action_kouhyou_detail_004_kani=true&JigyosyoCd=3012301150-00&ServiceCd=140&Type=search", "url2": null }, "geometry": { "type": "Point", "coordinates": [ 135.991784200000012, 33.7245439 ] } },
{ "type": "Feature", "properties": { "内容": "医療法人　岡整形外科【訪問リハビリテーション】和歌山県紀の川市桃山町市場３８３－１", "url": "https://www.kaigokensaku.mhlw.go.jp/30/index.php?action_kouhyou_detail_004_kani=true&JigyosyoCd=3011710187-00&ServiceCd=140&Type=search", "url2": null }, "geometry": { "type": "Point", "coordinates": [ 135.341245500000014, 34.2407577 ] } },
{ "type": "Feature", "properties": { "内容": "介護老人保健施設みくるま【訪問リハビリテーション】和歌山県紀の川市貴志川町丸栖936-3", "url": "https://www.kaigokensaku.mhlw.go.jp/30/index.php?action_kouhyou_detail_004_kani=true&JigyosyoCd=3071701100-00&ServiceCd=140&Type=search", "url2": "http://www.mikurumakai.or.jp/affiliated/roukenn-2/" }, "geometry": { "type": "Point", "coordinates": [ 135.3273811, 34.2372178 ] } },
{ "type": "Feature", "properties": { "内容": "長雄整形外科【訪問リハビリテーション】下井阪４４７-１", "url": "https://www.kaigokensaku.mhlw.go.jp/30/index.php?action_kouhyou_detail_004_kani=true&JigyosyoCd=3011710096-00&ServiceCd=140&Type=search", "url2": null }, "geometry": { "type": "Point", "coordinates": [ 135.3410925, 34.2572828 ] } },
{ "type": "Feature", "properties": { "内容": "医療法人　慈愛会　勝田胃腸内科外科医院【訪問リハビリテーション】和歌山県紀の川市粉河1916", "url": "https://www.kaigokensaku.mhlw.go.jp/30/index.php?action_kouhyou_detail_004_kani=true&JigyosyoCd=3011710120-00&ServiceCd=140&Type=search", "url2": "http://www.katsuda-ichouka.or.jp" }, "geometry": { "type": "Point", "coordinates": [ 135.4041092, 34.2759549 ] } },
{ "type": "Feature", "properties": { "内容": "貴志川ﾘﾊﾋﾞﾘﾃｰｼｮﾝ病院　訪問リハビリテーション室【訪問リハビリテーション】紀の川市貴志川町丸栖1423-3", "url": "https://www.kaigokensaku.mhlw.go.jp/30/index.php?action_kouhyou_detail_004_kani=true&JigyosyoCd=3011710294-00&ServiceCd=140&Type=search", "url2": "http://www.mikurumakai.or.jp/" }, "geometry": { "type": "Point", "coordinates": [ 135.326949499999955, 34.2408267 ] } },
{ "type": "Feature", "properties": { "内容": "在宅総合ケアセンター赤ひげクリニック【訪問リハビリテーション】和歌山県紀の川市桃山町神田378", "url": "https://www.kaigokensaku.mhlw.go.jp/30/index.php?action_kouhyou_detail_004_kani=true&JigyosyoCd=3011710344-00&ServiceCd=140&Type=search", "url2": "http://www.mikurumakai.or.jp" }, "geometry": { "type": "Point", "coordinates": [ 135.353630599999974, 34.2286317 ] } },
{ "type": "Feature", "properties": { "内容": "こかわリハビリクリニック【訪問リハビリテーション】和歌山県紀の川市粉河451-9", "url": "https://www.kaigokensaku.mhlw.go.jp/30/index.php?action_kouhyou_detail_004_kani=true&JigyosyoCd=3011710393-00&ServiceCd=140&Type=search", "url2": "http://www.mikurumakai.or.jp/affiliated/kokawareha/" }, "geometry": { "type": "Point", "coordinates": [ 135.4093694, 34.2687976 ] } },
{ "type": "Feature", "properties": { "内容": "さくらの丘訪問リハビリテーション【訪問リハビリテーション】和歌山県紀の川市黒土153", "url": "https://www.kaigokensaku.mhlw.go.jp/30/index.php?action_kouhyou_detail_004_kani=true&JigyosyoCd=3071700334-00&ServiceCd=140&Type=search", "url2": "http://www.koyokai.or.jp" }, "geometry": { "type": "Point", "coordinates": [ 135.3798921, 34.2633089 ] } },
{ "type": "Feature", "properties": { "内容": "たま整形外科【訪問リハビリテーション】和歌山県紀の川市貴志川町井ノ口974番地4", "url": "https://www.kaigokensaku.mhlw.go.jp/30/index.php?action_kouhyou_detail_004_kani=true&JigyosyoCd=3011710369-00&ServiceCd=140&Type=search", "url2": "http://www.mikurumakai.or.jp/affiliated/tamaseikeigeka-2-2/" }, "geometry": { "type": "Point", "coordinates": [ 135.3159799, 34.1986885 ] } },
{ "type": "Feature", "properties": { "内容": "ナカイマ整形外科クリニック【訪問リハビリテーション】和歌山県岩出市金池389-1", "url": "https://www.kaigokensaku.mhlw.go.jp/30/index.php?action_kouhyou_detail_004_kani=true&JigyosyoCd=3011810284-00&ServiceCd=140&Type=search", "url2": "www.nakaimaseikei.com" }, "geometry": { "type": "Point", "coordinates": [ 135.28911190773465, 34.276612734661157 ] } },
{ "type": "Feature", "properties": { "内容": "医療法人彌栄会　やよいメディカルクリニック【訪問リハビリテーション】和歌山県岩出市中迫139やよいメディカルクリニック", "url": "https://www.kaigokensaku.mhlw.go.jp/30/index.php?action_kouhyou_detail_004_kani=true&JigyosyoCd=3011810060-00&ServiceCd=140&Type=search", "url2": "http://www.yaeikai.com" }, "geometry": { "type": "Point", "coordinates": [ 135.315836399999966, 34.2612942 ] } },
{ "type": "Feature", "properties": { "内容": "医療法人　光明会　はしもと整形外科【訪問リハビリテーション】岩出市川尻53-1", "url": "https://www.kaigokensaku.mhlw.go.jp/30/index.php?action_kouhyou_detail_004_kani=true&JigyosyoCd=3011810193-00&ServiceCd=140&Type=search", "url2": "https://www.hashimotoseikei-iwade.com/" }, "geometry": { "type": "Point", "coordinates": [ 135.30986489999998, 34.2678381 ] } },
{ "type": "Feature", "properties": { "内容": "天寿苑【訪問リハビリテーション】和歌山県海草郡紀美町下佐々３８５－１", "url": "https://www.kaigokensaku.mhlw.go.jp/30/index.php?action_kouhyou_detail_004_kani=true&JigyosyoCd=3071100360-00&ServiceCd=140&Type=search", "url2": "http://www.tenchikukai.jp/" }, "geometry": { "type": "Point", "coordinates": [ 135.31853209999997, 34.1578068 ] } },
{ "type": "Feature", "properties": { "内容": "国保野上厚生総合病院【訪問リハビリテーション】和歌山県海草郡紀美野町小畑198", "url": "https://www.kaigokensaku.mhlw.go.jp/30/index.php?action_kouhyou_detail_004_kani=true&JigyosyoCd=3011110081-00&ServiceCd=140&Type=search", "url2": "http://www.nokami-hospital.jp/" }, "geometry": { "type": "Point", "coordinates": [ 135.2953344, 34.1636826 ] } },
{ "type": "Feature", "properties": { "内容": "有田南病院【訪問リハビリテーション】有田郡有田川町小島15番地", "url": "https://www.kaigokensaku.mhlw.go.jp/30/index.php?action_kouhyou_detail_004_kani=true&JigyosyoCd=3011610239-00&ServiceCd=140&Type=search", "url2": "http://www.akemikai.or.jp/" }, "geometry": { "type": "Point", "coordinates": [ 135.201197399999955, 34.0679637 ] } },
{ "type": "Feature", "properties": { "内容": "西岡病院【訪問リハビリテーション】和歌山県有田郡有田川町小島278番地１", "url": "https://www.kaigokensaku.mhlw.go.jp/30/index.php?action_kouhyou_detail_004_kani=true&JigyosyoCd=3011610148-00&ServiceCd=140&Type=search", "url2": "http://www>naxnet.or.jp/~ntn1" }, "geometry": { "type": "Point", "coordinates": [ 135.196470099999942, 34.0657832 ] } },
{ "type": "Feature", "properties": { "内容": "介護老人保健施設　和佐の里【訪問リハビリテーション】和歌山県日高郡日高川町和佐2136", "url": "https://www.kaigokensaku.mhlw.go.jp/30/index.php?action_kouhyou_detail_004_kani=true&JigyosyoCd=3052180027-00&ServiceCd=140&Type=search", "url2": "http://reimeikai.com" }, "geometry": { "type": "Point", "coordinates": [ 135.210488899999973, 33.8920159 ] } },
{ "type": "Feature", "properties": { "内容": "訪問リハビリテーション　ルピナス【訪問リハビリテーション】和歌山県東牟婁郡那智勝浦町宇久井714-3", "url": "https://www.kaigokensaku.mhlw.go.jp/30/index.php?action_kouhyou_detail_004_kani=true&JigyosyoCd=3072500469-00&ServiceCd=140&Type=search", "url2": "http://rupinasu.jp" }, "geometry": { "type": "Point", "coordinates": [ 135.982915600000069, 33.6594993 ] } },
{ "type": "Feature", "properties": { "内容": "老人保健施設　あじさい苑【訪問リハビリテーション】和歌山県東牟婁郡古座川町高瀬415", "url": "https://www.kaigokensaku.mhlw.go.jp/30/index.php?action_kouhyou_detail_004_kani=true&JigyosyoCd=3072501129-00&ServiceCd=140&Type=search", "url2": null }, "geometry": { "type": "Point", "coordinates": [ 135.7795559, 33.5355443 ] } },
{ "type": "Feature", "properties": { "内容": "国保　北山村診療所【訪問リハビリテーション】和歌山県東牟婁郡北山村大沼312", "url": "https://www.kaigokensaku.mhlw.go.jp/30/index.php?action_kouhyou_detail_004_kani=true&JigyosyoCd=3012510370-00&ServiceCd=140&Type=search", "url2": null }, "geometry": { "type": "Point", "coordinates": [ 135.9671054, 33.9292118 ] } },
{ "type": "Feature", "properties": { "内容": "こしみちクリニック【訪問リハビリテーション】和歌山県東牟婁郡串本町鬮野川1356-4", "url": "https://www.kaigokensaku.mhlw.go.jp/30/index.php?action_kouhyou_detail_004_kani=true&JigyosyoCd=3012510651-00&ServiceCd=140&Type=search", "url2": "http://koshimichi-cl.com" }, "geometry": { "type": "Point", "coordinates": [ 135.7912547, 33.4859276 ] } }
]
}
