{
"type": "FeatureCollection",
"name": "geo_30_地域密着型特定施設入居者生活介護（軽費老人ホーム）",
"crs": { "type": "name", "properties": { "name": "urn:ogc:def:crs:OGC:1.3:CRS84" } },
"features": [
{ "type": "Feature", "properties": { "内容": "ケアハウス　竹の里園【地域密着型特定施設入居者生活介護（軽費老人ホーム）】和歌山市明王寺１１", "url": "https://www.kaigokensaku.mhlw.go.jp/30/index.php?action_kouhyou_detail_004_kani=true&JigyosyoCd=3090100359-00&ServiceCd=362&Type=search", "url2": "https://www.takenosatoen.jp" }, "geometry": { "type": "Point", "coordinates": [ 135.254779823981494, 34.213966925641657 ] } },
{ "type": "Feature", "properties": { "内容": "ケアハウス愛宕苑【地域密着型特定施設入居者生活介護（軽費老人ホーム）】和歌山県有田市港町９－１", "url": "https://www.kaigokensaku.mhlw.go.jp/30/index.php?action_kouhyou_detail_004_kani=true&JigyosyoCd=3091500037-00&ServiceCd=362&Type=search", "url2": "http://shukohkai.or.jp/" }, "geometry": { "type": "Point", "coordinates": [ 135.114286099999958, 34.0892137 ] } },
{ "type": "Feature", "properties": { "内容": "ケアハウス　はまゆう園【地域密着型特定施設入居者生活介護（軽費老人ホーム）】新宮市井の沢10-13", "url": "https://www.kaigokensaku.mhlw.go.jp/30/index.php?action_kouhyou_detail_004_kani=true&JigyosyoCd=3092300015-00&ServiceCd=362&Type=search", "url2": "http://www.hamayuen.com/" }, "geometry": { "type": "Point", "coordinates": [ 135.990549699999974, 33.7218995 ] } },
{ "type": "Feature", "properties": { "内容": "ケアハウス「湯ごりの郷」【地域密着型特定施設入居者生活介護（軽費老人ホーム）】和歌山県東牟婁郡那智勝浦町湯川６１番地高瀬会地域密着型バーデンライフ・ケアセンター湯ごりの郷", "url": "https://www.kaigokensaku.mhlw.go.jp/30/index.php?action_kouhyou_detail_004_kani=true&JigyosyoCd=3092500085-00&ServiceCd=362&Type=search", "url2": "http://www.takasekai.or.jp/" }, "geometry": { "type": "Point", "coordinates": [ 135.926895899999977, 33.6192971 ] } }
]
}
