{
"type": "FeatureCollection",
"name": "geo_30_大学",
"crs": { "type": "name", "properties": { "name": "urn:ogc:def:crs:EPSG::6668" } },
"features": [
{ "type": "Feature", "properties": { "P29_001": "30201", "P29_002": "F130110109356", "P29_003": "16007", "P29_004": "和歌山大学", "P29_005": "和歌山県和歌山市栄谷930", "P29_006": "1", "P29_007": "0", "P29_008": "00", "P29_009": null }, "geometry": { "type": "Point", "coordinates": [ 135.15205932145679, 34.266593357302341 ] } },
{ "type": "Feature", "properties": { "P29_001": "30201", "P29_002": "F130210109363", "P29_003": "16007", "P29_004": "和歌山県立医科大学", "P29_005": "和歌山県和歌山市紀三井寺811-1", "P29_006": "2", "P29_007": "0", "P29_008": "01", "P29_009": "紀三井寺キャンパス" }, "geometry": { "type": "Point", "coordinates": [ 135.182073080167129, 34.18831522201863 ] } },
{ "type": "Feature", "properties": { "P29_001": "30344", "P29_002": "F130310109370", "P29_003": "16007", "P29_004": "高野山大学", "P29_005": "和歌山県伊都郡高野町高野山385", "P29_006": "4", "P29_007": "0", "P29_008": "00", "P29_009": null }, "geometry": { "type": "Point", "coordinates": [ 135.585383259802313, 34.212040566688266 ] } },
{ "type": "Feature", "properties": { "P29_001": "30201", "P29_002": "F130310109389", "P29_003": "16007", "P29_004": "和歌山信愛大学", "P29_005": "和歌山県和歌山市住吉町1", "P29_006": "4", "P29_007": "0", "P29_008": "00", "P29_009": null }, "geometry": { "type": "Point", "coordinates": [ 135.176061872484468, 34.237018553630683 ] } },
{ "type": "Feature", "properties": { "P29_001": "30201", "P29_002": "F130310111919", "P29_003": "16007", "P29_004": "和歌山リハビリテーション専門職大学", "P29_005": "和歌山県和歌山市湊本町3-1", "P29_006": "4", "P29_007": "0", "P29_008": "00", "P29_009": null }, "geometry": { "type": "Point", "coordinates": [ 135.163462896078016, 34.233689690542619 ] } },
{ "type": "Feature", "properties": { "P29_001": "30201", "P29_002": "F113310104009", "P29_003": "16007", "P29_004": "東京医療保健大学", "P29_005": "和歌山県和歌山市東坂ノ上丁3", "P29_006": "4", "P29_007": "0", "P29_008": "06", "P29_009": "雄湊キャンパス" }, "geometry": { "type": "Point", "coordinates": [ 135.166155314956711, 34.228067860044227 ] } },
{ "type": "Feature", "properties": { "P29_001": "30201", "P29_002": "F113310104009", "P29_003": "16007", "P29_004": "東京医療保健大学", "P29_005": "和歌山県和歌山市小松原通4-20", "P29_006": "4", "P29_007": "0", "P29_008": "07", "P29_009": "日赤和歌山医療センターキャンパス" }, "geometry": { "type": "Point", "coordinates": [ 135.168490802863431, 34.220210042994019 ] } },
{ "type": "Feature", "properties": { "P29_001": "30208", "P29_002": "F127310108116", "P29_003": "16007", "P29_004": "近畿大学", "P29_005": "和歌山県紀の川市西三谷930", "P29_006": "4", "P29_007": "0", "P29_008": "04", "P29_009": "和歌山キャンパス" }, "geometry": { "type": "Point", "coordinates": [ 135.337254881410189, 34.288906288510361 ] } },
{ "type": "Feature", "properties": { "P29_001": "30201", "P29_002": "F130210109363", "P29_003": "16007", "P29_004": "和歌山県立医科大学", "P29_005": "和歌山県和歌山市三葛580", "P29_006": "2", "P29_007": "0", "P29_008": "02", "P29_009": "三葛キャンパス" }, "geometry": { "type": "Point", "coordinates": [ 135.190665495099324, 34.195210042994013 ] } },
{ "type": "Feature", "properties": { "P29_001": "30201", "P29_002": "F130210109363", "P29_003": "16007", "P29_004": "和歌山県立医科大学", "P29_005": "和歌山県和歌山市七番丁25-1", "P29_006": "2", "P29_007": "0", "P29_008": "03", "P29_009": "伏虎キャンパス" }, "geometry": { "type": "Point", "coordinates": [ 135.172076674472294, 34.230746460486429 ] } }
]
}
