{
"type": "FeatureCollection",
"name": "geo_30_通所リハビリテーション",
"crs": { "type": "name", "properties": { "name": "urn:ogc:def:crs:OGC:1.3:CRS84" } },
"features": [
{ "type": "Feature", "properties": { "内容": "井上整形外科・内科【通所リハビリテーション】和歌山市小人町南ノ丁２０番地", "url": "https://www.kaigokensaku.mhlw.go.jp/30/index.php?action_kouhyou_detail_004_kani=true&JigyosyoCd=3010113391-00&ServiceCd=160&Type=search", "url2": null }, "geometry": { "type": "Point", "coordinates": [ 135.16620869999997, 34.2294585 ] } },
{ "type": "Feature", "properties": { "内容": "伏虎リハビリテーション病院【通所リハビリテーション】和歌山市屋形町1丁目11番地", "url": "https://www.kaigokensaku.mhlw.go.jp/30/index.php?action_kouhyou_detail_004_kani=true&JigyosyoCd=3010110512-00&ServiceCd=160&Type=search", "url2": "https://nakatani.wakayama.jp" }, "geometry": { "type": "Point", "coordinates": [ 135.1771453, 34.231369200000024 ] } },
{ "type": "Feature", "properties": { "内容": "和歌山生協病院附属診療所【通所リハビリテーション】和歌山市有本１４１－１", "url": "https://www.kaigokensaku.mhlw.go.jp/30/index.php?action_kouhyou_detail_004_kani=true&JigyosyoCd=3010112575-00&ServiceCd=160&Type=search", "url2": "http://www.wakayama-coop-h.com/" }, "geometry": { "type": "Point", "coordinates": [ 135.196717501049761, 34.245096051590686 ] } },
{ "type": "Feature", "properties": { "内容": "通所リハビリテーションふじと台花水木【通所リハビリテーション】和歌山県和歌山市ふじと台６番地エスタシオンふじと台駅前ビル東棟３階", "url": "https://www.kaigokensaku.mhlw.go.jp/30/index.php?action_kouhyou_detail_004_kani=true&JigyosyoCd=3070114859-00&ServiceCd=160&Type=search", "url2": "https://fujitodai-clinic.jp" }, "geometry": { "type": "Point", "coordinates": [ 135.1474191, 34.2764406 ] } },
{ "type": "Feature", "properties": { "内容": "医療法人優進会　寺下整形外科・内科【通所リハビリテーション】和歌山市三木町南ノ丁３５", "url": "https://www.kaigokensaku.mhlw.go.jp/30/index.php?action_kouhyou_detail_004_kani=true&JigyosyoCd=3010112088-00&ServiceCd=160&Type=search", "url2": "https://terashita-seikeigeka.com/" }, "geometry": { "type": "Point", "coordinates": [ 135.178841, 34.229678 ] } },
{ "type": "Feature", "properties": { "内容": "嶋本脳神経外科内科【通所リハビリテーション】和歌山市西浜921-4", "url": "https://www.kaigokensaku.mhlw.go.jp/30/index.php?action_kouhyou_detail_004_kani=true&JigyosyoCd=3010107765-00&ServiceCd=160&Type=search", "url2": null }, "geometry": { "type": "Point", "coordinates": [ 135.15849, 34.201472699999989 ] } },
{ "type": "Feature", "properties": { "内容": "医療法人裕紫会　中谷病院【通所リハビリテーション】和歌山県和歌山市鳴神123番地の1", "url": "https://www.kaigokensaku.mhlw.go.jp/30/index.php?action_kouhyou_detail_004_kani=true&JigyosyoCd=3010110587-00&ServiceCd=160&Type=search", "url2": "http://www.kikyokai.or.jp/" }, "geometry": { "type": "Point", "coordinates": [ 135.2113896, 34.2259932 ] } },
{ "type": "Feature", "properties": { "内容": "医療法人三光会　クリニック三木【通所リハビリテーション】和歌山県和歌山市粟２５０ー3", "url": "https://www.kaigokensaku.mhlw.go.jp/30/index.php?action_kouhyou_detail_004_kani=true&JigyosyoCd=3010111973-00&ServiceCd=160&Type=search", "url2": null }, "geometry": { "type": "Point", "coordinates": [ 135.173635600000011, 34.2528146 ] } },
{ "type": "Feature", "properties": { "内容": "医療法人療明会半羽胃腸病院【通所リハビリテーション】和歌山県和歌山市堀止南ノ丁4-11", "url": "https://www.kaigokensaku.mhlw.go.jp/30/index.php?action_kouhyou_detail_004_kani=true&JigyosyoCd=3010111049-00&ServiceCd=160&Type=search", "url2": "www.hanbahp.com/index.htm" }, "geometry": { "type": "Point", "coordinates": [ 135.171508499999959, 34.2121107 ] } },
{ "type": "Feature", "properties": { "内容": "西和歌山病院【通所リハビリテーション】和歌山市土入176", "url": "https://www.kaigokensaku.mhlw.go.jp/30/index.php?action_kouhyou_detail_004_kani=true&JigyosyoCd=3010110793-00&ServiceCd=160&Type=search", "url2": "http://www.nishiwaka.or.jp" }, "geometry": { "type": "Point", "coordinates": [ 135.140248400000019, 34.2530556 ] } },
{ "type": "Feature", "properties": { "内容": "ほしの整形外科【通所リハビリテーション】善明寺302-1", "url": "https://www.kaigokensaku.mhlw.go.jp/30/index.php?action_kouhyou_detail_004_kani=true&JigyosyoCd=3010151904-00&ServiceCd=160&Type=search", "url2": null }, "geometry": { "type": "Point", "coordinates": [ 135.186737312966898, 34.261572782451275 ] } },
{ "type": "Feature", "properties": { "内容": "宮本医院【通所リハビリテーション】和歌山市西高松１－５－３６", "url": "https://www.kaigokensaku.mhlw.go.jp/30/index.php?action_kouhyou_detail_004_kani=true&JigyosyoCd=3010111452-00&ServiceCd=160&Type=search", "url2": null }, "geometry": { "type": "Point", "coordinates": [ 135.171303, 34.2081112 ] } },
{ "type": "Feature", "properties": { "内容": "医療法人一穂会　武用整形外科【通所リハビリテーション】和歌山県和歌山市鳴神1005番地", "url": "https://www.kaigokensaku.mhlw.go.jp/30/index.php?action_kouhyou_detail_004_kani=true&JigyosyoCd=3010111122-00&ServiceCd=160&Type=search", "url2": "buyo.jp" }, "geometry": { "type": "Point", "coordinates": [ 135.20813279999993, 34.2306845 ] } },
{ "type": "Feature", "properties": { "内容": "介護老人保健施設和歌川苑【通所リハビリテーション】和歌山県和歌山市和歌川町5番44号", "url": "https://www.kaigokensaku.mhlw.go.jp/30/index.php?action_kouhyou_detail_004_kani=true&JigyosyoCd=3050180029-00&ServiceCd=160&Type=search", "url2": "http://www.wachuohp.or.jp/wakagawaen" }, "geometry": { "type": "Point", "coordinates": [ 135.177666600000066, 34.1944102 ] } },
{ "type": "Feature", "properties": { "内容": "角谷リハビリテーション病院【通所リハビリテーション】和歌山市納定10-1デイケア　すみや", "url": "https://www.kaigokensaku.mhlw.go.jp/30/index.php?action_kouhyou_detail_004_kani=true&JigyosyoCd=3010112815-00&ServiceCd=160&Type=search", "url2": "http://www.sumiya.ne.jp" }, "geometry": { "type": "Point", "coordinates": [ 135.194722599999977, 34.2399888 ] } },
{ "type": "Feature", "properties": { "内容": "和歌山生協病院【通所リハビリテーション】和歌山市有本１４３－１", "url": "https://www.kaigokensaku.mhlw.go.jp/30/index.php?action_kouhyou_detail_004_kani=true&JigyosyoCd=3010110637-00&ServiceCd=160&Type=search", "url2": "http://www.wakayama-coop-h.com/" }, "geometry": { "type": "Point", "coordinates": [ 135.197833299999957, 34.2455661 ] } },
{ "type": "Feature", "properties": { "内容": "老人保健施設エスポワール【通所リハビリテーション】和歌山市船所３９－１", "url": "https://www.kaigokensaku.mhlw.go.jp/30/index.php?action_kouhyou_detail_004_kani=true&JigyosyoCd=3050180086-00&ServiceCd=160&Type=search", "url2": "http://www.nakae.or.jp/" }, "geometry": { "type": "Point", "coordinates": [ 135.181267700000035, 34.2547481 ] } },
{ "type": "Feature", "properties": { "内容": "介護老人保健施設　かまやま苑【通所リハビリテーション】和歌山市和田３５０", "url": "https://www.kaigokensaku.mhlw.go.jp/30/index.php?action_kouhyou_detail_004_kani=true&JigyosyoCd=3050180045-00&ServiceCd=160&Type=search", "url2": null }, "geometry": { "type": "Point", "coordinates": [ 135.205906, 34.2008988 ] } },
{ "type": "Feature", "properties": { "内容": "医療法人福慈会　福外科病院【通所リハビリテーション】和歌山県和歌山市和歌浦東3-5-31", "url": "https://www.kaigokensaku.mhlw.go.jp/30/index.php?action_kouhyou_detail_004_kani=true&JigyosyoCd=3010110579-00&ServiceCd=160&Type=search", "url2": "http://www.fukugeka.jp/" }, "geometry": { "type": "Point", "coordinates": [ 135.1776719, 34.1890768 ] } },
{ "type": "Feature", "properties": { "内容": "十一番丁てらしたクリニック【通所リハビリテーション】和歌山市十一番丁18", "url": "https://www.kaigokensaku.mhlw.go.jp/30/index.php?action_kouhyou_detail_004_kani=true&JigyosyoCd=3010113417-00&ServiceCd=160&Type=search", "url2": "www.kyowa.ac.jp/terashitaclinic" }, "geometry": { "type": "Point", "coordinates": [ 135.1757328, 34.2321946 ] } },
{ "type": "Feature", "properties": { "内容": "医療法人真正会　龍神整形外科【通所リハビリテーション】北中島1丁目5番1号", "url": "https://www.kaigokensaku.mhlw.go.jp/30/index.php?action_kouhyou_detail_004_kani=true&JigyosyoCd=3010111635-00&ServiceCd=160&Type=search", "url2": "http://ｗｗｗ.ryujin-cl.jp" }, "geometry": { "type": "Point", "coordinates": [ 135.187410099999965, 34.2136666 ] } },
{ "type": "Feature", "properties": { "内容": "医療法人　泰伸会　きのしたクリニック【通所リハビリテーション】和歌山市禰宜970-1", "url": "https://www.kaigokensaku.mhlw.go.jp/30/index.php?action_kouhyou_detail_004_kani=true&JigyosyoCd=3010112831-00&ServiceCd=160&Type=search", "url2": "http://www.taishin-kinoshita.or.jp" }, "geometry": { "type": "Point", "coordinates": [ 135.2485603, 34.2349901 ] } },
{ "type": "Feature", "properties": { "内容": "医療法人サン　山東整形外科肛門科医院【通所リハビリテーション】和歌山県和歌山市和田1202-5", "url": "https://www.kaigokensaku.mhlw.go.jp/30/index.php?action_kouhyou_detail_004_kani=true&JigyosyoCd=3010112583-00&ServiceCd=160&Type=search", "url2": null }, "geometry": { "type": "Point", "coordinates": [ 135.208933399999978, 34.207348 ] } },
{ "type": "Feature", "properties": { "内容": "綿貫デイケアセンター【通所リハビリテーション】和歌山市北野字川原田285番地", "url": "https://www.kaigokensaku.mhlw.go.jp/30/index.php?action_kouhyou_detail_004_kani=true&JigyosyoCd=3010113375-00&ServiceCd=160&Type=search", "url2": null }, "geometry": { "type": "Point", "coordinates": [ 135.246990200000027, 34.2684988 ] } },
{ "type": "Feature", "properties": { "内容": "医療法人青松会河西田村病院通所リハビリテーション青空【通所リハビリテーション】和歌山市島橋東ノ丁1-11", "url": "https://www.kaigokensaku.mhlw.go.jp/30/index.php?action_kouhyou_detail_004_kani=true&JigyosyoCd=3070103621-00&ServiceCd=160&Type=search", "url2": "http://www.seisho-kai.jp" }, "geometry": { "type": "Point", "coordinates": [ 135.150337199999967, 34.2430012 ] } },
{ "type": "Feature", "properties": { "内容": "ラ・エスペランサ【通所リハビリテーション】和歌山市中島192番地", "url": "https://www.kaigokensaku.mhlw.go.jp/30/index.php?action_kouhyou_detail_004_kani=true&JigyosyoCd=3050180078-00&ServiceCd=160&Type=search", "url2": "http://www.la-esperanza.or.jp" }, "geometry": { "type": "Point", "coordinates": [ 135.186302, 34.2076923 ] } },
{ "type": "Feature", "properties": { "内容": "伏虎リハビリテーション病院【通所リハビリテーション】和歌山県和歌山市畑屋敷東ノ丁１番地", "url": "https://www.kaigokensaku.mhlw.go.jp/30/index.php?action_kouhyou_detail_004_kani=true&JigyosyoCd=3010113680-00&ServiceCd=160&Type=search", "url2": "https://nakatani.wakayama.jp/" }, "geometry": { "type": "Point", "coordinates": [ 135.182799462426772, 34.235336369891478 ] } },
{ "type": "Feature", "properties": { "内容": "瀬藤病院【通所リハビリテーション】和歌山市岡山丁７１", "url": "https://www.kaigokensaku.mhlw.go.jp/30/index.php?action_kouhyou_detail_004_kani=true&JigyosyoCd=3010110454-00&ServiceCd=160&Type=search", "url2": "https://koujin.co/setoh-hp/" }, "geometry": { "type": "Point", "coordinates": [ 135.176235600000041, 34.2266536 ] } },
{ "type": "Feature", "properties": { "内容": "宇治田循環器科内科通所リハビリテーション事業所【通所リハビリテーション】和歌山県和歌山市榎原204-8宇治田循環器科内科", "url": "https://www.kaigokensaku.mhlw.go.jp/30/index.php?action_kouhyou_detail_004_kani=true&JigyosyoCd=3010112823-00&ServiceCd=160&Type=search", "url2": "http://www.medi-wel.jp" }, "geometry": { "type": "Point", "coordinates": [ 135.125446499999953, 34.2541005 ] } },
{ "type": "Feature", "properties": { "内容": "紀伊の里【通所リハビリテーション】和歌山市宇田森２７５－１０", "url": "https://www.kaigokensaku.mhlw.go.jp/30/index.php?action_kouhyou_detail_004_kani=true&JigyosyoCd=3050180102-00&ServiceCd=160&Type=search", "url2": "http://www.kiinosatokiiclinic.com" }, "geometry": { "type": "Point", "coordinates": [ 135.249601200000029, 34.2638825 ] } },
{ "type": "Feature", "properties": { "内容": "介護老人保健施設　こすも【通所リハビリテーション】和歌山市つつじが丘７丁目３－２", "url": "https://www.kaigokensaku.mhlw.go.jp/30/index.php?action_kouhyou_detail_004_kani=true&JigyosyoCd=3050180136-00&ServiceCd=160&Type=search", "url2": "http://www.cosumo-wakayama.jp" }, "geometry": { "type": "Point", "coordinates": [ 135.099466900000039, 34.2653094 ] } },
{ "type": "Feature", "properties": { "内容": "医療法人鶴寿会　デイケアさかい【通所リハビリテーション】加太939-10", "url": "https://www.kaigokensaku.mhlw.go.jp/30/index.php?action_kouhyou_detail_004_kani=true&JigyosyoCd=3010113458-00&ServiceCd=160&Type=search", "url2": "https://kakujyukai.or.jp/" }, "geometry": { "type": "Point", "coordinates": [ 135.082542500000045, 34.2748498 ] } },
{ "type": "Feature", "properties": { "内容": "介護老人保健施設　サニーホーム【通所リハビリテーション】和歌山市毛見１４５１番地", "url": "https://www.kaigokensaku.mhlw.go.jp/30/index.php?action_kouhyou_detail_004_kani=true&JigyosyoCd=3050180037-00&ServiceCd=160&Type=search", "url2": "http://www.kotonoura.or.jp" }, "geometry": { "type": "Point", "coordinates": [ 135.186071737573258, 34.158337781514042 ] } },
{ "type": "Feature", "properties": { "内容": "医療法人　光愛心　まつやま整形外科クリニック【通所リハビリテーション】和歌山県和歌山市里86-1", "url": "https://www.kaigokensaku.mhlw.go.jp/30/index.php?action_kouhyou_detail_004_kani=true&JigyosyoCd=3010113342-00&ServiceCd=160&Type=search", "url2": "www.matsuyama-orthop.com" }, "geometry": { "type": "Point", "coordinates": [ 135.2638141, 34.2638327 ] } },
{ "type": "Feature", "properties": { "内容": "デイケア　アクア【通所リハビリテーション】和歌山県和歌山市舟大工町１２", "url": "https://www.kaigokensaku.mhlw.go.jp/30/index.php?action_kouhyou_detail_004_kani=true&JigyosyoCd=3070105501-00&ServiceCd=160&Type=search", "url2": "http://maruyama-seikei.com" }, "geometry": { "type": "Point", "coordinates": [ 135.16924169999993, 34.2345524 ] } },
{ "type": "Feature", "properties": { "内容": "介護老人保健施設パインドーム【通所リハビリテーション】和歌山市松江東2丁目4-26", "url": "https://www.kaigokensaku.mhlw.go.jp/30/index.php?action_kouhyou_detail_004_kani=true&JigyosyoCd=3050180110-00&ServiceCd=160&Type=search", "url2": "http://www.seishou-kai.jp" }, "geometry": { "type": "Point", "coordinates": [ 135.134748899999977, 34.2453203 ] } },
{ "type": "Feature", "properties": { "内容": "今村病院【通所リハビリテーション】和歌山県和歌山市砂山南２丁目４番２１号", "url": "https://www.kaigokensaku.mhlw.go.jp/30/index.php?action_kouhyou_detail_004_kani=true&JigyosyoCd=3010112963-00&ServiceCd=160&Type=search", "url2": "https://www.imamura.or.jp" }, "geometry": { "type": "Point", "coordinates": [ 135.159781, 34.21859580000001 ] } },
{ "type": "Feature", "properties": { "内容": "医療法人甃友会介護老人保健施設光苑【通所リハビリテーション】和歌山市秋月５６８－７", "url": "https://www.kaigokensaku.mhlw.go.jp/30/index.php?action_kouhyou_detail_004_kani=true&JigyosyoCd=3050180011-00&ServiceCd=160&Type=search", "url2": "http://www.syuyukai.com" }, "geometry": { "type": "Point", "coordinates": [ 135.2026667, 34.2267237 ] } },
{ "type": "Feature", "properties": { "内容": "介護老人保健施設光苑ケアセンター【通所リハビリテーション】和歌山市秋月５３５－３", "url": "https://www.kaigokensaku.mhlw.go.jp/30/index.php?action_kouhyou_detail_004_kani=true&JigyosyoCd=3050180128-00&ServiceCd=160&Type=search", "url2": "http://www.syuyukai.com" }, "geometry": { "type": "Point", "coordinates": [ 135.20356670000001, 34.2255294 ] } },
{ "type": "Feature", "properties": { "内容": "医療法人橋本病院【通所リハビリテーション】和歌山市堀止南ノ丁4-31", "url": "https://www.kaigokensaku.mhlw.go.jp/30/index.php?action_kouhyou_detail_004_kani=true&JigyosyoCd=3010110116-00&ServiceCd=160&Type=search", "url2": "http://www.naxnet.or.jp/~hasimoto/" }, "geometry": { "type": "Point", "coordinates": [ 135.17078349999997, 34.2122718 ] } },
{ "type": "Feature", "properties": { "内容": "竹中整形外科・内科【通所リハビリテーション】和歌山県海南市重根11-1", "url": "https://www.kaigokensaku.mhlw.go.jp/30/index.php?action_kouhyou_detail_004_kani=true&JigyosyoCd=3011410085-00&ServiceCd=160&Type=search", "url2": "http://www.tenchikukai.jp/" }, "geometry": { "type": "Point", "coordinates": [ 135.239056299999987, 34.1534312 ] } },
{ "type": "Feature", "properties": { "内容": "医療法人琴仁会石本病院【通所リハビリテーション】和歌山県海南市船尾365番地", "url": "https://www.kaigokensaku.mhlw.go.jp/30/index.php?action_kouhyou_detail_004_kani=true&JigyosyoCd=3011410051-00&ServiceCd=160&Type=search", "url2": "http://ishimoto-hospital.jp" }, "geometry": { "type": "Point", "coordinates": [ 135.195652912828109, 34.159588355728083 ] } },
{ "type": "Feature", "properties": { "内容": "さくらデイケアセンター【通所リハビリテーション】和歌山県海南市鳥居１－１", "url": "https://www.kaigokensaku.mhlw.go.jp/30/index.php?action_kouhyou_detail_004_kani=true&JigyosyoCd=3071400786-00&ServiceCd=160&Type=search", "url2": "http://www.sakuraclinic.org/publics/index/21/" }, "geometry": { "type": "Point", "coordinates": [ 135.220002287692637, 34.153449733677924 ] } },
{ "type": "Feature", "properties": { "内容": "老人保健施設　恵友サザンホーム【通所リハビリテーション】和歌山県海南市下津町小南125番地老人保健施設恵友サザンホーム", "url": "https://www.kaigokensaku.mhlw.go.jp/30/index.php?action_kouhyou_detail_004_kani=true&JigyosyoCd=3051180028-00&ServiceCd=160&Type=search", "url2": "http://www.keiyukai.com/main/index.html" }, "geometry": { "type": "Point", "coordinates": [ 135.168096099999957, 34.127952 ] } },
{ "type": "Feature", "properties": { "内容": "秀リハビリセンター【通所リハビリテーション】名高１７８-１", "url": "https://www.kaigokensaku.mhlw.go.jp/30/index.php?action_kouhyou_detail_004_kani=true&JigyosyoCd=3011410143-00&ServiceCd=160&Type=search", "url2": "http://tsujihideki.com" }, "geometry": { "type": "Point", "coordinates": [ 135.215649699999972, 34.1535723 ] } },
{ "type": "Feature", "properties": { "内容": "老人保健施設恵友ライフケアーセンター【通所リハビリテーション】和歌山県海南市船尾265-15", "url": "https://www.kaigokensaku.mhlw.go.jp/30/index.php?action_kouhyou_detail_004_kani=true&JigyosyoCd=3051480022-00&ServiceCd=160&Type=search", "url2": "http://www.keiyukai.com/main/index.html" }, "geometry": { "type": "Point", "coordinates": [ 135.198998500000016, 34.1594902 ] } },
{ "type": "Feature", "properties": { "内容": "辻整形外科【通所リハビリテーション】築地１－５０", "url": "https://www.kaigokensaku.mhlw.go.jp/30/index.php?action_kouhyou_detail_004_kani=true&JigyosyoCd=3011410101-00&ServiceCd=160&Type=search", "url2": "http://www.doujin-kai.or.jp/index.html" }, "geometry": { "type": "Point", "coordinates": [ 135.210416900000041, 34.1525666 ] } },
{ "type": "Feature", "properties": { "内容": "老人保健施設カルフール・ド・ルポ【通所リハビリテーション】和歌山県海南市築地１－６１", "url": "https://www.kaigokensaku.mhlw.go.jp/30/index.php?action_kouhyou_detail_004_kani=true&JigyosyoCd=3051480014-00&ServiceCd=160&Type=search", "url2": "http://www.doujin-kai.or.jp/" }, "geometry": { "type": "Point", "coordinates": [ 135.2108002, 34.1521223 ] } },
{ "type": "Feature", "properties": { "内容": "医療法人南労会　みどりクリニック【通所リハビリテーション】橋本市岸上２２－１", "url": "https://www.kaigokensaku.mhlw.go.jp/30/index.php?action_kouhyou_detail_004_kani=true&JigyosyoCd=3011010174-00&ServiceCd=160&Type=search", "url2": "http://www.nanroukai.or.jp" }, "geometry": { "type": "Point", "coordinates": [ 135.582096099999944, 34.3056644 ] } },
{ "type": "Feature", "properties": { "内容": "介護老人保健施設グリーンガーデン橋本【通所リハビリテーション】和歌山県橋本市隅田町山内字栢谷１９１９番", "url": "https://www.kaigokensaku.mhlw.go.jp/30/index.php?action_kouhyou_detail_004_kani=true&JigyosyoCd=3051080020-00&ServiceCd=160&Type=search", "url2": "http://keieikai.com" }, "geometry": { "type": "Point", "coordinates": [ 135.648363600000039, 34.3545762 ] } },
{ "type": "Feature", "properties": { "内容": "紀和リハビリ倶楽部【通所リハビリテーション】和歌山県橋本市神野々1103", "url": "https://www.kaigokensaku.mhlw.go.jp/30/index.php?action_kouhyou_detail_004_kani=true&JigyosyoCd=3071000487-00&ServiceCd=160&Type=search", "url2": "http://www.nanroukai.or.jp" }, "geometry": { "type": "Point", "coordinates": [ 135.581744445368912, 34.306051656624405 ] } },
{ "type": "Feature", "properties": { "内容": "介護老人保健施設メディケアはしもと【通所リハビリテーション】橋本市神野々877-1", "url": "https://www.kaigokensaku.mhlw.go.jp/30/index.php?action_kouhyou_detail_004_kani=true&JigyosyoCd=3051080004-00&ServiceCd=160&Type=search", "url2": "http://www.shitsugu.or.jp" }, "geometry": { "type": "Point", "coordinates": [ 135.57978520000006, 34.3064504 ] } },
{ "type": "Feature", "properties": { "内容": "医療法人　仁清会　岡本クリニック【通所リハビリテーション】和歌山県橋本市清水512-7", "url": "https://www.kaigokensaku.mhlw.go.jp/30/index.php?action_kouhyou_detail_004_kani=true&JigyosyoCd=3011010497-00&ServiceCd=160&Type=search", "url2": "http://www.e-okamoto-clinic.com/" }, "geometry": { "type": "Point", "coordinates": [ 135.600358699999987, 34.3071806 ] } },
{ "type": "Feature", "properties": { "内容": "横田整形外科リハビリセンター【通所リハビリテーション】和歌山県橋本市城山台二丁目43番地の4", "url": "https://www.kaigokensaku.mhlw.go.jp/30/index.php?action_kouhyou_detail_004_kani=true&JigyosyoCd=3011010521-00&ServiceCd=160&Type=search", "url2": null }, "geometry": { "type": "Point", "coordinates": [ 135.607673, 34.3486987 ] } },
{ "type": "Feature", "properties": { "内容": "岡田整形外科リハビリテーションセンター【通所リハビリテーション】橋本市市脇1-45-2医療法人　岡田整形外科", "url": "https://www.kaigokensaku.mhlw.go.jp/30/index.php?action_kouhyou_detail_004_kani=true&JigyosyoCd=3071000693-00&ServiceCd=160&Type=search", "url2": null }, "geometry": { "type": "Point", "coordinates": [ 135.601193800000033, 34.314672 ] } },
{ "type": "Feature", "properties": { "内容": "医療法人　くりはら会　栗原整形外科【通所リハビリテーション】和歌山県有田市初島町里1702", "url": "https://www.kaigokensaku.mhlw.go.jp/30/index.php?action_kouhyou_detail_004_kani=true&JigyosyoCd=3011510157-00&ServiceCd=160&Type=search", "url2": null }, "geometry": { "type": "Point", "coordinates": [ 135.117188400000032, 34.0973183 ] } },
{ "type": "Feature", "properties": { "内容": "老人保健施設リバティ博愛【通所リハビリテーション】和歌山県御坊市名田町野島1番地9", "url": "https://www.kaigokensaku.mhlw.go.jp/30/index.php?action_kouhyou_detail_004_kani=true&JigyosyoCd=3052080011-00&ServiceCd=160&Type=search", "url2": "honbu@hakuaikai.net" }, "geometry": { "type": "Point", "coordinates": [ 135.1789003, 33.8328175 ] } },
{ "type": "Feature", "properties": { "内容": "社会医療法人黎明会　北出病院【通所リハビリテーション】和歌山県御坊市湯川町財部728-4", "url": "https://www.kaigokensaku.mhlw.go.jp/30/index.php?action_kouhyou_detail_004_kani=true&JigyosyoCd=3012010025-00&ServiceCd=160&Type=search", "url2": "http://www.reimeikai.com" }, "geometry": { "type": "Point", "coordinates": [ 135.155107300000026, 33.8969973 ] } },
{ "type": "Feature", "properties": { "内容": "介護老人保健施設あきつの【通所リハビリテーション】和歌山県田辺市上秋津２３１０－９", "url": "https://www.kaigokensaku.mhlw.go.jp/30/index.php?action_kouhyou_detail_004_kani=true&JigyosyoCd=3052280025-00&ServiceCd=160&Type=search", "url2": "http://care-net.biz/30/akituno/" }, "geometry": { "type": "Point", "coordinates": [ 135.411748, 33.7499864 ] } },
{ "type": "Feature", "properties": { "内容": "竹村医院【通所リハビリテーション】和歌山県田辺市東山1-3-8", "url": "https://www.kaigokensaku.mhlw.go.jp/30/index.php?action_kouhyou_detail_004_kani=true&JigyosyoCd=3012210435-00&ServiceCd=160&Type=search", "url2": "http://yuuga.blogdehp.ne.jp/" }, "geometry": { "type": "Point", "coordinates": [ 135.3875011, 33.7296265 ] } },
{ "type": "Feature", "properties": { "内容": "医療法人研医会　田辺中央病院【通所リハビリテーション】和歌山県田辺市南新町147", "url": "https://www.kaigokensaku.mhlw.go.jp/30/index.php?action_kouhyou_detail_004_kani=true&JigyosyoCd=3012210138-00&ServiceCd=160&Type=search", "url2": "http://www.tanabechp.or.jp/" }, "geometry": { "type": "Point", "coordinates": [ 135.379342800000018, 33.7327829 ] } },
{ "type": "Feature", "properties": { "内容": "介護老人保健施設田辺すみれ苑【通所リハビリテーション】和歌山県田辺市城山台４番５号", "url": "https://www.kaigokensaku.mhlw.go.jp/30/index.php?action_kouhyou_detail_004_kani=true&JigyosyoCd=3052280033-00&ServiceCd=160&Type=search", "url2": "http://tanabesumire.jp" }, "geometry": { "type": "Point", "coordinates": [ 135.426949700000023, 33.7285976 ] } },
{ "type": "Feature", "properties": { "内容": "山口整形外科【通所リハビリテーション】和歌山県新宮市蜂伏3番27号", "url": "https://www.kaigokensaku.mhlw.go.jp/30/index.php?action_kouhyou_detail_004_kani=true&JigyosyoCd=3072300134-00&ServiceCd=160&Type=search", "url2": null }, "geometry": { "type": "Point", "coordinates": [ 135.965430400000059, 33.6820045 ] } },
{ "type": "Feature", "properties": { "内容": "老人保健施設みさき【通所リハビリテーション】和歌山県新宮市蜂伏14－27", "url": "https://www.kaigokensaku.mhlw.go.jp/30/index.php?action_kouhyou_detail_004_kani=true&JigyosyoCd=3052380015-00&ServiceCd=160&Type=search", "url2": "http://misaki8.jp/" }, "geometry": { "type": "Point", "coordinates": [ 135.961883400000033, 33.6861956 ] } },
{ "type": "Feature", "properties": { "内容": "はまのデイケア【通所リハビリテーション】和歌山県新宮市井の沢1-28", "url": "https://www.kaigokensaku.mhlw.go.jp/30/index.php?action_kouhyou_detail_004_kani=true&JigyosyoCd=3012301150-00&ServiceCd=160&Type=search", "url2": null }, "geometry": { "type": "Point", "coordinates": [ 135.991784200000012, 33.7245439 ] } },
{ "type": "Feature", "properties": { "内容": "医療法人　岡整形外科【通所リハビリテーション】和歌山県紀の川市桃山町市場３８３－１", "url": "https://www.kaigokensaku.mhlw.go.jp/30/index.php?action_kouhyou_detail_004_kani=true&JigyosyoCd=3071700144-00&ServiceCd=160&Type=search", "url2": null }, "geometry": { "type": "Point", "coordinates": [ 135.341245500000014, 34.2407577 ] } },
{ "type": "Feature", "properties": { "内容": "長雄リハビリテーション【通所リハビリテーション】和歌山県紀の川市下井阪４４７-１", "url": "https://www.kaigokensaku.mhlw.go.jp/30/index.php?action_kouhyou_detail_004_kani=true&JigyosyoCd=3071201028-00&ServiceCd=160&Type=search", "url2": null }, "geometry": { "type": "Point", "coordinates": [ 135.3412505, 34.2572781 ] } },
{ "type": "Feature", "properties": { "内容": "医療法人　慈愛会　サニー倶楽部【通所リハビリテーション】和歌山県紀の川市粉河１９１２", "url": "https://www.kaigokensaku.mhlw.go.jp/30/index.php?action_kouhyou_detail_004_kani=true&JigyosyoCd=3071700086-00&ServiceCd=160&Type=search", "url2": "http://www.katsuda-ichouka.or.jp/sunny.html" }, "geometry": { "type": "Point", "coordinates": [ 135.4043481, 34.2748911 ] } },
{ "type": "Feature", "properties": { "内容": "医療法人稲穂会　稲穂会病院【通所リハビリテーション】和歌山県紀の川市粉河756-3", "url": "https://www.kaigokensaku.mhlw.go.jp/30/index.php?action_kouhyou_detail_004_kani=true&JigyosyoCd=3011710138-00&ServiceCd=160&Type=search", "url2": "https://inahokaihp.or.jp/" }, "geometry": { "type": "Point", "coordinates": [ 135.404628900000034, 34.2679253 ] } },
{ "type": "Feature", "properties": { "内容": "在宅総合ケアセンター赤ひげクリニック【通所リハビリテーション】和歌山県紀の川市桃山町神田378", "url": "https://www.kaigokensaku.mhlw.go.jp/30/index.php?action_kouhyou_detail_004_kani=true&JigyosyoCd=3011710344-00&ServiceCd=160&Type=search", "url2": "http://www.mikurumakai.or.jp" }, "geometry": { "type": "Point", "coordinates": [ 135.353655600000025, 34.2286039 ] } },
{ "type": "Feature", "properties": { "内容": "こかわリハビリクリニック【通所リハビリテーション】和歌山県紀の川市粉河451-9", "url": "https://www.kaigokensaku.mhlw.go.jp/30/index.php?action_kouhyou_detail_004_kani=true&JigyosyoCd=3011710393-00&ServiceCd=160&Type=search", "url2": "http://www.mikurumakai.or.jp/affiliated/kokawareha/" }, "geometry": { "type": "Point", "coordinates": [ 135.4093694, 34.2687976 ] } },
{ "type": "Feature", "properties": { "内容": "たま整形外科【通所リハビリテーション】和歌山県紀の川市貴志川町井ノ口974番地４", "url": "https://www.kaigokensaku.mhlw.go.jp/30/index.php?action_kouhyou_detail_004_kani=true&JigyosyoCd=3011710369-00&ServiceCd=160&Type=search", "url2": "http://www.mikurumakai.or.jp/affiliated/tamaseikeigeka-2-2/" }, "geometry": { "type": "Point", "coordinates": [ 135.3159799, 34.1986885 ] } },
{ "type": "Feature", "properties": { "内容": "通所リハビリテーション　みんなのリハ【通所リハビリテーション】和歌山県紀の川市名手市場２９４－１", "url": "https://www.kaigokensaku.mhlw.go.jp/30/index.php?action_kouhyou_detail_004_kani=true&JigyosyoCd=3011710146-00&ServiceCd=160&Type=search", "url2": "http://nate-hospital.com/" }, "geometry": { "type": "Point", "coordinates": [ 135.438028, 34.2727113 ] } },
{ "type": "Feature", "properties": { "内容": "介護老人保健施設みくるま【通所リハビリテーション】和歌山県紀の川市貴志川町丸栖936-3", "url": "https://www.kaigokensaku.mhlw.go.jp/30/index.php?action_kouhyou_detail_004_kani=true&JigyosyoCd=3051780017-00&ServiceCd=160&Type=search", "url2": "https://www.mikurumakai.or.jp/affiliated/roukenn-2/" }, "geometry": { "type": "Point", "coordinates": [ 135.3273811, 34.2372178 ] } },
{ "type": "Feature", "properties": { "内容": "介護老人保健施設　さくらの丘【通所リハビリテーション】紀の川市黒土153", "url": "https://www.kaigokensaku.mhlw.go.jp/30/index.php?action_kouhyou_detail_004_kani=true&JigyosyoCd=3051280034-00&ServiceCd=160&Type=search", "url2": "http://www.koyokai.or.jp" }, "geometry": { "type": "Point", "coordinates": [ 135.3798921, 34.2633089 ] } },
{ "type": "Feature", "properties": { "内容": "医療法人光明会　はしもと整形外科【通所リハビリテーション】岩出市川尻５３－１", "url": "https://www.kaigokensaku.mhlw.go.jp/30/index.php?action_kouhyou_detail_004_kani=true&JigyosyoCd=3011810193-00&ServiceCd=160&Type=search", "url2": "https://www.hashimotoseikei-iwade.com/" }, "geometry": { "type": "Point", "coordinates": [ 135.30986489999998, 34.2678381 ] } },
{ "type": "Feature", "properties": { "内容": "コスモス苑【通所リハビリテーション】和歌山県岩出市紀泉台2番地", "url": "https://www.kaigokensaku.mhlw.go.jp/30/index.php?action_kouhyou_detail_004_kani=true&JigyosyoCd=3071200335-00&ServiceCd=160&Type=search", "url2": "http://www.tomita.or.jp" }, "geometry": { "type": "Point", "coordinates": [ 135.293282480950865, 34.280350185829555 ] } },
{ "type": "Feature", "properties": { "内容": "介護老人保健施設　やすらぎ苑　通所リハビリテーション【通所リハビリテーション】和歌山県岩出市清水311番地の1", "url": "https://www.kaigokensaku.mhlw.go.jp/30/index.php?action_kouhyou_detail_004_kani=true&JigyosyoCd=3051280026-00&ServiceCd=160&Type=search", "url2": "www.tonodakai.or.jp/yasuragien.html" }, "geometry": { "type": "Point", "coordinates": [ 135.316067100000026, 34.2543893 ] } },
{ "type": "Feature", "properties": { "内容": "介護医療院やよい苑通所リハビリビリテーション【通所リハビリテーション】和歌山県岩出市中迫３８０", "url": "https://www.kaigokensaku.mhlw.go.jp/30/index.php?action_kouhyou_detail_004_kani=true&JigyosyoCd=30B1800028-00&ServiceCd=160&Type=search", "url2": "https://www.yaeikai.com" }, "geometry": { "type": "Point", "coordinates": [ 135.3149521, 34.2617948 ] } },
{ "type": "Feature", "properties": { "内容": "老人保健施設　天寿苑【通所リハビリテーション】海草郡紀美野町下佐々３８５－１", "url": "https://www.kaigokensaku.mhlw.go.jp/30/index.php?action_kouhyou_detail_004_kani=true&JigyosyoCd=3051180010-00&ServiceCd=160&Type=search", "url2": "http://www.tenchikukai.jp/" }, "geometry": { "type": "Point", "coordinates": [ 135.31853209999997, 34.1578068 ] } },
{ "type": "Feature", "properties": { "内容": "医療法人　志嗣会　介護老人保健施設　アメニティかつらぎ【通所リハビリテーション】伊都郡かつらぎ町妙寺１８４７－４２", "url": "https://www.kaigokensaku.mhlw.go.jp/30/index.php?action_kouhyou_detail_004_kani=true&JigyosyoCd=3051380008-00&ServiceCd=160&Type=search", "url2": "http://www.shithugu.or.jp" }, "geometry": { "type": "Point", "coordinates": [ 135.525580900000023, 34.3170019 ] } },
{ "type": "Feature", "properties": { "内容": "高野町立高野山総合診療所【通所リハビリテーション】和歌山県伊都郡高野町大字高野山６３１", "url": "https://www.kaigokensaku.mhlw.go.jp/30/index.php?action_kouhyou_detail_004_kani=true&JigyosyoCd=3018010417-00&ServiceCd=160&Type=search", "url2": "http://www.town.koya.wakayama.jp/health/hospital/" }, "geometry": { "type": "Point", "coordinates": [ 135.586672300000032, 34.2163158 ] } },
{ "type": "Feature", "properties": { "内容": "介護老人保健施設ライフケア有田【通所リハビリテーション】和歌山県有田郡湯浅町大字吉川52-1", "url": "https://www.kaigokensaku.mhlw.go.jp/30/index.php?action_kouhyou_detail_004_kani=true&JigyosyoCd=3051680027-00&ServiceCd=160&Type=search", "url2": "http://www.lcarida.jp/" }, "geometry": { "type": "Point", "coordinates": [ 135.193112700000029, 34.0462415 ] } },
{ "type": "Feature", "properties": { "内容": "みのりクリニック【通所リハビリテーション】和歌山県有田郡有田川町吉原９０８", "url": "https://www.kaigokensaku.mhlw.go.jp/30/index.php?action_kouhyou_detail_004_kani=true&JigyosyoCd=3011610379-00&ServiceCd=160&Type=search", "url2": null }, "geometry": { "type": "Point", "coordinates": [ 135.252593199999978, 34.0545202 ] } },
{ "type": "Feature", "properties": { "内容": "クオリティライフ和歌山【通所リハビリテーション】和歌山県有田郡有田川町庄627", "url": "https://www.kaigokensaku.mhlw.go.jp/30/index.php?action_kouhyou_detail_004_kani=true&JigyosyoCd=3071601326-00&ServiceCd=160&Type=search", "url2": "http://www.ql-wakayama.com" }, "geometry": { "type": "Point", "coordinates": [ 135.234894299999951, 34.0703594 ] } },
{ "type": "Feature", "properties": { "内容": "オレンジの郷【通所リハビリテーション】和歌山県有田郡有田川町吉原522番地", "url": "https://www.kaigokensaku.mhlw.go.jp/30/index.php?action_kouhyou_detail_004_kani=true&JigyosyoCd=3071601516-00&ServiceCd=160&Type=search", "url2": "http://care-net.biz/30/oreji-hp" }, "geometry": { "type": "Point", "coordinates": [ 135.2579998, 34.0488631 ] } },
{ "type": "Feature", "properties": { "内容": "老人保健施設プラトン【通所リハビリテーション】日高郡美浜町田井402-1", "url": "https://www.kaigokensaku.mhlw.go.jp/30/index.php?action_kouhyou_detail_004_kani=true&JigyosyoCd=3052180019-00&ServiceCd=160&Type=search", "url2": null }, "geometry": { "type": "Point", "coordinates": [ 135.149332700000059, 33.8902564 ] } },
{ "type": "Feature", "properties": { "内容": "介護老人保健施設　和佐の里【通所リハビリテーション】和歌山県日高郡日高川町和佐2136", "url": "https://www.kaigokensaku.mhlw.go.jp/30/index.php?action_kouhyou_detail_004_kani=true&JigyosyoCd=3052180027-00&ServiceCd=160&Type=search", "url2": "http;//www.reimeikai.com" }, "geometry": { "type": "Point", "coordinates": [ 135.210455599999932, 33.8920325 ] } },
{ "type": "Feature", "properties": { "内容": "介護老人保健施設　和佐の里　サテライト千寿【通所リハビリテーション】和歌山県日高郡日高川町土生1205-1", "url": "https://www.kaigokensaku.mhlw.go.jp/30/index.php?action_kouhyou_detail_004_kani=true&JigyosyoCd=3052180035-00&ServiceCd=160&Type=search", "url2": "https://reimeikai.com" }, "geometry": { "type": "Point", "coordinates": [ 135.178094805110163, 33.912668409512207 ] } },
{ "type": "Feature", "properties": { "内容": "公益財団法人白浜医療福祉財団白浜はまゆう病院【通所リハビリテーション】和歌山県西牟婁郡白浜町１４４７", "url": "https://www.kaigokensaku.mhlw.go.jp/30/index.php?action_kouhyou_detail_004_kani=true&JigyosyoCd=3012410589-00&ServiceCd=160&Type=search", "url2": "http://www.hamayu-hp.or.jp/" }, "geometry": { "type": "Point", "coordinates": [ 135.348936200000026, 33.681946 ] } },
{ "type": "Feature", "properties": { "内容": "老人保健施設アンソレイユ日置【通所リハビリテーション】和歌山県西牟婁郡白浜町大古11-2", "url": "https://www.kaigokensaku.mhlw.go.jp/30/index.php?action_kouhyou_detail_004_kani=true&JigyosyoCd=3052480005-00&ServiceCd=160&Type=search", "url2": null }, "geometry": { "type": "Point", "coordinates": [ 135.459053244180268, 33.579903093170245 ] } },
{ "type": "Feature", "properties": { "内容": "介護老人保健施設　成華苑【通所リハビリテーション】和歌山県西牟婁郡白浜町富田１３６０－２０", "url": "https://www.kaigokensaku.mhlw.go.jp/30/index.php?action_kouhyou_detail_004_kani=true&JigyosyoCd=3052480013-00&ServiceCd=160&Type=search", "url2": "https://www.nankishirahama-fukushikai.or.jp/" }, "geometry": { "type": "Point", "coordinates": [ 135.3991466, 33.6385473 ] } },
{ "type": "Feature", "properties": { "内容": "介護老人保健施設　けんゆう苑【通所リハビリテーション】和歌山県西牟婁郡すさみ町江住上ミ平見800", "url": "https://www.kaigokensaku.mhlw.go.jp/30/index.php?action_kouhyou_detail_004_kani=true&JigyosyoCd=3052480021-00&ServiceCd=160&Type=search", "url2": "https://i-kenyukai.com" }, "geometry": { "type": "Point", "coordinates": [ 135.600750559412461, 33.505479911088528 ] } },
{ "type": "Feature", "properties": { "内容": "介護老人保健施設　ルピナス【通所リハビリテーション】和歌山県東牟婁郡那智勝浦町宇久井714-3", "url": "https://www.kaigokensaku.mhlw.go.jp/30/index.php?action_kouhyou_detail_004_kani=true&JigyosyoCd=3052580002-00&ServiceCd=160&Type=search", "url2": "http://rupinasu.jp/" }, "geometry": { "type": "Point", "coordinates": [ 135.982915600000069, 33.6594993 ] } },
{ "type": "Feature", "properties": { "内容": "介護老人保健施設あじさい苑　通所リハビリテーション【通所リハビリテーション】和歌山県東牟婁郡古座川町高瀬415番地", "url": "https://www.kaigokensaku.mhlw.go.jp/30/index.php?action_kouhyou_detail_004_kani=true&JigyosyoCd=3052580010-00&ServiceCd=160&Type=search", "url2": "http://www.takasekai.or.jp/" }, "geometry": { "type": "Point", "coordinates": [ 135.779193699999951, 33.5352992 ] } },
{ "type": "Feature", "properties": { "内容": "くしもと町立病院【通所リハビリテーション】和歌山県東牟婁郡串本町サンゴ台691番地7", "url": "https://www.kaigokensaku.mhlw.go.jp/30/index.php?action_kouhyou_detail_004_kani=true&JigyosyoCd=3018010607-00&ServiceCd=160&Type=search", "url2": "http://www.hsp.kushimoto.wakayama.jp/" }, "geometry": { "type": "Point", "coordinates": [ 135.784433865081809, 33.484820361978755 ] } },
{ "type": "Feature", "properties": { "内容": "医療法人こしみち　こしみちクリニック【通所リハビリテーション】和歌山県東牟婁郡串本町くじ野川1356-4", "url": "https://www.kaigokensaku.mhlw.go.jp/30/index.php?action_kouhyou_detail_004_kani=true&JigyosyoCd=3012510651-00&ServiceCd=160&Type=search", "url2": "https://koshimichi-cl.com/" }, "geometry": { "type": "Point", "coordinates": [ 135.78146910000001, 33.4725476 ] } }
]
}
