{
"type": "FeatureCollection",
"name": "geo_30_短期入所療養介護（介護医療院）",
"crs": { "type": "name", "properties": { "name": "urn:ogc:def:crs:OGC:1.3:CRS84" } },
"features": [
{ "type": "Feature", "properties": { "内容": "稲穂会病院　短期入所療養介護（介護医療院）【短期入所療養介護（介護医療院）】和歌山県紀の川市粉河756-3", "url": "https://www.kaigokensaku.mhlw.go.jp/30/index.php?action_kouhyou_detail_004_kani=true&JigyosyoCd=30B1700012-00&ServiceCd=551&Type=search", "url2": "http://inahokaihp.or.jp/" }, "geometry": { "type": "Point", "coordinates": [ 135.404266299999989, 34.2678334 ] } },
{ "type": "Feature", "properties": { "内容": "白浜はまゆう病院介護医療院【短期入所療養介護（介護医療院）】和歌山県西牟婁郡白浜町1447", "url": "https://www.kaigokensaku.mhlw.go.jp/30/index.php?action_kouhyou_detail_004_kani=true&JigyosyoCd=30B2400018-00&ServiceCd=551&Type=search", "url2": "http://www.hamayu-hp.or.jp/" }, "geometry": { "type": "Point", "coordinates": [ 135.3482172, 33.6818241 ] } }
]
}
