{
"type": "FeatureCollection",
"name": "geo_30_地域密着型特定施設入居者生活介護（有料老人ホーム（サービス付き高齢者向け住宅））",
"crs": { "type": "name", "properties": { "name": "urn:ogc:def:crs:OGC:1.3:CRS84" } },
"features": [
{ "type": "Feature", "properties": { "内容": "地域密着型特定施設はるすの郷・神野々【地域密着型特定施設入居者生活介護（有料老人ホーム（サービス付き高齢者向け住宅））】和歌山県橋本市神野々1083番地1地域密着型特定施設はるすの郷・神野々", "url": "https://www.kaigokensaku.mhlw.go.jp/30/index.php?action_kouhyou_detail_004_kani=true&JigyosyoCd=3091000087-00&ServiceCd=&Type=search", "url2": "https：//hals-hals.co.jp/" }, "geometry": { "type": "Point", "coordinates": [ 135.580529599999977, 34.3047645 ] } },
{ "type": "Feature", "properties": { "内容": "地域密着型特定施設　みとうの里【地域密着型特定施設入居者生活介護（有料老人ホーム（サービス付き高齢者向け住宅））】隅田町下兵庫1047-2", "url": "https://www.kaigokensaku.mhlw.go.jp/30/index.php?action_kouhyou_detail_004_kani=true&JigyosyoCd=3091000103-00&ServiceCd=&Type=search", "url2": "www.mitouph.com/" }, "geometry": { "type": "Point", "coordinates": [ 135.630015973649648, 34.33078650462933 ] } },
{ "type": "Feature", "properties": { "内容": "地域密着型特定施設やまぼうしの郷【地域密着型特定施設入居者生活介護（有料老人ホーム（サービス付き高齢者向け住宅））】神野々1083-1", "url": "https://www.kaigokensaku.mhlw.go.jp/30/index.php?action_kouhyou_detail_004_kani=true&JigyosyoCd=3091000244-00&ServiceCd=&Type=search", "url2": "https://kiwayamaboushi.jimdo.com/" }, "geometry": { "type": "Point", "coordinates": [ 135.5806768, 34.304727900000024 ] } },
{ "type": "Feature", "properties": { "内容": "地域密着型特定施設入居者生活介護　介護付ケアホームヤッホー【地域密着型特定施設入居者生活介護（有料老人ホーム（サービス付き高齢者向け住宅））】桃山町最上1206-7", "url": "https://www.kaigokensaku.mhlw.go.jp/30/index.php?action_kouhyou_detail_004_kani=true&JigyosyoCd=3091700199-00&ServiceCd=&Type=search", "url2": "https://shokyukai.jp" }, "geometry": { "type": "Point", "coordinates": [ 135.352162796295147, 34.219169936998718 ] } },
{ "type": "Feature", "properties": { "内容": "イクルみなべ【地域密着型特定施設入居者生活介護（有料老人ホーム（サービス付き高齢者向け住宅））】和歌山県日高郡みなべ町東吉田673-1", "url": "https://www.kaigokensaku.mhlw.go.jp/30/index.php?action_kouhyou_detail_004_kani=true&JigyosyoCd=3092100092-00&ServiceCd=&Type=search", "url2": null }, "geometry": { "type": "Point", "coordinates": [ 135.33031660000006, 33.775649 ] } }
]
}
