{
"type": "FeatureCollection",
"name": "geo_30_中学校",
"crs": { "type": "name", "properties": { "name": "urn:ogc:def:crs:EPSG::6668" } },
"features": [
{ "type": "Feature", "properties": { "P29_001": "30201", "P29_002": "C130110000013", "P29_003": "16002", "P29_004": "和歌山大学教育学部附属中学校", "P29_005": "和歌山県和歌山市吹上1-4-1", "P29_006": "1", "P29_007": "1", "P29_008": "00", "P29_009": null }, "geometry": { "type": "Point", "coordinates": [ 135.172225650054685, 34.223025975489804 ] } },
{ "type": "Feature", "properties": { "P29_001": "30201", "P29_002": "C130210000011", "P29_003": "16002", "P29_004": "和歌山市立日進中学校", "P29_005": "和歌山県和歌山市秋月365-3", "P29_006": "3", "P29_007": "1", "P29_008": "00", "P29_009": null }, "geometry": { "type": "Point", "coordinates": [ 135.203651401901737, 34.228519281484978 ] } },
{ "type": "Feature", "properties": { "P29_001": "30201", "P29_002": "C130210000020", "P29_003": "16002", "P29_004": "和歌山市立東和中学校", "P29_005": "和歌山県和歌山市杭ノ瀬116", "P29_006": "3", "P29_007": "1", "P29_008": "00", "P29_009": null }, "geometry": { "type": "Point", "coordinates": [ 135.190872424931143, 34.212351320422719 ] } },
{ "type": "Feature", "properties": { "P29_001": "30201", "P29_002": "C130210000039", "P29_003": "16002", "P29_004": "和歌山市立西和中学校", "P29_005": "和歌山県和歌山市砂山南3-3-9", "P29_006": "3", "P29_007": "1", "P29_008": "00", "P29_009": null }, "geometry": { "type": "Point", "coordinates": [ 135.164330087377579, 34.215161438073949 ] } },
{ "type": "Feature", "properties": { "P29_001": "30201", "P29_002": "C130210000048", "P29_003": "16002", "P29_004": "和歌山市立城東中学校", "P29_005": "和歌山県和歌山市美園町2-63", "P29_006": "3", "P29_007": "1", "P29_008": "00", "P29_009": null }, "geometry": { "type": "Point", "coordinates": [ 135.185635687456596, 34.230304479995119 ] } },
{ "type": "Feature", "properties": { "P29_001": "30201", "P29_002": "C130210000057", "P29_003": "16002", "P29_004": "和歌山市立西浜中学校", "P29_005": "和歌山県和歌山市西小二里1-6-1", "P29_006": "3", "P29_007": "1", "P29_008": "00", "P29_009": null }, "geometry": { "type": "Point", "coordinates": [ 135.162281257839226, 34.20452420624094 ] } },
{ "type": "Feature", "properties": { "P29_001": "30201", "P29_002": "C130210000066", "P29_003": "16002", "P29_004": "和歌山市立明和中学校", "P29_005": "和歌山県和歌山市紀三井寺832-1", "P29_006": "3", "P29_007": "1", "P29_008": "00", "P29_009": null }, "geometry": { "type": "Point", "coordinates": [ 135.180381033397623, 34.185484663043042 ] } },
{ "type": "Feature", "properties": { "P29_001": "30201", "P29_002": "C130210000075", "P29_003": "16002", "P29_004": "和歌山市立河北中学校", "P29_005": "和歌山県和歌山市北島370-1", "P29_006": "3", "P29_007": "1", "P29_008": "00", "P29_009": null }, "geometry": { "type": "Point", "coordinates": [ 135.152639660186907, 34.241124334674041 ] } },
{ "type": "Feature", "properties": { "P29_001": "30201", "P29_002": "C130210000084", "P29_003": "16002", "P29_004": "和歌山市立河西中学校", "P29_005": "和歌山県和歌山市松江北5-19-1", "P29_006": "3", "P29_007": "1", "P29_008": "00", "P29_009": null }, "geometry": { "type": "Point", "coordinates": [ 135.130977201969472, 34.25110572726684 ] } },
{ "type": "Feature", "properties": { "P29_001": "30201", "P29_002": "C130210000093", "P29_003": "16002", "P29_004": "和歌山市立紀之川中学校", "P29_005": "和歌山県和歌山市有本668-1", "P29_006": "3", "P29_007": "1", "P29_008": "00", "P29_009": null }, "geometry": { "type": "Point", "coordinates": [ 135.190159327853138, 34.246258820234175 ] } },
{ "type": "Feature", "properties": { "P29_001": "30201", "P29_002": "C130210000100", "P29_003": "16002", "P29_004": "和歌山市立西脇中学校", "P29_005": "和歌山県和歌山市西庄1110-5", "P29_006": "3", "P29_007": "1", "P29_008": "00", "P29_009": null }, "geometry": { "type": "Point", "coordinates": [ 135.1163624895091, 34.264559513572678 ] } },
{ "type": "Feature", "properties": { "P29_001": "30201", "P29_002": "C130210000119", "P29_003": "16002", "P29_004": "和歌山市立紀伊中学校", "P29_005": "和歌山県和歌山市北野544", "P29_006": "3", "P29_007": "1", "P29_008": "00", "P29_009": null }, "geometry": { "type": "Point", "coordinates": [ 135.244458735359586, 34.270849501324136 ] } },
{ "type": "Feature", "properties": { "P29_001": "30201", "P29_002": "C130210000128", "P29_003": "16002", "P29_004": "和歌山市立加太中学校", "P29_005": "和歌山県和歌山市加太2692-1", "P29_006": "3", "P29_007": "1", "P29_008": "00", "P29_009": null }, "geometry": { "type": "Point", "coordinates": [ 135.077190697091339, 34.274972919506496 ] } },
{ "type": "Feature", "properties": { "P29_001": "30201", "P29_002": "C130210000137", "P29_003": "16002", "P29_004": "和歌山市立東中学校", "P29_005": "和歌山県和歌山市松原337", "P29_006": "3", "P29_007": "1", "P29_008": "00", "P29_009": null }, "geometry": { "type": "Point", "coordinates": [ 135.224724525811183, 34.200829782394869 ] } },
{ "type": "Feature", "properties": { "P29_001": "30201", "P29_002": "C130210000146", "P29_003": "16002", "P29_004": "和歌山市立西脇中学校みらい分校", "P29_005": "和歌山県和歌山市つつじが丘7-2-1", "P29_006": "3", "P29_007": "1", "P29_008": "00", "P29_009": null }, "geometry": { "type": "Point", "coordinates": [ 135.09792859810446, 34.265314643400508 ] } },
{ "type": "Feature", "properties": { "P29_001": "30201", "P29_002": "C130210000155", "P29_003": "16002", "P29_004": "和歌山市立高積中学校", "P29_005": "和歌山県和歌山市布施屋112-2", "P29_006": "3", "P29_007": "1", "P29_008": "00", "P29_009": null }, "geometry": { "type": "Point", "coordinates": [ 135.262791448426583, 34.240818088368947 ] } },
{ "type": "Feature", "properties": { "P29_001": "30201", "P29_002": "C130210000164", "P29_003": "16002", "P29_004": "和歌山市立楠見中学校", "P29_005": "和歌山県和歌山市善明寺706", "P29_006": "3", "P29_007": "1", "P29_008": "00", "P29_009": null }, "geometry": { "type": "Point", "coordinates": [ 135.179962978505557, 34.26631679962545 ] } },
{ "type": "Feature", "properties": { "P29_001": "30201", "P29_002": "C130210000173", "P29_003": "16002", "P29_004": "和歌山市立有功中学校", "P29_005": "和歌山県和歌山市六十谷1238", "P29_006": "3", "P29_007": "1", "P29_008": "00", "P29_009": null }, "geometry": { "type": "Point", "coordinates": [ 135.20402063692589, 34.271971523902977 ] } },
{ "type": "Feature", "properties": { "P29_001": "30202", "P29_002": "C130210000182", "P29_003": "16002", "P29_004": "海南市立第三中学校", "P29_005": "和歌山県海南市鳥居15-3", "P29_006": "3", "P29_007": "1", "P29_008": "00", "P29_009": null }, "geometry": { "type": "Point", "coordinates": [ 135.218785588629487, 34.152399743624159 ] } },
{ "type": "Feature", "properties": { "P29_001": "30202", "P29_002": "C130210000191", "P29_003": "16002", "P29_004": "海南市立亀川中学校", "P29_005": "和歌山県海南市且来990", "P29_006": "3", "P29_007": "1", "P29_008": "00", "P29_009": null }, "geometry": { "type": "Point", "coordinates": [ 135.238360599903103, 34.170477237731703 ] } },
{ "type": "Feature", "properties": { "P29_001": "30202", "P29_002": "C130210000208", "P29_003": "16002", "P29_004": "海南市立巽中学校", "P29_005": "和歌山県海南市阪井399", "P29_006": "3", "P29_007": "1", "P29_008": "00", "P29_009": null }, "geometry": { "type": "Point", "coordinates": [ 135.256934128277067, 34.154674048348397 ] } },
{ "type": "Feature", "properties": { "P29_001": "30202", "P29_002": "C130210000217", "P29_003": "16002", "P29_004": "海南市立東海南中学校", "P29_005": "和歌山県海南市野上中590", "P29_006": "3", "P29_007": "1", "P29_008": "00", "P29_009": null }, "geometry": { "type": "Point", "coordinates": [ 135.282929049384904, 34.165092048404553 ] } },
{ "type": "Feature", "properties": { "P29_001": "30202", "P29_002": "C130210000226", "P29_003": "16002", "P29_004": "海南市立海南中学校", "P29_005": "和歌山県海南市日方962-2", "P29_006": "3", "P29_007": "1", "P29_008": "00", "P29_009": null }, "geometry": { "type": "Point", "coordinates": [ 135.220344292237144, 34.158473514010858 ] } },
{ "type": "Feature", "properties": { "P29_001": "30203", "P29_002": "C130210000235", "P29_003": "16002", "P29_004": "橋本市立隅田中学校", "P29_005": "和歌山県橋本市隅田町芋生243-1", "P29_006": "3", "P29_007": "1", "P29_008": "00", "P29_009": null }, "geometry": { "type": "Point", "coordinates": [ 135.648564634993676, 34.327199127714394 ] } },
{ "type": "Feature", "properties": { "P29_001": "30203", "P29_002": "C130210000244", "P29_003": "16002", "P29_004": "橋本市立紀見東中学校", "P29_005": "和歌山県橋本市城山台1-39-2", "P29_006": "3", "P29_007": "1", "P29_008": "00", "P29_009": null }, "geometry": { "type": "Point", "coordinates": [ 135.613123398270289, 34.346389153946028 ] } },
{ "type": "Feature", "properties": { "P29_001": "30203", "P29_002": "C130210000253", "P29_003": "16002", "P29_004": "橋本市立紀見北中学校", "P29_005": "和歌山県橋本市三石台3-19-1", "P29_006": "3", "P29_007": "1", "P29_008": "00", "P29_009": null }, "geometry": { "type": "Point", "coordinates": [ 135.600797842548445, 34.361614560104762 ] } },
{ "type": "Feature", "properties": { "P29_001": "30204", "P29_002": "C130210000262", "P29_003": "16002", "P29_004": "有田市立箕島中学校", "P29_005": "和歌山県有田市箕島79", "P29_006": "3", "P29_007": "1", "P29_008": "00", "P29_009": null }, "geometry": { "type": "Point", "coordinates": [ 135.125382742110105, 34.083809687939869 ] } },
{ "type": "Feature", "properties": { "P29_001": "30204", "P29_002": "C130210000271", "P29_003": "16002", "P29_004": "有田市立保田中学校", "P29_005": "和歌山県有田市辻堂468", "P29_006": "3", "P29_007": "1", "P29_008": "00", "P29_009": null }, "geometry": { "type": "Point", "coordinates": [ 135.147125627294173, 34.077682997849912 ] } },
{ "type": "Feature", "properties": { "P29_001": "30204", "P29_002": "C130210000280", "P29_003": "16002", "P29_004": "有田市立文成中学校", "P29_005": "和歌山県有田市宮原町新町1", "P29_006": "3", "P29_007": "1", "P29_008": "00", "P29_009": null }, "geometry": { "type": "Point", "coordinates": [ 135.172287326482461, 34.078888991034347 ] } },
{ "type": "Feature", "properties": { "P29_001": "30205", "P29_002": "C130210000306", "P29_003": "16002", "P29_004": "御坊市立御坊中学校", "P29_005": "和歌山県御坊市島10", "P29_006": "3", "P29_007": "1", "P29_008": "00", "P29_009": null }, "geometry": { "type": "Point", "coordinates": [ 135.159011225341743, 33.898249727731866 ] } },
{ "type": "Feature", "properties": { "P29_001": "30205", "P29_002": "C130210000315", "P29_003": "16002", "P29_004": "御坊市立河南中学校", "P29_005": "和歌山県御坊市塩屋町北塩屋300", "P29_006": "3", "P29_007": "1", "P29_008": "00", "P29_009": null }, "geometry": { "type": "Point", "coordinates": [ 135.167930439873601, 33.878251480611105 ] } },
{ "type": "Feature", "properties": { "P29_001": "30205", "P29_002": "C130210000324", "P29_003": "16002", "P29_004": "御坊市立湯川中学校", "P29_005": "和歌山県御坊市湯川町小松原50", "P29_006": "3", "P29_007": "1", "P29_008": "00", "P29_009": null }, "geometry": { "type": "Point", "coordinates": [ 135.163307373937755, 33.906822362620545 ] } },
{ "type": "Feature", "properties": { "P29_001": "30205", "P29_002": "C130210000333", "P29_003": "16002", "P29_004": "御坊市立名田中学校", "P29_005": "和歌山県御坊市名田町上野1348-15", "P29_006": "3", "P29_007": "1", "P29_008": "00", "P29_009": null }, "geometry": { "type": "Point", "coordinates": [ 135.182680283395001, 33.834518514473558 ] } },
{ "type": "Feature", "properties": { "P29_001": "30206", "P29_002": "C130210000342", "P29_003": "16002", "P29_004": "田辺市立東陽中学校", "P29_005": "和歌山県田辺市神子浜1-4-66", "P29_006": "3", "P29_007": "1", "P29_008": "00", "P29_009": null }, "geometry": { "type": "Point", "coordinates": [ 135.387603141570139, 33.726592634829785 ] } },
{ "type": "Feature", "properties": { "P29_001": "30206", "P29_002": "C130210000351", "P29_003": "16002", "P29_004": "田辺市立明洋中学校", "P29_005": "和歌山県田辺市目良4-1", "P29_006": "3", "P29_007": "1", "P29_008": "00", "P29_009": null }, "geometry": { "type": "Point", "coordinates": [ 135.357286655840937, 33.734913173210728 ] } },
{ "type": "Feature", "properties": { "P29_001": "30206", "P29_002": "C130210000360", "P29_003": "16002", "P29_004": "田辺市立高雄中学校", "P29_005": "和歌山県田辺市高雄3-20-1", "P29_006": "3", "P29_007": "1", "P29_008": "00", "P29_009": null }, "geometry": { "type": "Point", "coordinates": [ 135.384081404190908, 33.739081256713916 ] } },
{ "type": "Feature", "properties": { "P29_001": "30206", "P29_002": "C130210000379", "P29_003": "16002", "P29_004": "田辺市立新庄中学校", "P29_005": "和歌山県田辺市新庄町2266-2", "P29_006": "3", "P29_007": "1", "P29_008": "00", "P29_009": null }, "geometry": { "type": "Point", "coordinates": [ 135.403147583855826, 33.71394251486339 ] } },
{ "type": "Feature", "properties": { "P29_001": "30206", "P29_002": "C130210000388", "P29_003": "16002", "P29_004": "田辺市立上芳養中学校", "P29_005": "和歌山県田辺市上芳養1483", "P29_006": "3", "P29_007": "1", "P29_008": "00", "P29_009": null }, "geometry": { "type": "Point", "coordinates": [ 135.375794120546402, 33.810256695846888 ] } },
{ "type": "Feature", "properties": { "P29_001": "30206", "P29_002": "C130210000397", "P29_003": "16002", "P29_004": "田辺市立中芳養中学校", "P29_005": "和歌山県田辺市中芳養273-2", "P29_006": "3", "P29_007": "1", "P29_008": "00", "P29_009": null }, "geometry": { "type": "Point", "coordinates": [ 135.359070304504741, 33.764534968469633 ] } },
{ "type": "Feature", "properties": { "P29_001": "30206", "P29_002": "C130210000404", "P29_003": "16002", "P29_004": "田辺市立上秋津中学校", "P29_005": "和歌山県田辺市上秋津2263-2", "P29_006": "3", "P29_007": "1", "P29_008": "00", "P29_009": null }, "geometry": { "type": "Point", "coordinates": [ 135.409398969820103, 33.751509978985183 ] } },
{ "type": "Feature", "properties": { "P29_001": "30206", "P29_002": "C130210000413", "P29_003": "16002", "P29_004": "田辺市立秋津川中学校", "P29_005": "和歌山県田辺市秋津川652-1", "P29_006": "3", "P29_007": "1", "P29_008": "00", "P29_009": null }, "geometry": { "type": "Point", "coordinates": [ 135.427564446240808, 33.793252390879132 ] } },
{ "type": "Feature", "properties": { "P29_001": "30206", "P29_002": "C130210000422", "P29_003": "16002", "P29_004": "田辺市立衣笠中学校", "P29_005": "和歌山県田辺市中三栖147-1", "P29_006": "3", "P29_007": "1", "P29_008": "00", "P29_009": null }, "geometry": { "type": "Point", "coordinates": [ 135.428681562854933, 33.73750726935922 ] } },
{ "type": "Feature", "properties": { "P29_001": "30207", "P29_002": "C130210000431", "P29_003": "16002", "P29_004": "新宮市立緑丘中学校", "P29_005": "和歌山県新宮市緑ヶ丘2-1-15", "P29_006": "3", "P29_007": "1", "P29_008": "00", "P29_009": null }, "geometry": { "type": "Point", "coordinates": [ 135.990067103300731, 33.720309335990599 ] } },
{ "type": "Feature", "properties": { "P29_001": "30207", "P29_002": "C130210000440", "P29_003": "16002", "P29_004": "新宮市立城南中学校", "P29_005": "和歌山県新宮市清水元1-5-44", "P29_006": "3", "P29_007": "1", "P29_008": "00", "P29_009": null }, "geometry": { "type": "Point", "coordinates": [ 135.997714610559655, 33.718495639764605 ] } },
{ "type": "Feature", "properties": { "P29_001": "30207", "P29_002": "C130210000459", "P29_003": "16002", "P29_004": "新宮市立光洋中学校", "P29_005": "和歌山県新宮市三輪崎1199-2", "P29_006": "3", "P29_007": "1", "P29_008": "00", "P29_009": null }, "geometry": { "type": "Point", "coordinates": [ 135.97731394396763, 33.688424486770046 ] } },
{ "type": "Feature", "properties": { "P29_001": "30207", "P29_002": "C130210000468", "P29_003": "16002", "P29_004": "新宮市立高田中学校", "P29_005": "和歌山県新宮市高田3465-1", "P29_006": "3", "P29_007": "1", "P29_008": "00", "P29_009": null }, "geometry": { "type": "Point", "coordinates": [ 135.910053361214153, 33.734417125452516 ] } },
{ "type": "Feature", "properties": { "P29_001": "30202", "P29_002": "C130210000477", "P29_003": "16002", "P29_004": "海南市立下津第一中学校", "P29_005": "和歌山県海南市下津町下津500-2", "P29_006": "3", "P29_007": "1", "P29_008": "00", "P29_009": null }, "geometry": { "type": "Point", "coordinates": [ 135.151683675612873, 34.108297231013061 ] } },
{ "type": "Feature", "properties": { "P29_001": "30202", "P29_002": "C130210000486", "P29_003": "16002", "P29_004": "海南市立下津第二中学校", "P29_005": "和歌山県海南市下津町下287-2", "P29_006": "3", "P29_007": "1", "P29_008": "00", "P29_009": null }, "geometry": { "type": "Point", "coordinates": [ 135.164535535321335, 34.12817449134193 ] } },
{ "type": "Feature", "properties": { "P29_001": "30304", "P29_002": "C130210000495", "P29_003": "16002", "P29_004": "紀美野町立野上中学校", "P29_005": "和歌山県海草郡紀美野町下佐々940", "P29_006": "3", "P29_007": "1", "P29_008": "00", "P29_009": null }, "geometry": { "type": "Point", "coordinates": [ 135.314823001915812, 34.154644951677092 ] } },
{ "type": "Feature", "properties": { "P29_001": "30304", "P29_002": "C130210000510", "P29_003": "16002", "P29_004": "紀美野町立美里中学校", "P29_005": "和歌山県海草郡紀美野町野中494-1", "P29_006": "3", "P29_007": "1", "P29_008": "00", "P29_009": null }, "geometry": { "type": "Point", "coordinates": [ 135.350588897397159, 34.1473896094205 ] } },
{ "type": "Feature", "properties": { "P29_001": "30208", "P29_002": "C130210000529", "P29_003": "16002", "P29_004": "紀の川市立打田中学校", "P29_005": "和歌山県紀の川市東大井345", "P29_006": "3", "P29_007": "1", "P29_008": "00", "P29_009": null }, "geometry": { "type": "Point", "coordinates": [ 135.363779665151242, 34.26784093612666 ] } },
{ "type": "Feature", "properties": { "P29_001": "30208", "P29_002": "C130210000538", "P29_003": "16002", "P29_004": "紀の川市立粉河中学校", "P29_005": "和歌山県紀の川市粉河925", "P29_006": "3", "P29_007": "1", "P29_008": "00", "P29_009": null }, "geometry": { "type": "Point", "coordinates": [ 135.402549736550156, 34.269854140214669 ] } },
{ "type": "Feature", "properties": { "P29_001": "30208", "P29_002": "C130210000547", "P29_003": "16002", "P29_004": "紀の川市立鞆渕中学校", "P29_005": "和歌山県紀の川市中鞆渕968-1", "P29_006": "3", "P29_007": "9", "P29_008": "00", "P29_009": null }, "geometry": { "type": "Point", "coordinates": [ 135.458298302063383, 34.21905406894173 ] } },
{ "type": "Feature", "properties": { "P29_001": "30208", "P29_002": "C130210000556", "P29_003": "16002", "P29_004": "紀の川市立那賀中学校", "P29_005": "和歌山県紀の川市名手市場981", "P29_006": "3", "P29_007": "1", "P29_008": "00", "P29_009": null }, "geometry": { "type": "Point", "coordinates": [ 135.439683061349996, 34.279088432964024 ] } },
{ "type": "Feature", "properties": { "P29_001": "30208", "P29_002": "C130210000565", "P29_003": "16002", "P29_004": "紀の川市立荒川中学校", "P29_005": "和歌山県紀の川市桃山町元249", "P29_006": "3", "P29_007": "1", "P29_008": "00", "P29_009": null }, "geometry": { "type": "Point", "coordinates": [ 135.351869204490981, 34.242667087275663 ] } },
{ "type": "Feature", "properties": { "P29_001": "30208", "P29_002": "C130210000574", "P29_003": "16002", "P29_004": "紀の川市立貴志川中学校", "P29_005": "和歌山県紀の川市貴志川町上野山232", "P29_006": "3", "P29_007": "1", "P29_008": "00", "P29_009": null }, "geometry": { "type": "Point", "coordinates": [ 135.309139209481543, 34.217548482218284 ] } },
{ "type": "Feature", "properties": { "P29_001": "30209", "P29_002": "C130210000583", "P29_003": "16002", "P29_004": "岩出市立岩出中学校", "P29_005": "和歌山県岩出市西野65", "P29_006": "3", "P29_007": "1", "P29_008": "00", "P29_009": null }, "geometry": { "type": "Point", "coordinates": [ 135.307210035415494, 34.261605309130921 ] } },
{ "type": "Feature", "properties": { "P29_001": "30209", "P29_002": "C130210000592", "P29_003": "16002", "P29_004": "岩出市立岩出第二中学校", "P29_005": "和歌山県岩出市野上野155", "P29_006": "3", "P29_007": "1", "P29_008": "00", "P29_009": null }, "geometry": { "type": "Point", "coordinates": [ 135.316124529749402, 34.274401078449444 ] } },
{ "type": "Feature", "properties": { "P29_001": "30208", "P29_002": "C130210000609", "P29_003": "16002", "P29_004": "紀の川市立打田中学校仙渓分校", "P29_005": "和歌山県紀の川市東三谷900-1", "P29_006": "3", "P29_007": "1", "P29_008": "00", "P29_009": null }, "geometry": { "type": "Point", "coordinates": [ 135.343200312658809, 34.287327334251842 ] } },
{ "type": "Feature", "properties": { "P29_001": "30341", "P29_002": "C130210000618", "P29_003": "16002", "P29_004": "かつらぎ町立妙寺中学校", "P29_005": "和歌山県伊都郡かつらぎ町妙寺581", "P29_006": "3", "P29_007": "1", "P29_008": "00", "P29_009": null }, "geometry": { "type": "Point", "coordinates": [ 135.520404589597547, 34.301729465544931 ] } },
{ "type": "Feature", "properties": { "P29_001": "30341", "P29_002": "C130210000627", "P29_003": "16002", "P29_004": "かつらぎ町立笠田中学校", "P29_005": "和歌山県伊都郡かつらぎ町笠田東132", "P29_006": "3", "P29_007": "1", "P29_008": "00", "P29_009": null }, "geometry": { "type": "Point", "coordinates": [ 135.480640162722409, 34.287799629254422 ] } },
{ "type": "Feature", "properties": { "P29_001": "30343", "P29_002": "C130210000636", "P29_003": "16002", "P29_004": "九度山町立九度山中学校", "P29_005": "和歌山県伊都郡九度山町九度山619", "P29_006": "3", "P29_007": "1", "P29_008": "00", "P29_009": null }, "geometry": { "type": "Point", "coordinates": [ 135.567099983993785, 34.287733234639376 ] } },
{ "type": "Feature", "properties": { "P29_001": "30343", "P29_002": "C130210000645", "P29_003": "16002", "P29_004": "九度山町立河根中学校", "P29_005": "和歌山県伊都郡九度山町河根77", "P29_006": "3", "P29_007": "1", "P29_008": "00", "P29_009": null }, "geometry": { "type": "Point", "coordinates": [ 135.578490713132112, 34.273305701999163 ] } },
{ "type": "Feature", "properties": { "P29_001": "30344", "P29_002": "C130210000654", "P29_003": "16002", "P29_004": "高野町立富貴中学校", "P29_005": "和歌山県伊都郡高野町東富貴202", "P29_006": "3", "P29_007": "9", "P29_008": "00", "P29_009": null }, "geometry": { "type": "Point", "coordinates": [ 135.700350898348432, 34.262710740871135 ] } },
{ "type": "Feature", "properties": { "P29_001": "30344", "P29_002": "C130210000663", "P29_003": "16002", "P29_004": "高野町立高野山中学校", "P29_005": "和歌山県伊都郡高野町高野山26-2", "P29_006": "3", "P29_007": "1", "P29_008": "00", "P29_009": null }, "geometry": { "type": "Point", "coordinates": [ 135.589773904275035, 34.221442503799757 ] } },
{ "type": "Feature", "properties": { "P29_001": "30203", "P29_002": "C130210000672", "P29_003": "16002", "P29_004": "橋本市立高野口中学校", "P29_005": "和歌山県橋本市高野口町名古曽1322-10", "P29_006": "3", "P29_007": "1", "P29_008": "00", "P29_009": null }, "geometry": { "type": "Point", "coordinates": [ 135.55963738144186, 34.321852640047489 ] } },
{ "type": "Feature", "properties": { "P29_001": "30361", "P29_002": "C130210000681", "P29_003": "16002", "P29_004": "湯浅町立湯浅中学校", "P29_005": "和歌山県有田郡湯浅町湯浅1815", "P29_006": "3", "P29_007": "1", "P29_008": "00", "P29_009": null }, "geometry": { "type": "Point", "coordinates": [ 135.184154489400242, 34.040335489945264 ] } },
{ "type": "Feature", "properties": { "P29_001": "30362", "P29_002": "C130210000690", "P29_003": "16002", "P29_004": "広川町立耐久中学校", "P29_005": "和歌山県有田郡広川町広1123", "P29_006": "3", "P29_007": "1", "P29_008": "00", "P29_009": null }, "geometry": { "type": "Point", "coordinates": [ 135.169183365379581, 34.024254599911437 ] } },
{ "type": "Feature", "properties": { "P29_001": "30362", "P29_002": "C130210000707", "P29_003": "16002", "P29_004": "広川町立津木中学校", "P29_005": "和歌山県有田郡広川町下津木716", "P29_006": "3", "P29_007": "1", "P29_008": "00", "P29_009": null }, "geometry": { "type": "Point", "coordinates": [ 135.213109540489825, 33.980026580055551 ] } },
{ "type": "Feature", "properties": { "P29_001": "30366", "P29_002": "C130210000716", "P29_003": "16002", "P29_004": "有田川町立吉備中学校", "P29_005": "和歌山県有田郡有田川町下津野1223-1", "P29_006": "3", "P29_007": "1", "P29_008": "00", "P29_009": null }, "geometry": { "type": "Point", "coordinates": [ 135.2141028837801, 34.062502273269864 ] } },
{ "type": "Feature", "properties": { "P29_001": "30366", "P29_002": "C130210000725", "P29_003": "16002", "P29_004": "有田川町立石垣中学校", "P29_005": "和歌山県有田郡有田川町吉原1604", "P29_006": "3", "P29_007": "1", "P29_008": "00", "P29_009": null }, "geometry": { "type": "Point", "coordinates": [ 135.254617796696891, 34.041885737713947 ] } },
{ "type": "Feature", "properties": { "P29_001": "30366", "P29_002": "C130210000734", "P29_003": "16002", "P29_004": "有田川町立八幡中学校", "P29_005": "和歌山県有田郡有田川町清水430-1", "P29_006": "3", "P29_007": "1", "P29_008": "00", "P29_009": null }, "geometry": { "type": "Point", "coordinates": [ 135.430788795951912, 34.08547960393598 ] } },
{ "type": "Feature", "properties": { "P29_001": "30366", "P29_002": "C130210000743", "P29_003": "16002", "P29_004": "有田川町立金屋中学校", "P29_005": "和歌山県有田郡有田川町中井原252", "P29_006": "3", "P29_007": "1", "P29_008": "00", "P29_009": null }, "geometry": { "type": "Point", "coordinates": [ 135.259075630323053, 34.064386455629396 ] } },
{ "type": "Feature", "properties": { "P29_001": "30381", "P29_002": "C130210000752", "P29_003": "16002", "P29_004": "美浜町立松洋中学校", "P29_005": "和歌山県日高郡美浜町吉原958", "P29_006": "3", "P29_007": "1", "P29_008": "00", "P29_009": null }, "geometry": { "type": "Point", "coordinates": [ 135.137391245777138, 33.890607575517926 ] } },
{ "type": "Feature", "properties": { "P29_001": "30382", "P29_002": "C130210000761", "P29_003": "16002", "P29_004": "日高町立日高中学校", "P29_005": "和歌山県日高郡日高町志賀71-1", "P29_006": "3", "P29_007": "1", "P29_008": "00", "P29_009": null }, "geometry": { "type": "Point", "coordinates": [ 135.126254440601855, 33.922196408523007 ] } },
{ "type": "Feature", "properties": { "P29_001": "30392", "P29_002": "C130210000770", "P29_003": "16002", "P29_004": "日高川町立丹生中学校", "P29_005": "和歌山県日高郡日高川町江川536", "P29_006": "3", "P29_007": "1", "P29_008": "00", "P29_009": null }, "geometry": { "type": "Point", "coordinates": [ 135.219753104210611, 33.891258871624174 ] } },
{ "type": "Feature", "properties": { "P29_001": "30392", "P29_002": "C130210000789", "P29_003": "16002", "P29_004": "日高川町立早蘇中学校", "P29_005": "和歌山県日高郡日高川町蛇尾476", "P29_006": "3", "P29_007": "1", "P29_008": "00", "P29_009": null }, "geometry": { "type": "Point", "coordinates": [ 135.223685127906492, 33.935839148099745 ] } },
{ "type": "Feature", "properties": { "P29_001": "30383", "P29_002": "C130210000798", "P29_003": "16002", "P29_004": "由良町立由良中学校", "P29_005": "和歌山県日高郡由良町阿戸708-1", "P29_006": "3", "P29_007": "1", "P29_008": "00", "P29_009": null }, "geometry": { "type": "Point", "coordinates": [ 135.116489914148815, 33.959131322587929 ] } },
{ "type": "Feature", "properties": { "P29_001": "30391", "P29_002": "C130210000805", "P29_003": "16002", "P29_004": "みなべ町立高城中学校", "P29_005": "和歌山県日高郡みなべ町滝81", "P29_006": "3", "P29_007": "1", "P29_008": "00", "P29_009": null }, "geometry": { "type": "Point", "coordinates": [ 135.356239249454404, 33.848966621621784 ] } },
{ "type": "Feature", "properties": { "P29_001": "30391", "P29_002": "C130210000814", "P29_003": "16002", "P29_004": "みなべ町立上南部中学校", "P29_005": "和歌山県日高郡みなべ町東本庄91", "P29_006": "3", "P29_007": "1", "P29_008": "00", "P29_009": null }, "geometry": { "type": "Point", "coordinates": [ 135.331036006568752, 33.7921294286623 ] } },
{ "type": "Feature", "properties": { "P29_001": "30391", "P29_002": "C130210000823", "P29_003": "16002", "P29_004": "みなべ町立南部中学校", "P29_005": "和歌山県日高郡みなべ町芝510", "P29_006": "3", "P29_007": "1", "P29_008": "00", "P29_009": null }, "geometry": { "type": "Point", "coordinates": [ 135.32246157427312, 33.764665831746719 ] } },
{ "type": "Feature", "properties": { "P29_001": "30390", "P29_002": "C130210000832", "P29_003": "16002", "P29_004": "印南町立切目中学校", "P29_005": "和歌山県日高郡印南町西ノ地1352", "P29_006": "3", "P29_007": "1", "P29_008": "00", "P29_009": null }, "geometry": { "type": "Point", "coordinates": [ 135.243235585704042, 33.804203612035991 ] } },
{ "type": "Feature", "properties": { "P29_001": "30390", "P29_002": "C130210000841", "P29_003": "16002", "P29_004": "印南町立稲原中学校", "P29_005": "和歌山県日高郡印南町印南原1743", "P29_006": "3", "P29_007": "1", "P29_008": "00", "P29_009": null }, "geometry": { "type": "Point", "coordinates": [ 135.227030230681294, 33.859475308478075 ] } },
{ "type": "Feature", "properties": { "P29_001": "30390", "P29_002": "C130210000850", "P29_003": "16002", "P29_004": "印南町立印南中学校", "P29_005": "和歌山県日高郡印南町印南2145", "P29_006": "3", "P29_007": "1", "P29_008": "00", "P29_009": null }, "geometry": { "type": "Point", "coordinates": [ 135.216322625936129, 33.820450383753183 ] } },
{ "type": "Feature", "properties": { "P29_001": "30401", "P29_002": "C130210000869", "P29_003": "16002", "P29_004": "白浜町立白浜中学校", "P29_005": "和歌山県西牟婁郡白浜町2601", "P29_006": "3", "P29_007": "1", "P29_008": "00", "P29_009": null }, "geometry": { "type": "Point", "coordinates": [ 135.352565564207339, 33.680167575246642 ] } },
{ "type": "Feature", "properties": { "P29_001": "30401", "P29_002": "C130210000878", "P29_003": "16002", "P29_004": "白浜町立富田中学校", "P29_005": "和歌山県西牟婁郡白浜町栄320", "P29_006": "3", "P29_007": "1", "P29_008": "00", "P29_009": null }, "geometry": { "type": "Point", "coordinates": [ 135.391410845716422, 33.655839395247597 ] } },
{ "type": "Feature", "properties": { "P29_001": "30206", "P29_002": "C130210000887", "P29_003": "16002", "P29_004": "田辺市立近野中学校", "P29_005": "和歌山県田辺市中辺路町近露1061", "P29_006": "3", "P29_007": "1", "P29_008": "00", "P29_009": null }, "geometry": { "type": "Point", "coordinates": [ 135.611685907766031, 33.816861378136117 ] } },
{ "type": "Feature", "properties": { "P29_001": "30404", "P29_002": "C130210000896", "P29_003": "16002", "P29_004": "上富田町立上富田中学校", "P29_005": "和歌山県西牟婁郡上富田町岩田173", "P29_006": "3", "P29_007": "1", "P29_008": "00", "P29_009": null }, "geometry": { "type": "Point", "coordinates": [ 135.433387857515442, 33.69907270023571 ] } },
{ "type": "Feature", "properties": { "P29_001": "30401", "P29_002": "C130210000903", "P29_003": "16002", "P29_004": "白浜町立日置中学校", "P29_005": "和歌山県西牟婁郡白浜町日置979-2", "P29_006": "3", "P29_007": "1", "P29_008": "00", "P29_009": null }, "geometry": { "type": "Point", "coordinates": [ 135.440566759985188, 33.566397681932862 ] } },
{ "type": "Feature", "properties": { "P29_001": "30401", "P29_002": "C130210000912", "P29_003": "16002", "P29_004": "白浜町立三舞中学校", "P29_005": "和歌山県西牟婁郡白浜町安居626", "P29_006": "3", "P29_007": "1", "P29_008": "00", "P29_009": null }, "geometry": { "type": "Point", "coordinates": [ 135.480661073930634, 33.606698493699682 ] } },
{ "type": "Feature", "properties": { "P29_001": "30406", "P29_002": "C130210000921", "P29_003": "16002", "P29_004": "すさみ町立周参見中学校", "P29_005": "和歌山県西牟婁郡すさみ町周参見3685", "P29_006": "3", "P29_007": "1", "P29_008": "00", "P29_009": null }, "geometry": { "type": "Point", "coordinates": [ 135.499901821888443, 33.554688458779552 ] } },
{ "type": "Feature", "properties": { "P29_001": "30428", "P29_002": "C130210000930", "P29_003": "16002", "P29_004": "串本町立串本中学校", "P29_005": "和歌山県東牟婁郡串本町串本1620", "P29_006": "3", "P29_007": "1", "P29_008": "00", "P29_009": null }, "geometry": { "type": "Point", "coordinates": [ 135.780533632160683, 33.46273190993157 ] } },
{ "type": "Feature", "properties": { "P29_001": "30428", "P29_002": "C130210000949", "P29_003": "16002", "P29_004": "串本町立潮岬中学校", "P29_005": "和歌山県東牟婁郡串本町潮岬3349-13", "P29_006": "3", "P29_007": "1", "P29_008": "00", "P29_009": null }, "geometry": { "type": "Point", "coordinates": [ 135.755646234162214, 33.448642128610906 ] } },
{ "type": "Feature", "properties": { "P29_001": "30206", "P29_002": "C130210000958", "P29_003": "16002", "P29_004": "田辺市立中辺路中学校", "P29_005": "和歌山県田辺市中辺路町栗栖川474-1", "P29_006": "3", "P29_007": "1", "P29_008": "00", "P29_009": null }, "geometry": { "type": "Point", "coordinates": [ 135.516333417384544, 33.793145774010426 ] } },
{ "type": "Feature", "properties": { "P29_001": "30206", "P29_002": "C130210000967", "P29_003": "16002", "P29_004": "田辺市立大塔中学校", "P29_005": "和歌山県田辺市鮎川2588-2", "P29_006": "3", "P29_007": "1", "P29_008": "00", "P29_009": null }, "geometry": { "type": "Point", "coordinates": [ 135.486331066085569, 33.726953849739147 ] } },
{ "type": "Feature", "properties": { "P29_001": "30421", "P29_002": "C130210000976", "P29_003": "16002", "P29_004": "那智勝浦町立宇久井中学校", "P29_005": "和歌山県東牟婁郡那智勝浦町宇久井1073", "P29_006": "3", "P29_007": "1", "P29_008": "00", "P29_009": null }, "geometry": { "type": "Point", "coordinates": [ 135.971208270664874, 33.658974414158166 ] } },
{ "type": "Feature", "properties": { "P29_001": "30421", "P29_002": "C130210000985", "P29_003": "16002", "P29_004": "那智勝浦町立那智中学校", "P29_005": "和歌山県東牟婁郡那智勝浦町天満1693", "P29_006": "3", "P29_007": "1", "P29_008": "00", "P29_009": null }, "geometry": { "type": "Point", "coordinates": [ 135.931255996309233, 33.638585163330646 ] } },
{ "type": "Feature", "properties": { "P29_001": "30421", "P29_002": "C130210000994", "P29_003": "16002", "P29_004": "那智勝浦町立色川中学校", "P29_005": "和歌山県東牟婁郡那智勝浦町大野2410-1", "P29_006": "3", "P29_007": "1", "P29_008": "00", "P29_009": null }, "geometry": { "type": "Point", "coordinates": [ 135.847859617217637, 33.675106144359312 ] } },
{ "type": "Feature", "properties": { "P29_001": "30421", "P29_002": "C130210001001", "P29_003": "16002", "P29_004": "那智勝浦町立下里中学校", "P29_005": "和歌山県東牟婁郡那智勝浦町大字下里480", "P29_006": "3", "P29_007": "1", "P29_008": "00", "P29_009": null }, "geometry": { "type": "Point", "coordinates": [ 135.92126588489046, 33.584787948387692 ] } },
{ "type": "Feature", "properties": { "P29_001": "30422", "P29_002": "C130210001010", "P29_003": "16002", "P29_004": "太地町立太地中学校", "P29_005": "和歌山県東牟婁郡太地町太地114-2", "P29_006": "3", "P29_007": "1", "P29_008": "00", "P29_009": null }, "geometry": { "type": "Point", "coordinates": [ 135.959308078360039, 33.592535500469083 ] } },
{ "type": "Feature", "properties": { "P29_001": "30428", "P29_002": "C130210001029", "P29_003": "16002", "P29_004": "串本町立西向中学校", "P29_005": "和歌山県東牟婁郡串本町西向922", "P29_006": "3", "P29_007": "1", "P29_008": "00", "P29_009": null }, "geometry": { "type": "Point", "coordinates": [ 135.818057591200386, 33.510332186814999 ] } },
{ "type": "Feature", "properties": { "P29_001": "30424", "P29_002": "C130210001038", "P29_003": "16002", "P29_004": "古座川町立明神中学校", "P29_005": "和歌山県東牟婁郡古座川町一雨16", "P29_006": "3", "P29_007": "1", "P29_008": "00", "P29_009": null }, "geometry": { "type": "Point", "coordinates": [ 135.757582367377296, 33.537265105269697 ] } },
{ "type": "Feature", "properties": { "P29_001": "30427", "P29_002": "C130210001047", "P29_003": "16002", "P29_004": "北山村立北山中学校", "P29_005": "和歌山県東牟婁郡北山村大沼569", "P29_006": "3", "P29_007": "1", "P29_008": "00", "P29_009": null }, "geometry": { "type": "Point", "coordinates": [ 135.973897114664993, 33.943693034954428 ] } },
{ "type": "Feature", "properties": { "P29_001": "30207", "P29_002": "C130210001056", "P29_003": "16002", "P29_004": "新宮市立熊野川中学校", "P29_005": "和歌山県新宮市熊野川町日足646", "P29_006": "3", "P29_007": "1", "P29_008": "00", "P29_009": null }, "geometry": { "type": "Point", "coordinates": [ 135.871271634860449, 33.799614228645837 ] } },
{ "type": "Feature", "properties": { "P29_001": "30392", "P29_002": "C130210001065", "P29_003": "16002", "P29_004": "御坊市日高川町中学校組合立大成中学校", "P29_005": "和歌山県日高郡日高川町土生1228-2", "P29_006": "3", "P29_007": "1", "P29_008": "00", "P29_009": null }, "geometry": { "type": "Point", "coordinates": [ 135.179530124807314, 33.914689309111637 ] } },
{ "type": "Feature", "properties": { "P29_001": "30424", "P29_002": "C130210001074", "P29_003": "16002", "P29_004": "古座川町立古座中学校", "P29_005": "和歌山県東牟婁郡古座川町高池139", "P29_006": "3", "P29_007": "1", "P29_008": "00", "P29_009": null }, "geometry": { "type": "Point", "coordinates": [ 135.823283549130736, 33.525003802679933 ] } },
{ "type": "Feature", "properties": { "P29_001": "30201", "P29_002": "C130210001083", "P29_003": "16002", "P29_004": "和歌山市立貴志中学校", "P29_005": "和歌山県和歌山市梅原579-2", "P29_006": "3", "P29_007": "1", "P29_008": "00", "P29_009": null }, "geometry": { "type": "Point", "coordinates": [ 135.143642260507903, 34.267943095000703 ] } },
{ "type": "Feature", "properties": { "P29_001": "30390", "P29_002": "C130210001092", "P29_003": "16002", "P29_004": "印南町立清流中学校", "P29_005": "和歌山県日高郡印南町古井5", "P29_006": "3", "P29_007": "1", "P29_008": "00", "P29_009": null }, "geometry": { "type": "Point", "coordinates": [ 135.265498793433409, 33.849072269672426 ] } },
{ "type": "Feature", "properties": { "P29_001": "30206", "P29_002": "C130210001109", "P29_003": "16002", "P29_004": "田辺市立本宮中学校", "P29_005": "和歌山県田辺市本宮町本宮730", "P29_006": "3", "P29_007": "1", "P29_008": "00", "P29_009": null }, "geometry": { "type": "Point", "coordinates": [ 135.768705247158152, 33.837163648554665 ] } },
{ "type": "Feature", "properties": { "P29_001": "30201", "P29_002": "C130210001118", "P29_003": "16002", "P29_004": "和歌山県立向陽中学校", "P29_005": "和歌山県和歌山市太田127", "P29_006": "2", "P29_007": "1", "P29_008": "00", "P29_009": null }, "geometry": { "type": "Point", "coordinates": [ 135.199556475966943, 34.228080222027245 ] } },
{ "type": "Feature", "properties": { "P29_001": "30392", "P29_002": "C130210001127", "P29_003": "16002", "P29_004": "日高川町立美山中学校", "P29_005": "和歌山県日高郡日高川町川原河129", "P29_006": "3", "P29_007": "1", "P29_008": "00", "P29_009": null }, "geometry": { "type": "Point", "coordinates": [ 135.366219227512175, 33.981465812623306 ] } },
{ "type": "Feature", "properties": { "P29_001": "30392", "P29_002": "C130210001136", "P29_003": "16002", "P29_004": "日高川町立中津中学校", "P29_005": "和歌山県日高郡日高川町三佐19-2", "P29_006": "3", "P29_007": "1", "P29_008": "00", "P29_009": null }, "geometry": { "type": "Point", "coordinates": [ 135.311255697329045, 33.929761294261873 ] } },
{ "type": "Feature", "properties": { "P29_001": "30206", "P29_002": "C130210001145", "P29_003": "16002", "P29_004": "田辺市立龍神中学校", "P29_005": "和歌山県田辺市龍神村安井1048-1", "P29_006": "3", "P29_007": "1", "P29_008": "00", "P29_009": null }, "geometry": { "type": "Point", "coordinates": [ 135.476604025941896, 33.891823860947831 ] } },
{ "type": "Feature", "properties": { "P29_001": "30203", "P29_002": "C130210001154", "P29_003": "16002", "P29_004": "和歌山県立古佐田丘中学校", "P29_005": "和歌山県橋本市古佐田4-10-1", "P29_006": "2", "P29_007": "1", "P29_008": "00", "P29_009": null }, "geometry": { "type": "Point", "coordinates": [ 135.614285647003243, 34.32087001512474 ] } },
{ "type": "Feature", "properties": { "P29_001": "30206", "P29_002": "C130210001163", "P29_003": "16002", "P29_004": "和歌山県立田辺中学校", "P29_005": "和歌山県田辺市学園1-71", "P29_006": "2", "P29_007": "1", "P29_008": "00", "P29_009": null }, "geometry": { "type": "Point", "coordinates": [ 135.389376408692272, 33.724325598076831 ] } },
{ "type": "Feature", "properties": { "P29_001": "30428", "P29_002": "C130210001172", "P29_003": "16002", "P29_004": "串本町立串本西中学校", "P29_005": "和歌山県東牟婁郡串本町田並1300", "P29_006": "3", "P29_007": "1", "P29_008": "00", "P29_009": null }, "geometry": { "type": "Point", "coordinates": [ 135.716715589898456, 33.490155457540112 ] } },
{ "type": "Feature", "properties": { "P29_001": "30201", "P29_002": "C130210001181", "P29_003": "16002", "P29_004": "和歌山県立桐蔭中学校", "P29_005": "和歌山県和歌山市吹上5-6-18", "P29_006": "2", "P29_007": "1", "P29_008": "00", "P29_009": null }, "geometry": { "type": "Point", "coordinates": [ 135.174432605591761, 34.217826192855547 ] } },
{ "type": "Feature", "properties": { "P29_001": "30205", "P29_002": "C130210001190", "P29_003": "16002", "P29_004": "和歌山県立日高高等学校附属中学校", "P29_005": "和歌山県御坊市島45", "P29_006": "2", "P29_007": "1", "P29_008": "00", "P29_009": null }, "geometry": { "type": "Point", "coordinates": [ 135.157781297158095, 33.896702424520299 ] } },
{ "type": "Feature", "properties": { "P29_001": "30203", "P29_002": "C130210001207", "P29_003": "16002", "P29_004": "橋本市立橋本中央中学校", "P29_005": "和歌山県橋本市市脇5-3-8", "P29_006": "3", "P29_007": "1", "P29_008": "00", "P29_009": null }, "geometry": { "type": "Point", "coordinates": [ 135.604441001470235, 34.312308486549973 ] } },
{ "type": "Feature", "properties": { "P29_001": "30201", "P29_002": "C130310000019", "P29_003": "16002", "P29_004": "和歌山信愛中学校", "P29_005": "和歌山県和歌山市屋形町2-23", "P29_006": "4", "P29_007": "1", "P29_008": "00", "P29_009": null }, "geometry": { "type": "Point", "coordinates": [ 135.178593684330963, 34.229249648568171 ] } },
{ "type": "Feature", "properties": { "P29_001": "30202", "P29_002": "C130310000028", "P29_003": "16002", "P29_004": "智辯学園和歌山中学校", "P29_005": "和歌山県和歌山市冬野2066-1", "P29_006": "4", "P29_007": "1", "P29_008": "00", "P29_009": null }, "geometry": { "type": "Point", "coordinates": [ 135.211915048543489, 34.173985106550553 ] } },
{ "type": "Feature", "properties": { "P29_001": "30201", "P29_002": "C130310000037", "P29_003": "16002", "P29_004": "近畿大学附属和歌山中学校", "P29_005": "和歌山県和歌山市善明寺516", "P29_006": "4", "P29_007": "1", "P29_008": "00", "P29_009": null }, "geometry": { "type": "Point", "coordinates": [ 135.183595191461734, 34.268823113689969 ] } },
{ "type": "Feature", "properties": { "P29_001": "30207", "P29_002": "C130310000046", "P29_003": "16002", "P29_004": "近畿大学附属新宮中学校", "P29_005": "和歌山県新宮市新宮4966", "P29_006": "4", "P29_007": "1", "P29_008": "00", "P29_009": null }, "geometry": { "type": "Point", "coordinates": [ 135.997933061647302, 33.715629192188551 ] } },
{ "type": "Feature", "properties": { "P29_001": "30201", "P29_002": "C130310000055", "P29_003": "16002", "P29_004": "開智中学校", "P29_005": "和歌山県和歌山市直川113-2", "P29_006": "4", "P29_007": "1", "P29_008": "00", "P29_009": null }, "geometry": { "type": "Point", "coordinates": [ 135.210835764635164, 34.259608891800468 ] } },
{ "type": "Feature", "properties": { "P29_001": "30203", "P29_002": "C130310000064", "P29_003": "16002", "P29_004": "きのくに子どもの村中学校", "P29_005": "和歌山県橋本市彦谷51", "P29_006": "4", "P29_007": "1", "P29_008": "00", "P29_009": null }, "geometry": { "type": "Point", "coordinates": [ 135.643469283777762, 34.282154157381221 ] } },
{ "type": "Feature", "properties": { "P29_001": "30203", "P29_002": "C130310000073", "P29_003": "16002", "P29_004": "初芝橋本中学校", "P29_005": "和歌山県橋本市小峰台2-6-1", "P29_006": "4", "P29_007": "1", "P29_008": "00", "P29_009": null }, "geometry": { "type": "Point", "coordinates": [ 135.630174386664322, 34.353504589088033 ] } }
]
}
