{
"type": "FeatureCollection",
"name": "geo_30_認知症対応型共同生活介護",
"crs": { "type": "name", "properties": { "name": "urn:ogc:def:crs:OGC:1.3:CRS84" } },
"features": [
{ "type": "Feature", "properties": { "内容": "認知症対応型老人共同生活援助事業所　わかやま苑【認知症対応型共同生活介護】和歌山県和歌山市屋形町１丁目３９番地２", "url": "https://www.kaigokensaku.mhlw.go.jp/30/index.php?action_kouhyou_detail_004_kani=true&JigyosyoCd=3090100235-00&ServiceCd=320&Type=search", "url2": "http://wakayama-en.jp/" }, "geometry": { "type": "Point", "coordinates": [ 135.17713359636457, 34.230845661622944 ] } },
{ "type": "Feature", "properties": { "内容": "グループホームかがやき【認知症対応型共同生活介護】和歌山市禰宜９２０－１", "url": "https://www.kaigokensaku.mhlw.go.jp/30/index.php?action_kouhyou_detail_004_kani=true&JigyosyoCd=3070105295-00&ServiceCd=320&Type=search", "url2": null }, "geometry": { "type": "Point", "coordinates": [ 135.249113099999931, 34.2340763 ] } },
{ "type": "Feature", "properties": { "内容": "グループホーム　はるすのお家・和歌山【認知症対応型共同生活介護】和歌山県和歌山市福島486番地1", "url": "https://www.kaigokensaku.mhlw.go.jp/30/index.php?action_kouhyou_detail_004_kani=true&JigyosyoCd=3070103399-00&ServiceCd=320&Type=search", "url2": "https://hals-hals.co.jp/" }, "geometry": { "type": "Point", "coordinates": [ 135.165115372082937, 34.246823138814946 ] } },
{ "type": "Feature", "properties": { "内容": "あさひの家【認知症対応型共同生活介護】朝日21-1", "url": "https://www.kaigokensaku.mhlw.go.jp/30/index.php?action_kouhyou_detail_004_kani=true&JigyosyoCd=3070103316-00&ServiceCd=320&Type=search", "url2": "http://care-net.biz/30/asahi/" }, "geometry": { "type": "Point", "coordinates": [ 139.713051, 35.7713708 ] } },
{ "type": "Feature", "properties": { "内容": "あい楠見【認知症対応型共同生活介護】和歌山市楠見中197-8", "url": "https://www.kaigokensaku.mhlw.go.jp/30/index.php?action_kouhyou_detail_004_kani=true&JigyosyoCd=3090100078-00&ServiceCd=320&Type=search", "url2": "http://www.nakae.or.jp/contents/ai/index.html" }, "geometry": { "type": "Point", "coordinates": [ 135.1798844, 34.2547287 ] } },
{ "type": "Feature", "properties": { "内容": "松鶴松江壱番館【認知症対応型共同生活介護】和歌山県和歌山市松江東二丁目４－３２", "url": "https://www.kaigokensaku.mhlw.go.jp/30/index.php?action_kouhyou_detail_004_kani=true&JigyosyoCd=3090100193-00&ServiceCd=320&Type=search", "url2": null }, "geometry": { "type": "Point", "coordinates": [ 135.134885, 34.2458647 ] } },
{ "type": "Feature", "properties": { "内容": "松鶴野崎弐番館【認知症対応型共同生活介護】和歌山県和歌山市狐島５９０", "url": "https://www.kaigokensaku.mhlw.go.jp/30/index.php?action_kouhyou_detail_004_kani=true&JigyosyoCd=3090100581-00&ServiceCd=320&Type=search", "url2": null }, "geometry": { "type": "Point", "coordinates": [ 135.157681, 34.2471981 ] } },
{ "type": "Feature", "properties": { "内容": "あさひの家【認知症対応型共同生活介護】朝日21－1", "url": "https://www.kaigokensaku.mhlw.go.jp/30/index.php?action_kouhyou_detail_004_kani=true&JigyosyoCd=3090101878-00&ServiceCd=320&Type=search", "url2": "https://www.houshunkai.or.jp/asahi.html" }, "geometry": { "type": "Point", "coordinates": [ 135.179492, 34.204372 ] } },
{ "type": "Feature", "properties": { "内容": "医療法人研医会　和歌山第2すみれホーム【認知症対応型共同生活介護】和歌山県和歌山市有本５３３番地3", "url": "https://www.kaigokensaku.mhlw.go.jp/30/index.php?action_kouhyou_detail_004_kani=true&JigyosyoCd=3090101704-00&ServiceCd=320&Type=search", "url2": "https://wakayama-dai2-sumire.jp/" }, "geometry": { "type": "Point", "coordinates": [ 135.1939121, 34.2510864 ] } },
{ "type": "Feature", "properties": { "内容": "医療法人研医会紀の川すみれホーム【認知症対応型共同生活介護】和歌山県和歌山市船所36-2", "url": "https://www.kaigokensaku.mhlw.go.jp/30/index.php?action_kouhyou_detail_004_kani=true&JigyosyoCd=3090101456-00&ServiceCd=320&Type=search", "url2": "https://kinokawa-sumire.jp/" }, "geometry": { "type": "Point", "coordinates": [ 135.1811226, 34.2548844 ] } },
{ "type": "Feature", "properties": { "内容": "グループホーム　すこやか【認知症対応型共同生活介護】和歌山市和田592－6", "url": "https://www.kaigokensaku.mhlw.go.jp/30/index.php?action_kouhyou_detail_004_kani=true&JigyosyoCd=3070102789-00&ServiceCd=320&Type=search", "url2": "sukoyaka4567＠santa-sukoyaka.or.jp" }, "geometry": { "type": "Point", "coordinates": [ 135.211741500000016, 34.2049594 ] } },
{ "type": "Feature", "properties": { "内容": "たかまつグループホーム【認知症対応型共同生活介護】和歌山市西高松１－５－３６", "url": "https://www.kaigokensaku.mhlw.go.jp/30/index.php?action_kouhyou_detail_004_kani=true&JigyosyoCd=3070104538-00&ServiceCd=320&Type=search", "url2": null }, "geometry": { "type": "Point", "coordinates": [ 135.171303, 34.2081112 ] } },
{ "type": "Feature", "properties": { "内容": "わかうら園　第２グループホーム【認知症対応型共同生活介護】和歌山市田野１７８番地", "url": "https://www.kaigokensaku.mhlw.go.jp/30/index.php?action_kouhyou_detail_004_kani=true&JigyosyoCd=3090100516-00&ServiceCd=320&Type=search", "url2": "https://wakaurakai.or.jp/" }, "geometry": { "type": "Point", "coordinates": [ 135.149941099999978, 34.1857574 ] } },
{ "type": "Feature", "properties": { "内容": "あいの里悠々【認知症対応型共同生活介護】和歌山市松原115", "url": "https://www.kaigokensaku.mhlw.go.jp/30/index.php?action_kouhyou_detail_004_kani=true&JigyosyoCd=3070103084-00&ServiceCd=320&Type=search", "url2": "http://www.ainosato.wa.or.jp" }, "geometry": { "type": "Point", "coordinates": [ 135.235787100000039, 34.1919394 ] } },
{ "type": "Feature", "properties": { "内容": "グループホーム　グランリーフ【認知症対応型共同生活介護】和歌山市雄松町３丁目１９－６", "url": "https://www.kaigokensaku.mhlw.go.jp/30/index.php?action_kouhyou_detail_004_kani=true&JigyosyoCd=3070104462-00&ServiceCd=320&Type=search", "url2": "asibe-so＠crocus.ocn.ne.jp" }, "geometry": { "type": "Point", "coordinates": [ 135.182152, 34.2207795 ] } },
{ "type": "Feature", "properties": { "内容": "グループホーム　太陽のおうち【認知症対応型共同生活介護】和歌山市山口西３８５－１", "url": "https://www.kaigokensaku.mhlw.go.jp/30/index.php?action_kouhyou_detail_004_kani=true&JigyosyoCd=3070104249-00&ServiceCd=320&Type=search", "url2": "http://www.murohome.jp" }, "geometry": { "type": "Point", "coordinates": [ 135.258661500000017, 34.273543 ] } },
{ "type": "Feature", "properties": { "内容": "けあビジョンホーム和歌山木ノ本【認知症対応型共同生活介護】和歌山県和歌山市木ノ本476-2", "url": "https://www.kaigokensaku.mhlw.go.jp/30/index.php?action_kouhyou_detail_004_kani=true&JigyosyoCd=3090101183-00&ServiceCd=320&Type=search", "url2": null }, "geometry": { "type": "Point", "coordinates": [ 135.120624499999963, 34.2587658 ] } },
{ "type": "Feature", "properties": { "内容": "グループホームみさき宮前【認知症対応型共同生活介護】和歌山県和歌山市手平3-8-35", "url": "https://www.kaigokensaku.mhlw.go.jp/30/index.php?action_kouhyou_detail_004_kani=true&JigyosyoCd=3090100847-00&ServiceCd=320&Type=search", "url2": "http://misaki-kaigo.co.jp" }, "geometry": { "type": "Point", "coordinates": [ 135.188582200000042, 34.214872 ] } },
{ "type": "Feature", "properties": { "内容": "グループホームしあわせ【認知症対応型共同生活介護】中之島５００番地１０", "url": "https://www.kaigokensaku.mhlw.go.jp/30/index.php?action_kouhyou_detail_004_kani=true&JigyosyoCd=3090100201-00&ServiceCd=320&Type=search", "url2": "http://shiawase-kaigo.or.jp" }, "geometry": { "type": "Point", "coordinates": [ 135.187939799999981, 34.2428022 ] } },
{ "type": "Feature", "properties": { "内容": "グループホーム紀伊【認知症対応型共同生活介護】和歌山県和歌山市北野１１７番地１高齢者総合ケアセンター紀伊　グループホーム紀伊", "url": "https://www.kaigokensaku.mhlw.go.jp/30/index.php?action_kouhyou_detail_004_kani=true&JigyosyoCd=3090100946-00&ServiceCd=320&Type=search", "url2": "http://www.kiseikai-w.or.jp" }, "geometry": { "type": "Point", "coordinates": [ 135.247619697761593, 34.265119696967993 ] } },
{ "type": "Feature", "properties": { "内容": "フローレンス三寿【認知症対応型共同生活介護】和歌山県和歌山市向180-1フローレンス三寿", "url": "https://www.kaigokensaku.mhlw.go.jp/30/index.php?action_kouhyou_detail_004_kani=true&JigyosyoCd=3090100870-00&ServiceCd=320&Type=search", "url2": "https://www.koufu-kai.or.jp/" }, "geometry": { "type": "Point", "coordinates": [ 135.145586699999967, 34.2578997 ] } },
{ "type": "Feature", "properties": { "内容": "グループホーム草原【認知症対応型共同生活介護】和歌山市田尻１５３番地の５", "url": "https://www.kaigokensaku.mhlw.go.jp/30/index.php?action_kouhyou_detail_004_kani=true&JigyosyoCd=3070102250-00&ServiceCd=320&Type=search", "url2": null }, "geometry": { "type": "Point", "coordinates": [ 135.197764799999959, 34.2121947 ] } },
{ "type": "Feature", "properties": { "内容": "セントケアホーム城北【認知症対応型共同生活介護】和歌山県和歌山市東布経丁3-6", "url": "https://www.kaigokensaku.mhlw.go.jp/30/index.php?action_kouhyou_detail_004_kani=true&JigyosyoCd=3090100748-00&ServiceCd=320&Type=search", "url2": null }, "geometry": { "type": "Point", "coordinates": [ 135.171816300000046, 34.2394076 ] } },
{ "type": "Feature", "properties": { "内容": "グループホームなぎのやど【認知症対応型共同生活介護】和歌山市下三毛870-2", "url": "https://www.kaigokensaku.mhlw.go.jp/30/index.php?action_kouhyou_detail_004_kani=true&JigyosyoCd=3070102722-00&ServiceCd=320&Type=search", "url2": "https://riv-son.com/" }, "geometry": { "type": "Point", "coordinates": [ 135.293411900000024, 34.2389046 ] } },
{ "type": "Feature", "properties": { "内容": "グループホームふどきぃひるず【認知症対応型共同生活介護】和歌山県和歌山市岩橋55－8", "url": "https://www.kaigokensaku.mhlw.go.jp/30/index.php?action_kouhyou_detail_004_kani=true&JigyosyoCd=3090100458-00&ServiceCd=320&Type=search", "url2": "https://riv-son.com/" }, "geometry": { "type": "Point", "coordinates": [ 135.231689441802928, 34.233684762188297 ] } },
{ "type": "Feature", "properties": { "内容": "グループホーム　だんらん【認知症対応型共同生活介護】小瀬田80番地の1", "url": "https://www.kaigokensaku.mhlw.go.jp/30/index.php?action_kouhyou_detail_004_kani=true&JigyosyoCd=3090100649-00&ServiceCd=320&Type=search", "url2": "https://riv-son.com/" }, "geometry": { "type": "Point", "coordinates": [ 135.230184604517092, 34.181704366532905 ] } },
{ "type": "Feature", "properties": { "内容": "千代の里グループホーム【認知症対応型共同生活介護】和歌山県和歌山市延時84-1", "url": "https://www.kaigokensaku.mhlw.go.jp/30/index.php?action_kouhyou_detail_004_kani=true&JigyosyoCd=3070103902-00&ServiceCd=320&Type=search", "url2": null }, "geometry": { "type": "Point", "coordinates": [ 135.149828399999933, 34.2518059 ] } },
{ "type": "Feature", "properties": { "内容": "株式会社介護ステーションオアシス【認知症対応型共同生活介護】和歌山市つつじヶ丘２丁目６－１", "url": "https://www.kaigokensaku.mhlw.go.jp/30/index.php?action_kouhyou_detail_004_kani=true&JigyosyoCd=3070104371-00&ServiceCd=320&Type=search", "url2": null }, "geometry": { "type": "Point", "coordinates": [ 135.09949180000001, 34.2688035 ] } },
{ "type": "Feature", "properties": { "内容": "グループホームぷすぷす【認知症対応型共同生活介護】和歌山市松江東1丁目７－２５", "url": "https://www.kaigokensaku.mhlw.go.jp/30/index.php?action_kouhyou_detail_004_kani=true&JigyosyoCd=3070102441-00&ServiceCd=320&Type=search", "url2": "http://www.ancianatio.com/" }, "geometry": { "type": "Point", "coordinates": [ 135.134546099999966, 34.2438399 ] } },
{ "type": "Feature", "properties": { "内容": "グループホーム　てまりの里【認知症対応型共同生活介護】和歌山市府中２０－１", "url": "https://www.kaigokensaku.mhlw.go.jp/30/index.php?action_kouhyou_detail_004_kani=true&JigyosyoCd=3090100375-00&ServiceCd=320&Type=search", "url2": null }, "geometry": { "type": "Point", "coordinates": [ 135.223047899999983, 34.2635403 ] } },
{ "type": "Feature", "properties": { "内容": "寿寿ソーラス【認知症対応型共同生活介護】和歌山県和歌山市福島898番6", "url": "https://www.kaigokensaku.mhlw.go.jp/30/index.php?action_kouhyou_detail_004_kani=true&JigyosyoCd=3090100607-00&ServiceCd=320&Type=search", "url2": "http://www.hukumikai.jp/" }, "geometry": { "type": "Point", "coordinates": [ 135.163955128836051, 34.246118993739728 ] } },
{ "type": "Feature", "properties": { "内容": "ニチイケアセンター紀三井寺【認知症対応型共同生活介護】和歌山県和歌山市紀三井寺516-1", "url": "https://www.kaigokensaku.mhlw.go.jp/30/index.php?action_kouhyou_detail_004_kani=true&JigyosyoCd=3090101688-00&ServiceCd=320&Type=search", "url2": null }, "geometry": { "type": "Point", "coordinates": [ 135.18860810000001, 34.1758196 ] } },
{ "type": "Feature", "properties": { "内容": "グループホームオアシスⅡ【認知症対応型共同生活介護】和歌山市つつじヶ丘２丁目６－１", "url": "https://www.kaigokensaku.mhlw.go.jp/30/index.php?action_kouhyou_detail_004_kani=true&JigyosyoCd=3090100177-00&ServiceCd=320&Type=search", "url2": null }, "geometry": { "type": "Point", "coordinates": [ 135.09949180000001, 34.2688035 ] } },
{ "type": "Feature", "properties": { "内容": "わかうら園第１グループホーム【認知症対応型共同生活介護】和歌山県和歌山市田野180番地", "url": "https://www.kaigokensaku.mhlw.go.jp/30/index.php?action_kouhyou_detail_004_kani=true&JigyosyoCd=3070101120-00&ServiceCd=320&Type=search", "url2": "https://wakaurakai.or.jp/" }, "geometry": { "type": "Point", "coordinates": [ 135.149777200000017, 34.18560750000001 ] } },
{ "type": "Feature", "properties": { "内容": "グループホーム紀伊松風苑なるたきのさと【認知症対応型共同生活介護】和歌山市園部364番3", "url": "https://www.kaigokensaku.mhlw.go.jp/30/index.php?action_kouhyou_detail_004_kani=true&JigyosyoCd=3090100417-00&ServiceCd=320&Type=search", "url2": "http://www.kii-shoufuuen.jp/" }, "geometry": { "type": "Point", "coordinates": [ 135.189938799999936, 34.2713247 ] } },
{ "type": "Feature", "properties": { "内容": "グループホーム紀伊松風苑ひだまりの家【認知症対応型共同生活介護】和歌山県和歌山市園部1637番2", "url": "https://www.kaigokensaku.mhlw.go.jp/30/index.php?action_kouhyou_detail_004_kani=true&JigyosyoCd=3090100722-00&ServiceCd=320&Type=search", "url2": "http://www.kii-shoufuuenjp/" }, "geometry": { "type": "Point", "coordinates": [ 135.190401797761496, 34.271022079640986 ] } },
{ "type": "Feature", "properties": { "内容": "グループホーム第六親和園【認知症対応型共同生活介護】和歌山県和歌山市杭ノ瀬362番地5", "url": "https://www.kaigokensaku.mhlw.go.jp/30/index.php?action_kouhyou_detail_004_kani=true&JigyosyoCd=3090101647-00&ServiceCd=320&Type=search", "url2": "http://shinwaen.jp/" }, "geometry": { "type": "Point", "coordinates": [ 135.1914098, 34.2085509 ] } },
{ "type": "Feature", "properties": { "内容": "楠見グループホームすずらん【認知症対応型共同生活介護】和歌山市楠見中26-1楠見第2介護センターすずらん2F", "url": "https://www.kaigokensaku.mhlw.go.jp/30/index.php?action_kouhyou_detail_004_kani=true&JigyosyoCd=3090100565-00&ServiceCd=320&Type=search", "url2": null }, "geometry": { "type": "Point", "coordinates": [ 135.176479200000017, 34.2537425 ] } },
{ "type": "Feature", "properties": { "内容": "グループホームにじのおうち【認知症対応型共同生活介護】福島486番地1", "url": "https://www.kaigokensaku.mhlw.go.jp/30/index.php?action_kouhyou_detail_004_kani=true&JigyosyoCd=3090101951-00&ServiceCd=320&Type=search", "url2": null }, "geometry": { "type": "Point", "coordinates": [ 140.1832516, 37.3834373 ] } },
{ "type": "Feature", "properties": { "内容": "医療法人研医会和歌山すみれホーム【認知症対応型共同生活介護】加納295-11", "url": "https://www.kaigokensaku.mhlw.go.jp/30/index.php?action_kouhyou_detail_004_kani=true&JigyosyoCd=3090101407-00&ServiceCd=320&Type=search", "url2": "https://wakayama-sumire.jp/" }, "geometry": { "type": "Point", "coordinates": [ 135.205919, 34.242739 ] } },
{ "type": "Feature", "properties": { "内容": "総合介護センターあおばの里【認知症対応型共同生活介護】和歌山市湊１１１５－５５", "url": "https://www.kaigokensaku.mhlw.go.jp/30/index.php?action_kouhyou_detail_004_kani=true&JigyosyoCd=3070101849-00&ServiceCd=320&Type=search", "url2": null }, "geometry": { "type": "Point", "coordinates": [ 135.154229100000066, 34.216693 ] } },
{ "type": "Feature", "properties": { "内容": "ニチイケアセンター和歌山城北【認知症対応型共同生活介護】和歌山県　和歌山市二筋目　11番", "url": "https://www.kaigokensaku.mhlw.go.jp/30/index.php?action_kouhyou_detail_004_kani=true&JigyosyoCd=3090100383-00&ServiceCd=320&Type=search", "url2": null }, "geometry": { "type": "Point", "coordinates": [ 135.170363700000053, 34.2381215 ] } },
{ "type": "Feature", "properties": { "内容": "春風会　かたおなみ【認知症対応型共同生活介護】和歌浦東４丁目３－５１", "url": "https://www.kaigokensaku.mhlw.go.jp/30/index.php?action_kouhyou_detail_004_kani=true&JigyosyoCd=3090100433-00&ServiceCd=320&Type=search", "url2": "http://harukazekai.jp/" }, "geometry": { "type": "Point", "coordinates": [ 135.1752808, 34.188283 ] } },
{ "type": "Feature", "properties": { "内容": "春風会　きし【認知症対応型共同生活介護】和歌山県和歌山市栄谷460番1", "url": "https://www.kaigokensaku.mhlw.go.jp/30/index.php?action_kouhyou_detail_004_kani=true&JigyosyoCd=3090100763-00&ServiceCd=320&Type=search", "url2": "http://harukazekai.jp/" }, "geometry": { "type": "Point", "coordinates": [ 135.161413192273699, 34.260605178047179 ] } },
{ "type": "Feature", "properties": { "内容": "春風会　わかのうら【認知症対応型共同生活介護】和歌山市和歌浦中１丁目１番１５", "url": "https://www.kaigokensaku.mhlw.go.jp/30/index.php?action_kouhyou_detail_004_kani=true&JigyosyoCd=3090100912-00&ServiceCd=320&Type=search", "url2": "http://harukazekai.jp/" }, "geometry": { "type": "Point", "coordinates": [ 135.170272699999941, 34.194090500000016 ] } },
{ "type": "Feature", "properties": { "内容": "グループホーム　喜成会【認知症対応型共同生活介護】和歌山市北野１１８番地の２", "url": "https://www.kaigokensaku.mhlw.go.jp/30/index.php?action_kouhyou_detail_004_kani=true&JigyosyoCd=3070101765-00&ServiceCd=320&Type=search", "url2": "http://www.kiseikai-w.or.jp/" }, "geometry": { "type": "Point", "coordinates": [ 135.247648600000048, 34.2654352 ] } },
{ "type": "Feature", "properties": { "内容": "紀三井寺苑グループホーム【認知症対応型共同生活介護】和歌山県和歌山市紀三井寺617-3", "url": "https://www.kaigokensaku.mhlw.go.jp/30/index.php?action_kouhyou_detail_004_kani=true&JigyosyoCd=3070101518-00&ServiceCd=320&Type=search", "url2": "https://www.kisan.or.jp" }, "geometry": { "type": "Point", "coordinates": [ 135.187868699999967, 34.1848201 ] } },
{ "type": "Feature", "properties": { "内容": "グループホームハルジオン【認知症対応型共同生活介護】和歌山市井ノ口302-5", "url": "https://www.kaigokensaku.mhlw.go.jp/30/index.php?action_kouhyou_detail_004_kani=true&JigyosyoCd=3090100151-00&ServiceCd=320&Type=search", "url2": "http://www.jukeikai.jp/" }, "geometry": { "type": "Point", "coordinates": [ 135.247713100000027, 34.2393286 ] } },
{ "type": "Feature", "properties": { "内容": "グループホーム　ふるさと【認知症対応型共同生活介護】和歌山県和歌山市小瀬田８５番地", "url": "https://www.kaigokensaku.mhlw.go.jp/30/index.php?action_kouhyou_detail_004_kani=true&JigyosyoCd=3070104280-00&ServiceCd=320&Type=search", "url2": "https://www.grouphome-furusato.com" }, "geometry": { "type": "Point", "coordinates": [ 135.229551300000026, 34.1810714 ] } },
{ "type": "Feature", "properties": { "内容": "セントケアホーム　中之島【認知症対応型共同生活介護】和歌山市中之島380-10", "url": "https://www.kaigokensaku.mhlw.go.jp/30/index.php?action_kouhyou_detail_004_kani=true&JigyosyoCd=3090100482-00&ServiceCd=320&Type=search", "url2": "http://www.saint-care.com/" }, "geometry": { "type": "Point", "coordinates": [ 135.190706200000022, 34.2415441 ] } },
{ "type": "Feature", "properties": { "内容": "グループホーム　あおぞら【認知症対応型共同生活介護】和歌山県和歌山市打越町３番３０号", "url": "https://www.kaigokensaku.mhlw.go.jp/30/index.php?action_kouhyou_detail_004_kani=true&JigyosyoCd=3090100391-00&ServiceCd=320&Type=search", "url2": "http://asukaen.jp" }, "geometry": { "type": "Point", "coordinates": [ 135.177061, 34.2026565 ] } },
{ "type": "Feature", "properties": { "内容": "グループホームささゆり【認知症対応型共同生活介護】和歌山県和歌山市田尻496-4", "url": "https://www.kaigokensaku.mhlw.go.jp/30/index.php?action_kouhyou_detail_004_kani=true&JigyosyoCd=3070104082-00&ServiceCd=320&Type=search", "url2": "http://care-net.biz/30/sasayuri/" }, "geometry": { "type": "Point", "coordinates": [ 135.190440699999954, 34.2006738 ] } },
{ "type": "Feature", "properties": { "内容": "グループホームやつなみ【認知症対応型共同生活介護】和歌山県和歌山市西庄489", "url": "https://www.kaigokensaku.mhlw.go.jp/30/index.php?action_kouhyou_detail_004_kani=true&JigyosyoCd=3090100797-00&ServiceCd=320&Type=search", "url2": null }, "geometry": { "type": "Point", "coordinates": [ 135.112753022306833, 34.263115909295017 ] } },
{ "type": "Feature", "properties": { "内容": "あいの里【認知症対応型共同生活介護】和歌山市相坂651番地の３", "url": "https://www.kaigokensaku.mhlw.go.jp/30/index.php?action_kouhyou_detail_004_kani=true&JigyosyoCd=3070101914-00&ServiceCd=320&Type=search", "url2": "http://www.aicircle.com/ainosato/" }, "geometry": { "type": "Point", "coordinates": [ 135.23720359999993, 34.1952473 ] } },
{ "type": "Feature", "properties": { "内容": "グループホーム紀伊てまり苑【認知症対応型共同生活介護】和歌山市西田井224番地", "url": "https://www.kaigokensaku.mhlw.go.jp/30/index.php?action_kouhyou_detail_004_kani=true&JigyosyoCd=3070102557-00&ServiceCd=320&Type=search", "url2": "https://www.kii-fukushikai.or.jp" }, "geometry": { "type": "Point", "coordinates": [ 135.232952699999942, 34.2574743 ] } },
{ "type": "Feature", "properties": { "内容": "竹の里園グループホーム【認知症対応型共同生活介護】和歌山市明王寺３－１", "url": "https://www.kaigokensaku.mhlw.go.jp/30/index.php?action_kouhyou_detail_004_kani=true&JigyosyoCd=3070100296-00&ServiceCd=320&Type=search", "url2": "https://www.takenosatoen.jp" }, "geometry": { "type": "Point", "coordinates": [ 135.254201928836125, 34.213640371149943 ] } },
{ "type": "Feature", "properties": { "内容": "けあビジョンホーム和歌山加太【認知症対応型共同生活介護】和歌山県和歌山市加太1134-128", "url": "https://www.kaigokensaku.mhlw.go.jp/30/index.php?action_kouhyou_detail_004_kani=true&JigyosyoCd=3090101100-00&ServiceCd=320&Type=search", "url2": null }, "geometry": { "type": "Point", "coordinates": [ 135.082012473016306, 34.273886802130399 ] } },
{ "type": "Feature", "properties": { "内容": "グループホームあんず【認知症対応型共同生活介護】和歌山県和歌山市東田中３１０番地", "url": "https://www.kaigokensaku.mhlw.go.jp/30/index.php?action_kouhyou_detail_004_kani=true&JigyosyoCd=3090100441-00&ServiceCd=320&Type=search", "url2": "info@anzuen.jp" }, "geometry": { "type": "Point", "coordinates": [ 135.282113, 34.2375573 ] } },
{ "type": "Feature", "properties": { "内容": "ネオファミリー・和歌山【認知症対応型共同生活介護】和歌山県和歌山市田中町2丁目19番地", "url": "https://www.kaigokensaku.mhlw.go.jp/30/index.php?action_kouhyou_detail_004_kani=true&JigyosyoCd=3070103142-00&ServiceCd=320&Type=search", "url2": null }, "geometry": { "type": "Point", "coordinates": [ 135.1862764, 34.2286814 ] } },
{ "type": "Feature", "properties": { "内容": "グループホーム　山口葵園【認知症対応型共同生活介護】和歌山市藤田25-1", "url": "https://www.kaigokensaku.mhlw.go.jp/30/index.php?action_kouhyou_detail_004_kani=true&JigyosyoCd=3070104330-00&ServiceCd=320&Type=search", "url2": "http:www.y-aoikai.or.jp" }, "geometry": { "type": "Point", "coordinates": [ 135.262997400000017, 34.2647688 ] } },
{ "type": "Feature", "properties": { "内容": "あいの里悠々らいふ【認知症対応型共同生活介護】和歌山市松原306番地の1", "url": "https://www.kaigokensaku.mhlw.go.jp/30/index.php?action_kouhyou_detail_004_kani=true&JigyosyoCd=3090101985-00&ServiceCd=320&Type=search", "url2": "http://www.ainosato.wa.or.jp" }, "geometry": { "type": "Point", "coordinates": [ 135.224768899999987, 34.1949761 ] } },
{ "type": "Feature", "properties": { "内容": "グループホーム海南ささゆり２【認知症対応型共同生活介護】和歌山県海南市小野田830-1", "url": "https://www.kaigokensaku.mhlw.go.jp/30/index.php?action_kouhyou_detail_004_kani=true&JigyosyoCd=3091400188-00&ServiceCd=320&Type=search", "url2": null }, "geometry": { "type": "Point", "coordinates": [ 135.254823499999986, 34.1722694 ] } },
{ "type": "Feature", "properties": { "内容": "グループホーム海南ささゆり【認知症対応型共同生活介護】和歌山県海南市小野田812番地", "url": "https://www.kaigokensaku.mhlw.go.jp/30/index.php?action_kouhyou_detail_004_kani=true&JigyosyoCd=3091400071-00&ServiceCd=320&Type=search", "url2": null }, "geometry": { "type": "Point", "coordinates": [ 135.255458099999942, 34.1726429 ] } },
{ "type": "Feature", "properties": { "内容": "すずらん【認知症対応型共同生活介護】和歌山県海南市重根348-2ライフパートナー重根3F", "url": "https://www.kaigokensaku.mhlw.go.jp/30/index.php?action_kouhyou_detail_004_kani=true&JigyosyoCd=3071400182-00&ServiceCd=320&Type=search", "url2": null }, "geometry": { "type": "Point", "coordinates": [ 135.24303839359257, 34.156187585719117 ] } },
{ "type": "Feature", "properties": { "内容": "医療法人恵友会認知症対応型共同生活介護事業所　グループホーム　なぎの家　恵友【認知症対応型共同生活介護】和歌山県　海南市　船尾２６９－５", "url": "https://www.kaigokensaku.mhlw.go.jp/30/index.php?action_kouhyou_detail_004_kani=true&JigyosyoCd=3091400063-00&ServiceCd=320&Type=search", "url2": "http://www.keiyukai.com/main/naginoie.html" }, "geometry": { "type": "Point", "coordinates": [ 135.197720900000036, 34.1598484 ] } },
{ "type": "Feature", "properties": { "内容": "グループホームガーデンライフ【認知症対応型共同生活介護】和歌山県海南市船尾256-8", "url": "https://www.kaigokensaku.mhlw.go.jp/30/index.php?action_kouhyou_detail_004_kani=true&JigyosyoCd=3071400240-00&ServiceCd=320&Type=search", "url2": "http://www.keiyukai.com/mein/index.htm" }, "geometry": { "type": "Point", "coordinates": [ 135.20119550000004, 34.1611484 ] } },
{ "type": "Feature", "properties": { "内容": "グループホーム天美苑Ⅱ【認知症対応型共同生活介護】和歌山県海南市七山828", "url": "https://www.kaigokensaku.mhlw.go.jp/30/index.php?action_kouhyou_detail_004_kani=true&JigyosyoCd=3091400048-00&ServiceCd=320&Type=search", "url2": "http://www.tenbien.jp/" }, "geometry": { "type": "Point", "coordinates": [ 135.308872100000031, 34.1956214 ] } },
{ "type": "Feature", "properties": { "内容": "グループホーム天美苑【認知症対応型共同生活介護】海南市七山964-1", "url": "https://www.kaigokensaku.mhlw.go.jp/30/index.php?action_kouhyou_detail_004_kani=true&JigyosyoCd=3071400265-00&ServiceCd=320&Type=search", "url2": "http://www.tenbien.jp/" }, "geometry": { "type": "Point", "coordinates": [ 135.309024358866509, 34.196062439553515 ] } },
{ "type": "Feature", "properties": { "内容": "海南グループホームみかんの里【認知症対応型共同生活介護】和歌山県海南市下津町上610-1", "url": "https://www.kaigokensaku.mhlw.go.jp/30/index.php?action_kouhyou_detail_004_kani=true&JigyosyoCd=3091400097-00&ServiceCd=320&Type=search", "url2": "http://upward-kaigo.jp/" }, "geometry": { "type": "Point", "coordinates": [ 135.154739100000029, 34.1121871 ] } },
{ "type": "Feature", "properties": { "内容": "グループホームひだまり【認知症対応型共同生活介護】和歌山県海南市下津町方498-25", "url": "https://www.kaigokensaku.mhlw.go.jp/30/index.php?action_kouhyou_detail_004_kani=true&JigyosyoCd=3071100279-00&ServiceCd=320&Type=search", "url2": "https://www.kisan.or.jp" }, "geometry": { "type": "Point", "coordinates": [ 135.14449, 34.124282600000015 ] } },
{ "type": "Feature", "properties": { "内容": "グループホームはるすのお家・橋本【認知症対応型共同生活介護】和歌山県橋本市菖蒲谷979番地1", "url": "https://www.kaigokensaku.mhlw.go.jp/30/index.php?action_kouhyou_detail_004_kani=true&JigyosyoCd=3071000289-00&ServiceCd=320&Type=search", "url2": "https://hals-hals.co.jp" }, "geometry": { "type": "Point", "coordinates": [ 135.599013099999979, 34.3361194 ] } },
{ "type": "Feature", "properties": { "内容": "グループホームカゼクラブ【認知症対応型共同生活介護】和歌山県橋本市高野口町名古曽926-1", "url": "https://www.kaigokensaku.mhlw.go.jp/30/index.php?action_kouhyou_detail_004_kani=true&JigyosyoCd=3091000137-00&ServiceCd=320&Type=search", "url2": "http://www.koyokai.or.jp" }, "geometry": { "type": "Point", "coordinates": [ 135.558520499999986, 34.3021398 ] } },
{ "type": "Feature", "properties": { "内容": "グループホーム幸楽の里【認知症対応型共同生活介護】和歌山県橋本市隅田町字石栢谷１９１９番の３", "url": "https://www.kaigokensaku.mhlw.go.jp/30/index.php?action_kouhyou_detail_004_kani=true&JigyosyoCd=3071000453-00&ServiceCd=320&Type=search", "url2": "http://www.keieikai.com" }, "geometry": { "type": "Point", "coordinates": [ 135.655525, 34.328157 ] } },
{ "type": "Feature", "properties": { "内容": "ネオファミリー高野口【認知症対応型共同生活介護】和歌山県橋本市高野口町名倉１００－２", "url": "https://www.kaigokensaku.mhlw.go.jp/30/index.php?action_kouhyou_detail_004_kani=true&JigyosyoCd=3091000079-00&ServiceCd=320&Type=search", "url2": null }, "geometry": { "type": "Point", "coordinates": [ 135.55569289999994, 34.30477 ] } },
{ "type": "Feature", "properties": { "内容": "グループホームやまぼうしのお家【認知症対応型共同生活介護】菖蒲谷979-1", "url": "https://www.kaigokensaku.mhlw.go.jp/30/index.php?action_kouhyou_detail_004_kani=true&JigyosyoCd=3091000277-00&ServiceCd=320&Type=search", "url2": null }, "geometry": { "type": "Point", "coordinates": [ 135.5990673, 34.3360034 ] } },
{ "type": "Feature", "properties": { "内容": "ｸﾞﾙｰﾌﾟﾎｰﾑゆりのき苑【認知症対応型共同生活介護】和歌山県有田市千田４０３－１", "url": "https://www.kaigokensaku.mhlw.go.jp/30/index.php?action_kouhyou_detail_004_kani=true&JigyosyoCd=3071500247-00&ServiceCd=320&Type=search", "url2": "https://www.yurinokien.com/chida.html" }, "geometry": { "type": "Point", "coordinates": [ 135.146744899999931, 34.0705002 ] } },
{ "type": "Feature", "properties": { "内容": "グループホーム有田ささゆり【認知症対応型共同生活介護】和歌山県有田市宮原町新町225", "url": "https://www.kaigokensaku.mhlw.go.jp/30/index.php?action_kouhyou_detail_004_kani=true&JigyosyoCd=3091500011-00&ServiceCd=320&Type=search", "url2": null }, "geometry": { "type": "Point", "coordinates": [ 135.177207800000019, 34.0799556 ] } },
{ "type": "Feature", "properties": { "内容": "グループホームいとが【認知症対応型共同生活介護】和歌山県有田市糸我町西43-3", "url": "https://www.kaigokensaku.mhlw.go.jp/30/index.php?action_kouhyou_detail_004_kani=true&JigyosyoCd=3091500052-00&ServiceCd=320&Type=search", "url2": null }, "geometry": { "type": "Point", "coordinates": [ 135.1729282, 34.066682100000023 ] } },
{ "type": "Feature", "properties": { "内容": "グループホームゆりのき苑やまち【認知症対応型共同生活介護】和歌山県有田市山地４４", "url": "https://www.kaigokensaku.mhlw.go.jp/30/index.php?action_kouhyou_detail_004_kani=true&JigyosyoCd=3091500029-00&ServiceCd=320&Type=search", "url2": "http://www.technologybox.co.jp/yurinoki" }, "geometry": { "type": "Point", "coordinates": [ 135.132390500000042, 34.0744327 ] } },
{ "type": "Feature", "properties": { "内容": "グループホーム愛宕苑【認知症対応型共同生活介護】和歌山県有田市港町29-1", "url": "https://www.kaigokensaku.mhlw.go.jp/30/index.php?action_kouhyou_detail_004_kani=true&JigyosyoCd=3091500086-00&ServiceCd=320&Type=search", "url2": "http://shukohkai.or.jp/" }, "geometry": { "type": "Point", "coordinates": [ 135.114222299999938, 34.0884915 ] } },
{ "type": "Feature", "properties": { "内容": "有限会社　プライムタイム【認知症対応型共同生活介護】和歌山県有田市箕島22-1", "url": "https://www.kaigokensaku.mhlw.go.jp/30/index.php?action_kouhyou_detail_004_kani=true&JigyosyoCd=3071500296-00&ServiceCd=320&Type=search", "url2": "prime@etude.ocn.ne.jp" }, "geometry": { "type": "Point", "coordinates": [ 135.122921600000041, 34.0838035 ] } },
{ "type": "Feature", "properties": { "内容": "グループホーム　れいめい【認知症対応型共同生活介護】和歌山県御坊市湯川町財部743番地1", "url": "https://www.kaigokensaku.mhlw.go.jp/30/index.php?action_kouhyou_detail_004_kani=true&JigyosyoCd=3092000144-00&ServiceCd=320&Type=search", "url2": "https://reimeikai.com/" }, "geometry": { "type": "Point", "coordinates": [ 135.156815, 33.897398600000031 ] } },
{ "type": "Feature", "properties": { "内容": "あがら花まるグループホームII【認知症対応型共同生活介護】御坊市藤田町藤井2118番地の1", "url": "https://www.kaigokensaku.mhlw.go.jp/30/index.php?action_kouhyou_detail_004_kani=true&JigyosyoCd=3092000060-00&ServiceCd=320&Type=search", "url2": "http://www.kikyokai.or.jp/" }, "geometry": { "type": "Point", "coordinates": [ 135.173111699999936, 33.9059968 ] } },
{ "type": "Feature", "properties": { "内容": "グループホームあがら花まる【認知症対応型共同生活介護】御坊市藤田町藤井２１１８番地の６", "url": "https://www.kaigokensaku.mhlw.go.jp/30/index.php?action_kouhyou_detail_004_kani=true&JigyosyoCd=3092000037-00&ServiceCd=320&Type=search", "url2": "http://www.kikyokai.or.jp/" }, "geometry": { "type": "Point", "coordinates": [ 135.173111699999936, 33.9059968 ] } },
{ "type": "Feature", "properties": { "内容": "グループホームゆらり【認知症対応型共同生活介護】田辺市上の山1丁目19番23号", "url": "https://www.kaigokensaku.mhlw.go.jp/30/index.php?action_kouhyou_detail_004_kani=true&JigyosyoCd=3092200108-00&ServiceCd=320&Type=search", "url2": null }, "geometry": { "type": "Point", "coordinates": [ 135.369640900000036, 33.7398014 ] } },
{ "type": "Feature", "properties": { "内容": "グループホーム下湯川苑【認知症対応型共同生活介護】田辺市本宮町下湯川479－3", "url": "https://www.kaigokensaku.mhlw.go.jp/30/index.php?action_kouhyou_detail_004_kani=true&JigyosyoCd=3092200116-00&ServiceCd=320&Type=search", "url2": "http://kumanofukushikai.or.jp/" }, "geometry": { "type": "Point", "coordinates": [ 135.7533747, 33.8225405 ] } },
{ "type": "Feature", "properties": { "内容": "ニチイケアセンター龍神【認知症対応型共同生活介護】和歌山県田辺市龍神村柳瀬1143-1", "url": "https://www.kaigokensaku.mhlw.go.jp/30/index.php?action_kouhyou_detail_004_kani=true&JigyosyoCd=3092200090-00&ServiceCd=320&Type=search", "url2": null }, "geometry": { "type": "Point", "coordinates": [ 135.469564100000071, 33.8803273 ] } },
{ "type": "Feature", "properties": { "内容": "グループホーム　あきつの【認知症対応型共同生活介護】和歌山県田辺市上秋津　2310-178", "url": "https://www.kaigokensaku.mhlw.go.jp/30/index.php?action_kouhyou_detail_004_kani=true&JigyosyoCd=3072200276-00&ServiceCd=320&Type=search", "url2": null }, "geometry": { "type": "Point", "coordinates": [ 135.411636899999962, 33.7496587 ] } },
{ "type": "Feature", "properties": { "内容": "グループホームほたるの家【認知症対応型共同生活介護】田辺市新庄町3739-5", "url": "https://www.kaigokensaku.mhlw.go.jp/30/index.php?action_kouhyou_detail_004_kani=true&JigyosyoCd=3092200124-00&ServiceCd=320&Type=search", "url2": "https://www.nankishirahama-fukushikai.or.jp/" }, "geometry": { "type": "Point", "coordinates": [ 135.3895169, 33.6877633 ] } },
{ "type": "Feature", "properties": { "内容": "田辺すみれホーム【認知症対応型共同生活介護】和歌山県田辺市新庄町田鶴1739-22", "url": "https://www.kaigokensaku.mhlw.go.jp/30/index.php?action_kouhyou_detail_004_kani=true&JigyosyoCd=3092200207-00&ServiceCd=320&Type=search", "url2": "http://tanabe-sumire-heim.jp/sumire-home/index.html" }, "geometry": { "type": "Point", "coordinates": [ 135.407159, 33.70901 ] } },
{ "type": "Feature", "properties": { "内容": "グループホーム　なかはや【認知症対応型共同生活介護】和歌山県田辺市中芳養917－7", "url": "https://www.kaigokensaku.mhlw.go.jp/30/index.php?action_kouhyou_detail_004_kani=true&JigyosyoCd=3092200140-00&ServiceCd=320&Type=search", "url2": null }, "geometry": { "type": "Point", "coordinates": [ 135.355239500000039, 33.769372 ] } },
{ "type": "Feature", "properties": { "内容": "あおい介護センターGH【認知症対応型共同生活介護】和歌山県田辺市下屋敷町１－７８アオイプラザビル", "url": "https://www.kaigokensaku.mhlw.go.jp/30/index.php?action_kouhyou_detail_004_kani=true&JigyosyoCd=3092200132-00&ServiceCd=320&Type=search", "url2": "http://aoi2006.jp/" }, "geometry": { "type": "Point", "coordinates": [ 135.381359299999986, 33.7309276 ] } },
{ "type": "Feature", "properties": { "内容": "鮎川　いばの里【認知症対応型共同生活介護】和歌山県田辺市鮎川３００３", "url": "https://www.kaigokensaku.mhlw.go.jp/30/index.php?action_kouhyou_detail_004_kani=true&JigyosyoCd=3092200074-00&ServiceCd=320&Type=search", "url2": "shinjuen@gaea.ocn.ne.jp" }, "geometry": { "type": "Point", "coordinates": [ 135.485482472517106, 33.723963585358248 ] } },
{ "type": "Feature", "properties": { "内容": "グループホーム　ちかの【認知症対応型共同生活介護】和歌山県田辺市中辺路町近露１３５８－１", "url": "https://www.kaigokensaku.mhlw.go.jp/30/index.php?action_kouhyou_detail_004_kani=true&JigyosyoCd=3092200058-00&ServiceCd=320&Type=search", "url2": null }, "geometry": { "type": "Point", "coordinates": [ 135.611008199999986, 33.8131916 ] } },
{ "type": "Feature", "properties": { "内容": "グループホームはまゆう園【認知症対応型共同生活介護】和歌山県新宮市丹鶴2-5-20グループホームはまゆう園", "url": "https://www.kaigokensaku.mhlw.go.jp/30/index.php?action_kouhyou_detail_004_kani=true&JigyosyoCd=3092300031-00&ServiceCd=320&Type=search", "url2": "http://www.hamayuen.com" }, "geometry": { "type": "Point", "coordinates": [ 135.98671, 33.728485 ] } },
{ "type": "Feature", "properties": { "内容": "有限会社グループホーム開門荘【認知症対応型共同生活介護】和歌山県新宮市熊野川町日足752", "url": "https://www.kaigokensaku.mhlw.go.jp/30/index.php?action_kouhyou_detail_004_kani=true&JigyosyoCd=3072500477-00&ServiceCd=320&Type=search", "url2": null }, "geometry": { "type": "Point", "coordinates": [ 135.869053300000019, 33.7959843 ] } },
{ "type": "Feature", "properties": { "内容": "グループホーム　自然の郷【認知症対応型共同生活介護】紀の川市桃山町最上1206-22", "url": "https://www.kaigokensaku.mhlw.go.jp/30/index.php?action_kouhyou_detail_004_kani=true&JigyosyoCd=3091700116-00&ServiceCd=320&Type=search", "url2": "https://shokyukai.jp" }, "geometry": { "type": "Point", "coordinates": [ 135.352314100000058, 34.2193633 ] } },
{ "type": "Feature", "properties": { "内容": "グループホーム　栄寿の里【認知症対応型共同生活介護】和歌山県紀の川市麻生津中1294-1", "url": "https://www.kaigokensaku.mhlw.go.jp/30/index.php?action_kouhyou_detail_004_kani=true&JigyosyoCd=3091700025-00&ServiceCd=320&Type=search", "url2": "http://koueikai-nate.com" }, "geometry": { "type": "Point", "coordinates": [ 135.4511182, 34.2762085 ] } },
{ "type": "Feature", "properties": { "内容": "グループホーム桃の庵【認知症対応型共同生活介護】和歌山県紀の川市桃山町最上843-1", "url": "https://www.kaigokensaku.mhlw.go.jp/30/index.php?action_kouhyou_detail_004_kani=true&JigyosyoCd=3071200939-00&ServiceCd=320&Type=search", "url2": "https://shokyukai.jp" }, "geometry": { "type": "Point", "coordinates": [ 135.350139300000023, 34.2213159 ] } },
{ "type": "Feature", "properties": { "内容": "グループホーム友愛【認知症対応型共同生活介護】和歌山県紀の川市畑野上272番地", "url": "https://www.kaigokensaku.mhlw.go.jp/30/index.php?action_kouhyou_detail_004_kani=true&JigyosyoCd=3071200491-00&ServiceCd=320&Type=search", "url2": "http://kairakuen.or.jp" }, "geometry": { "type": "Point", "coordinates": [ 135.34668484959866, 34.264129166288832 ] } },
{ "type": "Feature", "properties": { "内容": "グループホームさくらの丘【認知症対応型共同生活介護】和歌山県紀の川市黒土153番地", "url": "https://www.kaigokensaku.mhlw.go.jp/30/index.php?action_kouhyou_detail_004_kani=true&JigyosyoCd=3091700090-00&ServiceCd=320&Type=search", "url2": "http://www.koyokai.or.jp" }, "geometry": { "type": "Point", "coordinates": [ 135.379892100000035, 34.2633089 ] } },
{ "type": "Feature", "properties": { "内容": "グループホーム風の里【認知症対応型共同生活介護】和歌山県紀の川市粉河９５１－１", "url": "https://www.kaigokensaku.mhlw.go.jp/30/index.php?action_kouhyou_detail_004_kani=true&JigyosyoCd=3071201119-00&ServiceCd=320&Type=search", "url2": "http://www.koyokai.or.jp" }, "geometry": { "type": "Point", "coordinates": [ 135.402469013491782, 34.268865801402725 ] } },
{ "type": "Feature", "properties": { "内容": "グループホームなごみ【認知症対応型共同生活介護】和歌山県岩出市水栖644番地1", "url": "https://www.kaigokensaku.mhlw.go.jp/30/index.php?action_kouhyou_detail_004_kani=true&JigyosyoCd=3071201390-00&ServiceCd=320&Type=search", "url2": "http://kairakuen.or.jp" }, "geometry": { "type": "Point", "coordinates": [ 135.3215103, 34.2699407 ] } },
{ "type": "Feature", "properties": { "内容": "グループホームえんがわ【認知症対応型共同生活介護】和歌山県岩出市畑毛108-2", "url": "https://www.kaigokensaku.mhlw.go.jp/30/index.php?action_kouhyou_detail_004_kani=true&JigyosyoCd=3091800064-00&ServiceCd=320&Type=search", "url2": null }, "geometry": { "type": "Point", "coordinates": [ 135.302504900000031, 34.2633607 ] } },
{ "type": "Feature", "properties": { "内容": "グループホーム　のぞみ【認知症対応型共同生活介護】和歌山県岩出市山591番地", "url": "https://www.kaigokensaku.mhlw.go.jp/30/index.php?action_kouhyou_detail_004_kani=true&JigyosyoCd=3071200830-00&ServiceCd=320&Type=search", "url2": "http://kairakuen.or.jp" }, "geometry": { "type": "Point", "coordinates": [ 135.285009899999977, 34.2718515 ] } },
{ "type": "Feature", "properties": { "内容": "グループホームハピネス岩出【認知症対応型共同生活介護】和歌山県岩出市森259-1", "url": "https://www.kaigokensaku.mhlw.go.jp/30/index.php?action_kouhyou_detail_004_kani=true&JigyosyoCd=3091800072-00&ServiceCd=320&Type=search", "url2": "http://www.gh-happiness.com/" }, "geometry": { "type": "Point", "coordinates": [ 135.309742599999936, 34.273818 ] } },
{ "type": "Feature", "properties": { "内容": "グループホーム　といろ【認知症対応型共同生活介護】和歌山県岩出市中迫66-3番地", "url": "https://www.kaigokensaku.mhlw.go.jp/30/index.php?action_kouhyou_detail_004_kani=true&JigyosyoCd=3091800080-00&ServiceCd=320&Type=search", "url2": null }, "geometry": { "type": "Point", "coordinates": [ 135.318075, 34.2608859 ] } },
{ "type": "Feature", "properties": { "内容": "グループホームラフェスタ紀美野【認知症対応型共同生活介護】和歌山県海草郡紀美野町下佐々1396-8", "url": "https://www.kaigokensaku.mhlw.go.jp/30/index.php?action_kouhyou_detail_004_kani=true&JigyosyoCd=3091100010-00&ServiceCd=320&Type=search", "url2": null }, "geometry": { "type": "Point", "coordinates": [ 135.313849299999987, 34.151277 ] } },
{ "type": "Feature", "properties": { "内容": "グループホーム美里園【認知症対応型共同生活介護】和歌山県海草郡紀美野町安井６番１", "url": "https://www.kaigokensaku.mhlw.go.jp/30/index.php?action_kouhyou_detail_004_kani=true&JigyosyoCd=3071100287-00&ServiceCd=320&Type=search", "url2": "seiwa-sws.or.jp" }, "geometry": { "type": "Point", "coordinates": [ 135.34661559999995, 34.1490559 ] } },
{ "type": "Feature", "properties": { "内容": "グループホーム　ラフェスタ紀美野【認知症対応型共同生活介護】和歌山県海草郡紀美野町下佐々1396-8", "url": "https://www.kaigokensaku.mhlw.go.jp/30/index.php?action_kouhyou_detail_004_kani=true&JigyosyoCd=3091100051-00&ServiceCd=320&Type=search", "url2": null }, "geometry": { "type": "Point", "coordinates": [ 135.310146800000012, 34.1510796 ] } },
{ "type": "Feature", "properties": { "内容": "グループホーム　太陽の家【認知症対応型共同生活介護】和歌山県伊都郡かつらぎ町笠田東995-1", "url": "https://www.kaigokensaku.mhlw.go.jp/30/index.php?action_kouhyou_detail_004_kani=true&JigyosyoCd=3091300040-00&ServiceCd=320&Type=search", "url2": null }, "geometry": { "type": "Point", "coordinates": [ 135.47892920000001, 34.2943255 ] } },
{ "type": "Feature", "properties": { "内容": "愛光園グループホーム【認知症対応型共同生活介護】和歌山県伊都郡かつらぎ町佐野１４０１－２", "url": "https://www.kaigokensaku.mhlw.go.jp/30/index.php?action_kouhyou_detail_004_kani=true&JigyosyoCd=3071300432-00&ServiceCd=320&Type=search", "url2": "http://aiko-en.or.jp" }, "geometry": { "type": "Point", "coordinates": [ 135.484954799999969, 34.2866657 ] } },
{ "type": "Feature", "properties": { "内容": "愛光園　第２グループホーム【認知症対応型共同生活介護】和歌山県伊都郡かつらぎ町佐野１３８６", "url": "https://www.kaigokensaku.mhlw.go.jp/30/index.php?action_kouhyou_detail_004_kani=true&JigyosyoCd=3071300630-00&ServiceCd=320&Type=search", "url2": "http://aiko-en.or.jp" }, "geometry": { "type": "Point", "coordinates": [ 135.485343599999965, 34.288621 ] } },
{ "type": "Feature", "properties": { "内容": "グループホーム　ゆうゆう【認知症対応型共同生活介護】和歌山県九度山町九度山５２７－１", "url": "https://www.kaigokensaku.mhlw.go.jp/30/index.php?action_kouhyou_detail_004_kani=true&JigyosyoCd=3091300016-00&ServiceCd=320&Type=search", "url2": null }, "geometry": { "type": "Point", "coordinates": [ 135.568133411422735, 34.289088073416657 ] } },
{ "type": "Feature", "properties": { "内容": "かぐのみ苑湯浅グループホーム【認知症対応型共同生活介護】和歌山県有田郡湯浅町湯浅2032-1", "url": "https://www.kaigokensaku.mhlw.go.jp/30/index.php?action_kouhyou_detail_004_kani=true&JigyosyoCd=3071600518-00&ServiceCd=320&Type=search", "url2": "http://www.heiseifukushikai.or.jp/" }, "geometry": { "type": "Point", "coordinates": [ 135.1856636, 34.0373952 ] } },
{ "type": "Feature", "properties": { "内容": "グループホーム　向日葵倶楽部【認知症対応型共同生活介護】和歌山県有田郡広川町南金屋６６２－１", "url": "https://www.kaigokensaku.mhlw.go.jp/30/index.php?action_kouhyou_detail_004_kani=true&JigyosyoCd=3091600027-00&ServiceCd=320&Type=search", "url2": "http://w-himawarikai.or.jp/" }, "geometry": { "type": "Point", "coordinates": [ 135.179369899999983, 34.0127932 ] } },
{ "type": "Feature", "properties": { "内容": "医療法人明美会　グル－プホームきびの里【認知症対応型共同生活介護】和歌山県有田郡有田川町小島2-3", "url": "https://www.kaigokensaku.mhlw.go.jp/30/index.php?action_kouhyou_detail_004_kani=true&JigyosyoCd=3071600278-00&ServiceCd=320&Type=search", "url2": null }, "geometry": { "type": "Point", "coordinates": [ 135.201375114963639, 34.067409792628283 ] } },
{ "type": "Feature", "properties": { "内容": "グループホームたんぽぽ【認知症対応型共同生活介護】和歌山県有田郡有田川町吉原951番地", "url": "https://www.kaigokensaku.mhlw.go.jp/30/index.php?action_kouhyou_detail_004_kani=true&JigyosyoCd=3091600068-00&ServiceCd=320&Type=search", "url2": null }, "geometry": { "type": "Point", "coordinates": [ 135.252096492525084, 34.051118359824663 ] } },
{ "type": "Feature", "properties": { "内容": "グループホーム松風みはま【認知症対応型共同生活介護】和歌山県日高郡美浜町和田824-9", "url": "https://www.kaigokensaku.mhlw.go.jp/30/index.php?action_kouhyou_detail_004_kani=true&JigyosyoCd=3092100019-00&ServiceCd=320&Type=search", "url2": null }, "geometry": { "type": "Point", "coordinates": [ 135.132917499999962, 33.9062517 ] } },
{ "type": "Feature", "properties": { "内容": "グループホーム潮風ひだか【認知症対応型共同生活介護】和歌山県日高郡日高町小池23", "url": "https://www.kaigokensaku.mhlw.go.jp/30/index.php?action_kouhyou_detail_004_kani=true&JigyosyoCd=3092100043-00&ServiceCd=320&Type=search", "url2": null }, "geometry": { "type": "Point", "coordinates": [ 135.1296317, 33.9051352 ] } },
{ "type": "Feature", "properties": { "内容": "グルーホーム　カルフール・ド・ルポ印南【認知症対応型共同生活介護】和歌山県日高郡印南町山口150番地1", "url": "https://www.kaigokensaku.mhlw.go.jp/30/index.php?action_kouhyou_detail_004_kani=true&JigyosyoCd=3072100484-00&ServiceCd=320&Type=search", "url2": "http://carrefour-inami.jp/" }, "geometry": { "type": "Point", "coordinates": [ 135.221398480950967, 33.821457189065391 ] } },
{ "type": "Feature", "properties": { "内容": "あおい介護センター梅香丘温泉グループホーム【認知症対応型共同生活介護】和歌山県日高郡みなべ町埴田1540-67", "url": "https://www.kaigokensaku.mhlw.go.jp/30/index.php?action_kouhyou_detail_004_kani=true&JigyosyoCd=3092100050-00&ServiceCd=320&Type=search", "url2": "http://aoi2006.jp/" }, "geometry": { "type": "Point", "coordinates": [ 135.326045632926906, 33.7531256047196 ] } },
{ "type": "Feature", "properties": { "内容": "グループホーム　サニーワン【認知症対応型共同生活介護】和歌山県日高郡日高川町大字初湯川213番地1", "url": "https://www.kaigokensaku.mhlw.go.jp/30/index.php?action_kouhyou_detail_004_kani=true&JigyosyoCd=3072100559-00&ServiceCd=320&Type=search", "url2": "https://care-net.biz/30/kisei/" }, "geometry": { "type": "Point", "coordinates": [ 135.38209, 33.9574375 ] } },
{ "type": "Feature", "properties": { "内容": "なごみ・みよせの里【認知症対応型共同生活介護】和歌山県日高郡日高川町三百瀬９７３番地", "url": "https://www.kaigokensaku.mhlw.go.jp/30/index.php?action_kouhyou_detail_004_kani=true&JigyosyoCd=3092100076-00&ServiceCd=320&Type=search", "url2": "http://www.zb.ztv.ne.jp/nagomi.miyosenosato/" }, "geometry": { "type": "Point", "coordinates": [ 135.243609290707354, 33.939946955213408 ] } },
{ "type": "Feature", "properties": { "内容": "グループホームパル白浜【認知症対応型共同生活介護】和歌山県西牟婁郡白浜町２９２７－８０", "url": "https://www.kaigokensaku.mhlw.go.jp/30/index.php?action_kouhyou_detail_004_kani=true&JigyosyoCd=3072400538-00&ServiceCd=320&Type=search", "url2": "http://www.icross.co.jp" }, "geometry": { "type": "Point", "coordinates": [ 135.353972080812127, 33.677728780988474 ] } },
{ "type": "Feature", "properties": { "内容": "グループホームアネックスパル【認知症対応型共同生活介護】和歌山県西牟婁郡白浜町2666", "url": "https://www.kaigokensaku.mhlw.go.jp/30/index.php?action_kouhyou_detail_004_kani=true&JigyosyoCd=3092400021-00&ServiceCd=320&Type=search", "url2": null }, "geometry": { "type": "Point", "coordinates": [ 135.353746418693476, 33.677537661918159 ] } },
{ "type": "Feature", "properties": { "内容": "上富田グループホーム　さくら【認知症対応型共同生活介護】和歌山県西牟婁郡上富田町朝来2086番地の12", "url": "https://www.kaigokensaku.mhlw.go.jp/30/index.php?action_kouhyou_detail_004_kani=true&JigyosyoCd=3092400047-00&ServiceCd=320&Type=search", "url2": null }, "geometry": { "type": "Point", "coordinates": [ 135.4123121, 33.7066811 ] } },
{ "type": "Feature", "properties": { "内容": "グループホーム「湯ごりの郷」【認知症対応型共同生活介護】和歌山県東牟婁郡那智勝浦町湯川６１番地", "url": "https://www.kaigokensaku.mhlw.go.jp/30/index.php?action_kouhyou_detail_004_kani=true&JigyosyoCd=3092500077-00&ServiceCd=320&Type=search", "url2": "http://www.takasekai.or.jp" }, "geometry": { "type": "Point", "coordinates": [ 135.926895899999977, 33.6192971 ] } },
{ "type": "Feature", "properties": { "内容": "グループホームつつじ園【認知症対応型共同生活介護】東牟婁郡那智勝浦町大字下里７７０番地", "url": "https://www.kaigokensaku.mhlw.go.jp/30/index.php?action_kouhyou_detail_004_kani=true&JigyosyoCd=3092500119-00&ServiceCd=320&Type=search", "url2": null }, "geometry": { "type": "Point", "coordinates": [ 135.929260600000021, 33.5835458 ] } },
{ "type": "Feature", "properties": { "内容": "グループホームかしの木【認知症対応型共同生活介護】和歌山県東牟婁郡那智勝浦町天満１４１５－１０", "url": "https://www.kaigokensaku.mhlw.go.jp/30/index.php?action_kouhyou_detail_004_kani=true&JigyosyoCd=3092500101-00&ServiceCd=320&Type=search", "url2": "http://www.wam.go.jp/wamappl/hvoka/003hvoka/hvokekka.nsf" }, "geometry": { "type": "Point", "coordinates": [ 135.934469799999988, 33.6307043 ] } },
{ "type": "Feature", "properties": { "内容": "グループホームＬｉｎｏ【認知症対応型共同生活介護】和歌山県東牟婁郡那智勝浦町二河１８－５", "url": "https://www.kaigokensaku.mhlw.go.jp/30/index.php?action_kouhyou_detail_004_kani=true&JigyosyoCd=3092500317-00&ServiceCd=320&Type=search", "url2": "https://lino-kaigo.com/" }, "geometry": { "type": "Point", "coordinates": [ 135.9220561, 33.6130575 ] } },
{ "type": "Feature", "properties": { "内容": "グループホームみんなの家【認知症対応型共同生活介護】和歌山県東牟婁郡太地町太地２９０２番９５", "url": "https://www.kaigokensaku.mhlw.go.jp/30/index.php?action_kouhyou_detail_004_kani=true&JigyosyoCd=3092500093-00&ServiceCd=320&Type=search", "url2": "http://yumekoubou.biz/" }, "geometry": { "type": "Point", "coordinates": [ 135.940467399999989, 33.5998748 ] } },
{ "type": "Feature", "properties": { "内容": "グループホーム　「もみの樹」【認知症対応型共同生活介護】和歌山県東牟婁郡古座川町高瀬４２３番地の２", "url": "https://www.kaigokensaku.mhlw.go.jp/30/index.php?action_kouhyou_detail_004_kani=true&JigyosyoCd=3072500410-00&ServiceCd=320&Type=search", "url2": "http://www.takasekai.or.jp/" }, "geometry": { "type": "Point", "coordinates": [ 135.7794242, 33.5354464 ] } },
{ "type": "Feature", "properties": { "内容": "潮岬あゆみ園【認知症対応型共同生活介護】和歌山県東牟婁郡串本町潮岬659番地", "url": "https://www.kaigokensaku.mhlw.go.jp/30/index.php?action_kouhyou_detail_004_kani=true&JigyosyoCd=3072400314-00&ServiceCd=320&Type=search", "url2": null }, "geometry": { "type": "Point", "coordinates": [ 135.778729571827739, 33.454762179367641 ] } }
]
}
