{
"type": "FeatureCollection",
"name": "geo_30_特定施設入居者生活介護（有料老人ホーム）",
"crs": { "type": "name", "properties": { "name": "urn:ogc:def:crs:OGC:1.3:CRS84" } },
"features": [
{ "type": "Feature", "properties": { "内容": "介護付有料老人ホーム「セラヴィ神前」【特定施設入居者生活介護（有料老人ホーム）】和歌山市神前182-1", "url": "https://www.kaigokensaku.mhlw.go.jp/30/index.php?action_kouhyou_detail_004_kani=true&JigyosyoCd=3070106822-00&ServiceCd=331&Type=search", "url2": "http//www.care-management.jp" }, "geometry": { "type": "Point", "coordinates": [ 135.202917, 34.2155666 ] } },
{ "type": "Feature", "properties": { "内容": "介護付き有料老人ホーム第2あすか苑【特定施設入居者生活介護（有料老人ホーム）】和歌山県和歌山市小雑賀728-1第2あすか苑", "url": "https://www.kaigokensaku.mhlw.go.jp/30/index.php?action_kouhyou_detail_004_kani=true&JigyosyoCd=3070110287-00&ServiceCd=331&Type=search", "url2": "http://asukaen.jp" }, "geometry": { "type": "Point", "coordinates": [ 135.186477100000047, 34.1990322 ] } },
{ "type": "Feature", "properties": { "内容": "介護付き住宅みのり紀伊【特定施設入居者生活介護（有料老人ホーム）】和歌山市弘西５７１介護付き住宅みのり紀伊", "url": "https://www.kaigokensaku.mhlw.go.jp/30/index.php?action_kouhyou_detail_004_kani=true&JigyosyoCd=3070107424-00&ServiceCd=331&Type=search", "url2": "http://orangecoop.jp/" }, "geometry": { "type": "Point", "coordinates": [ 135.240201899999988, 34.2712789 ] } },
{ "type": "Feature", "properties": { "内容": "フローレンス三寿【特定施設入居者生活介護（有料老人ホーム）】和歌山県和歌山市向180-1フローレンス三寿", "url": "https://www.kaigokensaku.mhlw.go.jp/30/index.php?action_kouhyou_detail_004_kani=true&JigyosyoCd=3070111152-00&ServiceCd=331&Type=search", "url2": "https://dev.qualia.ne.jp/staging/koufu-kai.or.jp/" }, "geometry": { "type": "Point", "coordinates": [ 135.145586699999967, 34.2578997 ] } },
{ "type": "Feature", "properties": { "内容": "有料老人ホームＮＩＣＯ【特定施設入居者生活介護（有料老人ホーム）】和歌山県和歌山市神前182-1", "url": "https://www.kaigokensaku.mhlw.go.jp/30/index.php?action_kouhyou_detail_004_kani=true&JigyosyoCd=3070115179-00&ServiceCd=331&Type=search", "url2": "https://www.a-and-co.jp" }, "geometry": { "type": "Point", "coordinates": [ 135.20289, 34.2158703 ] } },
{ "type": "Feature", "properties": { "内容": "ブレシングホームやつなみ【特定施設入居者生活介護（有料老人ホーム）】和歌山県和歌山市西庄488-1", "url": "https://www.kaigokensaku.mhlw.go.jp/30/index.php?action_kouhyou_detail_004_kani=true&JigyosyoCd=3070113943-00&ServiceCd=331&Type=search", "url2": "https://www.yatsunami.or.jp" }, "geometry": { "type": "Point", "coordinates": [ 135.1124623, 34.2623902 ] } },
{ "type": "Feature", "properties": { "内容": "介護付有料老人ホームあい向【特定施設入居者生活介護（有料老人ホーム）】和歌山市向143あい向", "url": "https://www.kaigokensaku.mhlw.go.jp/30/index.php?action_kouhyou_detail_004_kani=true&JigyosyoCd=3070108521-00&ServiceCd=331&Type=search", "url2": "http://www.nakae.or.jp/contents/ai_mukai/index.html" }, "geometry": { "type": "Point", "coordinates": [ 135.144842299999937, 34.2580219 ] } },
{ "type": "Feature", "properties": { "内容": "介護付有料老人ホーム　きらら誠佑【特定施設入居者生活介護（有料老人ホーム）】和歌山市西田井３８５", "url": "https://www.kaigokensaku.mhlw.go.jp/30/index.php?action_kouhyou_detail_004_kani=true&JigyosyoCd=3070107838-00&ServiceCd=331&Type=search", "url2": "http://www.seiyu-hp.jp/kirara-seiyu/" }, "geometry": { "type": "Point", "coordinates": [ 135.237283, 34.2542996 ] } },
{ "type": "Feature", "properties": { "内容": "さわやか和歌山館【特定施設入居者生活介護（有料老人ホーム）】松島234-1さわやか和歌山館", "url": "https://www.kaigokensaku.mhlw.go.jp/30/index.php?action_kouhyou_detail_004_kani=true&JigyosyoCd=3070112606-00&ServiceCd=331&Type=search", "url2": "http://www.sawayakaclub.jp/wakayamakan/" }, "geometry": { "type": "Point", "coordinates": [ 135.211604399999942, 34.24993 ] } },
{ "type": "Feature", "properties": { "内容": "医療法人甃友会介護付（混合型）有料老人ホームＢＬＩSSぶらくり【特定施設入居者生活介護（有料老人ホーム）】和歌山市米屋町３番地　ぶらくり丁ブリスビル", "url": "https://www.kaigokensaku.mhlw.go.jp/30/index.php?action_kouhyou_detail_004_kani=true&JigyosyoCd=3070107010-00&ServiceCd=331&Type=search", "url2": "http://www.bliss-burakuri.com/" }, "geometry": { "type": "Point", "coordinates": [ 135.175551899999959, 34.233628 ] } },
{ "type": "Feature", "properties": { "内容": "GRACIL和歌山【特定施設入居者生活介護（有料老人ホーム）】和歌山県和歌山市太田2丁目7-1", "url": "https://www.kaigokensaku.mhlw.go.jp/30/index.php?action_kouhyou_detail_004_kani=true&JigyosyoCd=3070114842-00&ServiceCd=331&Type=search", "url2": "https://www.akarihome-kaigo.com/" }, "geometry": { "type": "Point", "coordinates": [ 135.194504666270433, 34.229781828245073 ] } },
{ "type": "Feature", "properties": { "内容": "ニチイケアセンター木の国ありもと【特定施設入居者生活介護（有料老人ホーム）】有本518-1", "url": "https://www.kaigokensaku.mhlw.go.jp/30/index.php?action_kouhyou_detail_004_kani=true&JigyosyoCd=3070111269-00&ServiceCd=331&Type=search", "url2": "http://www.nichiigakkn.co.jp" }, "geometry": { "type": "Point", "coordinates": [ 135.196870482278428, 34.249248942137001 ] } },
{ "type": "Feature", "properties": { "内容": "特定施設サービス付き高齢者向け住宅　ポータラカ【特定施設入居者生活介護（有料老人ホーム）】和歌山県田辺市下三栖岩屋谷1483番地の15", "url": "https://www.kaigokensaku.mhlw.go.jp/30/index.php?action_kouhyou_detail_004_kani=true&JigyosyoCd=3072201811-00&ServiceCd=331&Type=search", "url2": "https://www.kanon-potalaka.com/" }, "geometry": { "type": "Point", "coordinates": [ 135.420514535443118, 33.72983044420009 ] } },
{ "type": "Feature", "properties": { "内容": "中屋敷イストワール【特定施設入居者生活介護（有料老人ホーム）】中屋敷町21番地の1", "url": "https://www.kaigokensaku.mhlw.go.jp/30/index.php?action_kouhyou_detail_004_kani=true&JigyosyoCd=3072201621-00&ServiceCd=331&Type=search", "url2": "https://nakayashiki-histoire.jp" }, "geometry": { "type": "Point", "coordinates": [ 135.3771963, 33.7295996 ] } },
{ "type": "Feature", "properties": { "内容": "シニアホーム鯨洋【特定施設入居者生活介護（有料老人ホーム）】田辺市神島台7番2号", "url": "https://www.kaigokensaku.mhlw.go.jp/30/index.php?action_kouhyou_detail_004_kani=true&JigyosyoCd=3072201019-00&ServiceCd=331&Type=search", "url2": "https://www.komino.or.jp/geiyo" }, "geometry": { "type": "Point", "coordinates": [ 135.4041489, 33.7063115 ] } },
{ "type": "Feature", "properties": { "内容": "サービス付き高齢者向け住宅辻の郷【特定施設入居者生活介護（有料老人ホーム）】和歌山県日高郡みなべ町東吉田282", "url": "https://www.kaigokensaku.mhlw.go.jp/30/index.php?action_kouhyou_detail_004_kani=true&JigyosyoCd=3072101011-00&ServiceCd=331&Type=search", "url2": "https://care-net.biz/30/tujinosato/" }, "geometry": { "type": "Point", "coordinates": [ 135.3176872, 33.7678758 ] } }
]
}
