{
"type": "FeatureCollection",
"name": "geo_30_地域密着型介護老人福祉施設入所者生活介護",
"crs": { "type": "name", "properties": { "name": "urn:ogc:def:crs:OGC:1.3:CRS84" } },
"features": [
{ "type": "Feature", "properties": { "内容": "社会福祉法人スミや　プチパレス紀三井寺【地域密着型介護老人福祉施設入所者生活介護】和歌山県和歌山市紀三井寺811-87地域密着型特別養護老人ホームプチパレス紀三井寺", "url": "https://www.kaigokensaku.mhlw.go.jp/30/index.php?action_kouhyou_detail_004_kani=true&JigyosyoCd=3090100557-00&ServiceCd=540&Type=search", "url2": "http://www.sumiya-ppk.com" }, "geometry": { "type": "Point", "coordinates": [ 135.183582900000033, 34.186803 ] } },
{ "type": "Feature", "properties": { "内容": "地域密着型介護老人福祉施設　みのり西庄園【地域密着型介護老人福祉施設入所者生活介護】和歌山市つつじが丘7丁目3番3", "url": "https://www.kaigokensaku.mhlw.go.jp/30/index.php?action_kouhyou_detail_004_kani=true&JigyosyoCd=3090100474-00&ServiceCd=540&Type=search", "url2": "http://seisyoen-minori.jp/" }, "geometry": { "type": "Point", "coordinates": [ 135.098975200000041, 34.2658594 ] } },
{ "type": "Feature", "properties": { "内容": "介護老人福祉施設　つつじが丘めぐみ【地域密着型介護老人福祉施設入所者生活介護】和歌山県和歌山市つつじが丘5丁目3-7", "url": "https://www.kaigokensaku.mhlw.go.jp/30/index.php?action_kouhyou_detail_004_kani=true&JigyosyoCd=3090101092-00&ServiceCd=540&Type=search", "url2": "https://tsutsujigaoka-megumi.com/" }, "geometry": { "type": "Point", "coordinates": [ 135.10290739961394, 34.266281899279299 ] } },
{ "type": "Feature", "properties": { "内容": "地域密着型介護老人福祉施設　紀三井寺苑ほほえみ【地域密着型介護老人福祉施設入所者生活介護】和歌山県和歌山市布引１３番地７", "url": "https://www.kaigokensaku.mhlw.go.jp/30/index.php?action_kouhyou_detail_004_kani=true&JigyosyoCd=3090101076-00&ServiceCd=540&Type=search", "url2": "https://www.kisan.or.jp" }, "geometry": { "type": "Point", "coordinates": [ 135.18470619032135, 34.179977701370191 ] } },
{ "type": "Feature", "properties": { "内容": "地域密着型介護老人福祉施設　わかやま苑【地域密着型介護老人福祉施設入所者生活介護】和歌山県和歌山市屋形町１丁目３９番地の２", "url": "https://www.kaigokensaku.mhlw.go.jp/30/index.php?action_kouhyou_detail_004_kani=true&JigyosyoCd=3090100235-00&ServiceCd=540&Type=search", "url2": "http://wakayama-en.jp/" }, "geometry": { "type": "Point", "coordinates": [ 135.177136278573585, 34.230845661622894 ] } },
{ "type": "Feature", "properties": { "内容": "地域密着型介護老人福祉施設第五親和園【地域密着型介護老人福祉施設入所者生活介護】和歌山県和歌山市杭ノ瀬４３２番地３", "url": "https://www.kaigokensaku.mhlw.go.jp/30/index.php?action_kouhyou_detail_004_kani=true&JigyosyoCd=3090100342-00&ServiceCd=540&Type=search", "url2": "http://www.shinwaen.jp/" }, "geometry": { "type": "Point", "coordinates": [ 135.192076600000064, 34.2058898 ] } },
{ "type": "Feature", "properties": { "内容": "地域密着型特別養護老人ホーム冬野の郷【地域密着型介護老人福祉施設入所者生活介護】和歌山市冬野2037番地", "url": "https://www.kaigokensaku.mhlw.go.jp/30/index.php?action_kouhyou_detail_004_kani=true&JigyosyoCd=3090101266-00&ServiceCd=540&Type=search", "url2": "http://www.kitabakai.jp" }, "geometry": { "type": "Point", "coordinates": [ 135.207961399999931, 34.1818632 ] } },
{ "type": "Feature", "properties": { "内容": "特別養護老人ホームわかば【地域密着型介護老人福祉施設入所者生活介護】和歌山市有本１４０番地", "url": "https://www.kaigokensaku.mhlw.go.jp/30/index.php?action_kouhyou_detail_004_kani=true&JigyosyoCd=3090100821-00&ServiceCd=540&Type=search", "url2": "nijiwakaba.com" }, "geometry": { "type": "Point", "coordinates": [ 135.196116800000027, 34.2451356 ] } },
{ "type": "Feature", "properties": { "内容": "第Ⅲ竹の里園【地域密着型介護老人福祉施設入所者生活介護】和歌山市明王寺１６番地１", "url": "https://www.kaigokensaku.mhlw.go.jp/30/index.php?action_kouhyou_detail_004_kani=true&JigyosyoCd=3090100623-00&ServiceCd=540&Type=search", "url2": "https://www.takenosatoen.jp" }, "geometry": { "type": "Point", "coordinates": [ 135.255639245693885, 34.214012737644211 ] } },
{ "type": "Feature", "properties": { "内容": "地域密着型介護老人福祉施設山口葵園マロウ【地域密着型介護老人福祉施設入所者生活介護】和歌山市藤田28-1", "url": "https://www.kaigokensaku.mhlw.go.jp/30/index.php?action_kouhyou_detail_004_kani=true&JigyosyoCd=3090100672-00&ServiceCd=540&Type=search", "url2": "http://www.y-aoikai.or.jp" }, "geometry": { "type": "Point", "coordinates": [ 135.263100154789782, 34.264546099505154 ] } },
{ "type": "Feature", "properties": { "内容": "特別養護老人ホーム　三寿苑【地域密着型介護老人福祉施設入所者生活介護】和歌山市島橋南ノ丁6番21号", "url": "https://www.kaigokensaku.mhlw.go.jp/30/index.php?action_kouhyou_detail_004_kani=true&JigyosyoCd=3090100409-00&ServiceCd=540&Type=search", "url2": "https://www.koufu-kai.or.jp" }, "geometry": { "type": "Point", "coordinates": [ 135.147334499999943, 34.2431956 ] } },
{ "type": "Feature", "properties": { "内容": "特別養護老人ホームアップリケア紀三井寺【地域密着型介護老人福祉施設入所者生活介護】紀三井寺811-87", "url": "https://www.kaigokensaku.mhlw.go.jp/30/index.php?action_kouhyou_detail_004_kani=true&JigyosyoCd=3090101944-00&ServiceCd=540&Type=search", "url2": "https://www.apricare-kimiidera.com" }, "geometry": { "type": "Point", "coordinates": [ 135.183631100000014, 34.1867515 ] } },
{ "type": "Feature", "properties": { "内容": "地域密着型特別養護老人ホーム第2みどりが丘ホームⅠ【地域密着型介護老人福祉施設入所者生活介護】和歌山県和歌山市土佐町3丁目25番地", "url": "https://www.kaigokensaku.mhlw.go.jp/30/index.php?action_kouhyou_detail_004_kani=true&JigyosyoCd=3090101613-00&ServiceCd=540&Type=search", "url2": "https：//www.w-midori.jp" }, "geometry": { "type": "Point", "coordinates": [ 135.1603054, 34.220035 ] } },
{ "type": "Feature", "properties": { "内容": "地域密着型特別養護老人ホーム第2みどりが丘ホームⅡ【地域密着型介護老人福祉施設入所者生活介護】和歌山県和歌山市土佐町3丁目25番地", "url": "https://www.kaigokensaku.mhlw.go.jp/30/index.php?action_kouhyou_detail_004_kani=true&JigyosyoCd=3090101621-00&ServiceCd=540&Type=search", "url2": "https://www.w-midori.jp" }, "geometry": { "type": "Point", "coordinates": [ 135.1603054, 34.220035 ] } },
{ "type": "Feature", "properties": { "内容": "社会福祉法人さくら福祉会地域密着型介護老人福祉施設さくらホーム【地域密着型介護老人福祉施設入所者生活介護】和歌山県海南市北赤坂2番地1", "url": "https://www.kaigokensaku.mhlw.go.jp/30/index.php?action_kouhyou_detail_004_kani=true&JigyosyoCd=3091400147-00&ServiceCd=540&Type=search", "url2": "http://www.sakuraclinic.org/publics/index/46/" }, "geometry": { "type": "Point", "coordinates": [ 135.240747899999974, 34.163516 ] } },
{ "type": "Feature", "properties": { "内容": "真寿苑サテライトぬるみ川【地域密着型介護老人福祉施設入所者生活介護】和歌山県田辺市中辺路町温川393", "url": "https://www.kaigokensaku.mhlw.go.jp/30/index.php?action_kouhyou_detail_004_kani=true&JigyosyoCd=3092200173-00&ServiceCd=540&Type=search", "url2": "http://www.sjk-tanabe.or.jp/" }, "geometry": { "type": "Point", "coordinates": [ 135.52382585351188, 33.827318792624922 ] } },
{ "type": "Feature", "properties": { "内容": "地域密着型特別養護老人ホームクレール高森【地域密着型介護老人福祉施設入所者生活介護】和歌山県新宮市三輪崎2472-13地域密着型特別養護老人ホームクレール高森", "url": "https://www.kaigokensaku.mhlw.go.jp/30/index.php?action_kouhyou_detail_004_kani=true&JigyosyoCd=3092300049-00&ServiceCd=540&Type=search", "url2": "https://www.kuroshioen.or.jp/" }, "geometry": { "type": "Point", "coordinates": [ 135.98633271976496, 33.698394665578626 ] } },
{ "type": "Feature", "properties": { "内容": "特別養護老人ホーム熊野川園新館【地域密着型介護老人福祉施設入所者生活介護】熊野川町西187番地", "url": "https://www.kaigokensaku.mhlw.go.jp/30/index.php?action_kouhyou_detail_004_kani=true&JigyosyoCd=3092300023-00&ServiceCd=540&Type=search", "url2": null }, "geometry": { "type": "Point", "coordinates": [ 135.837173399999983, 33.7590431 ] } },
{ "type": "Feature", "properties": { "内容": "地域密着特別養護老人ホーム　きしがわ園【地域密着型介護老人福祉施設入所者生活介護】和歌山県紀の川市貴志川町尼寺359", "url": "https://www.kaigokensaku.mhlw.go.jp/30/index.php?action_kouhyou_detail_004_kani=true&JigyosyoCd=3091700058-00&ServiceCd=540&Type=search", "url2": "https://seianna.jp" }, "geometry": { "type": "Point", "coordinates": [ 135.311997698594723, 34.225965638109734 ] } },
{ "type": "Feature", "properties": { "内容": "地域密着型特別養護老人ホーム　南山苑【地域密着型介護老人福祉施設入所者生活介護】和歌山県伊都郡高野町高野山44-22", "url": "https://www.kaigokensaku.mhlw.go.jp/30/index.php?action_kouhyou_detail_004_kani=true&JigyosyoCd=3091300024-00&ServiceCd=540&Type=search", "url2": "https://seiaikai.jimdofree.com/" }, "geometry": { "type": "Point", "coordinates": [ 135.592627099999959, 34.2206737 ] } },
{ "type": "Feature", "properties": { "内容": "介護老人福祉施設　平安のまち【地域密着型介護老人福祉施設入所者生活介護】和歌山県有田郡湯浅町青木826-1", "url": "https://www.kaigokensaku.mhlw.go.jp/30/index.php?action_kouhyou_detail_004_kani=true&JigyosyoCd=3091600043-00&ServiceCd=540&Type=search", "url2": "www.heiannomachi.com" }, "geometry": { "type": "Point", "coordinates": [ 135.188217177237021, 34.029046320228055 ] } },
{ "type": "Feature", "properties": { "内容": "特別養護老人ホーム　かぐのみ苑湯浅【地域密着型介護老人福祉施設入所者生活介護】有田郡湯浅町湯浅2032-1", "url": "https://www.kaigokensaku.mhlw.go.jp/30/index.php?action_kouhyou_detail_004_kani=true&JigyosyoCd=3091600035-00&ServiceCd=540&Type=search", "url2": "http://www.heiseifukushikai.or.jp/" }, "geometry": { "type": "Point", "coordinates": [ 135.1856636, 34.0373952 ] } },
{ "type": "Feature", "properties": { "内容": "特別養護老人ホームハートケア万笑【地域密着型介護老人福祉施設入所者生活介護】和歌山県有田郡有田川町大字奥1026-1", "url": "https://www.kaigokensaku.mhlw.go.jp/30/index.php?action_kouhyou_detail_004_kani=true&JigyosyoCd=3091600050-00&ServiceCd=540&Type=search", "url2": "http://www.kibien.com/" }, "geometry": { "type": "Point", "coordinates": [ 135.214282899999944, 34.0496645 ] } },
{ "type": "Feature", "properties": { "内容": "地域密着型特別養護老人ﾎｰﾑ　日好荘スマイル【地域密着型介護老人福祉施設入所者生活介護】和歌山県東牟婁郡那智勝浦町大字浜ノ宮850-1", "url": "https://www.kaigokensaku.mhlw.go.jp/30/index.php?action_kouhyou_detail_004_kani=true&JigyosyoCd=3092500150-00&ServiceCd=540&Type=search", "url2": null }, "geometry": { "type": "Point", "coordinates": [ 135.942438300000049, 33.6473109 ] } },
{ "type": "Feature", "properties": { "内容": "特別養護老人ホームにしき園【地域密着型介護老人福祉施設入所者生活介護】和歌山県東牟婁郡串本町二色160", "url": "https://www.kaigokensaku.mhlw.go.jp/30/index.php?action_kouhyou_detail_004_kani=true&JigyosyoCd=3092500143-00&ServiceCd=540&Type=search", "url2": "http://www.nishikien.ne.jp/" }, "geometry": { "type": "Point", "coordinates": [ 135.768860600000039, 33.489038 ] } },
{ "type": "Feature", "properties": { "内容": "上野山にしき園【地域密着型介護老人福祉施設入所者生活介護】和歌山県東牟婁郡串本町津荷29-2", "url": "https://www.kaigokensaku.mhlw.go.jp/30/index.php?action_kouhyou_detail_004_kani=true&JigyosyoCd=3092500135-00&ServiceCd=540&Type=search", "url2": "http://www.nishikien.ne.jp/" }, "geometry": { "type": "Point", "coordinates": [ 135.838623450401315, 33.514929066844779 ] } }
]
}
