{
"type": "FeatureCollection",
"name": "geo_30_幼保連携型認定こども園",
"crs": { "type": "name", "properties": { "name": "urn:ogc:def:crs:EPSG::6668" } },
"features": [
{ "type": "Feature", "properties": { "P29_001": "30202", "P29_002": "A230210000014", "P29_003": "16013", "P29_004": "海南市立きらら子ども園", "P29_005": "和歌山県海南市沖野々434", "P29_006": "3", "P29_007": "0", "P29_008": "00", "P29_009": null }, "geometry": { "type": "Point", "coordinates": [ 135.274177895131658, 34.159703878312463 ] } },
{ "type": "Feature", "properties": { "P29_001": "30381", "P29_002": "A230210000023", "P29_003": "16013", "P29_004": "美浜町立ひまわりこども園", "P29_005": "和歌山県日高郡美浜町吉原602-1", "P29_006": "3", "P29_007": "0", "P29_008": "00", "P29_009": null }, "geometry": { "type": "Point", "coordinates": [ 135.139197967967817, 33.893732251614047 ] } },
{ "type": "Feature", "properties": { "P29_001": "30428", "P29_002": "A230210000032", "P29_003": "16013", "P29_004": "串本町立くしもとこども園", "P29_005": "和歌山県東牟婁郡串本町串本388-1", "P29_006": "3", "P29_007": "0", "P29_008": "00", "P29_009": null }, "geometry": { "type": "Point", "coordinates": [ 135.776520192895106, 33.476859146835359 ] } },
{ "type": "Feature", "properties": { "P29_001": "30202", "P29_002": "A230210000041", "P29_003": "16013", "P29_004": "海南市立みらい子ども園", "P29_005": "和歌山県海南市日方1272-3", "P29_006": "3", "P29_007": "0", "P29_008": "00", "P29_009": null }, "geometry": { "type": "Point", "coordinates": [ 135.20812732602289, 34.156140130728737 ] } },
{ "type": "Feature", "properties": { "P29_001": "30201", "P29_002": "A230210000050", "P29_003": "16013", "P29_004": "和歌山市立本町こども園", "P29_005": "和歌山県和歌山市北桶屋町7", "P29_006": "3", "P29_007": "0", "P29_008": "00", "P29_009": null }, "geometry": { "type": "Point", "coordinates": [ 135.175666914318867, 34.236622090227605 ] } },
{ "type": "Feature", "properties": { "P29_001": "30201", "P29_002": "A230210000069", "P29_003": "16013", "P29_004": "和歌山市立芦原こども園", "P29_005": "和歌山県和歌山市雄松町5-4-1", "P29_006": "3", "P29_007": "0", "P29_008": "00", "P29_009": null }, "geometry": { "type": "Point", "coordinates": [ 135.181239747323389, 34.219397743325416 ] } },
{ "type": "Feature", "properties": { "P29_001": "30201", "P29_002": "A230310000012", "P29_003": "16013", "P29_004": "片男波こども園", "P29_005": "和歌山県和歌山市和歌浦南2-11-8", "P29_006": "4", "P29_007": "0", "P29_008": "00", "P29_009": null }, "geometry": { "type": "Point", "coordinates": [ 135.168790206733462, 34.186766181381756 ] } },
{ "type": "Feature", "properties": { "P29_001": "30201", "P29_002": "A230310000021", "P29_003": "16013", "P29_004": "ようすい子ども園", "P29_005": "和歌山県和歌山市西浜1218-3", "P29_006": "4", "P29_007": "0", "P29_008": "00", "P29_009": null }, "geometry": { "type": "Point", "coordinates": [ 135.154918003767733, 34.195215001169991 ] } },
{ "type": "Feature", "properties": { "P29_001": "30201", "P29_002": "A230310000030", "P29_003": "16013", "P29_004": "さつきこども園", "P29_005": "和歌山県和歌山市中島70-8", "P29_006": "4", "P29_007": "0", "P29_008": "00", "P29_009": null }, "geometry": { "type": "Point", "coordinates": [ 135.188712071354274, 34.212377623467731 ] } },
{ "type": "Feature", "properties": { "P29_001": "30201", "P29_002": "A230310000049", "P29_003": "16013", "P29_004": "広瀬幼保園", "P29_005": "和歌山県和歌山市片岡町1-2", "P29_006": "4", "P29_007": "0", "P29_008": "00", "P29_009": null }, "geometry": { "type": "Point", "coordinates": [ 135.174466000175926, 34.225053003235594 ] } },
{ "type": "Feature", "properties": { "P29_001": "30201", "P29_002": "A230310000058", "P29_003": "16013", "P29_004": "新堀こども園", "P29_005": "和歌山県和歌山市新堀東2-1-25", "P29_006": "4", "P29_007": "0", "P29_008": "00", "P29_009": null }, "geometry": { "type": "Point", "coordinates": [ 135.175023830616709, 34.214686820294567 ] } },
{ "type": "Feature", "properties": { "P29_001": "30201", "P29_002": "A230310000067", "P29_003": "16013", "P29_004": "まことなるたきこども園", "P29_005": "和歌山県和歌山市園部381", "P29_006": "4", "P29_007": "0", "P29_008": "00", "P29_009": null }, "geometry": { "type": "Point", "coordinates": [ 135.18896414277333, 34.268818405119802 ] } },
{ "type": "Feature", "properties": { "P29_001": "30208", "P29_002": "A230310000076", "P29_003": "16013", "P29_004": "レイモンドこども園", "P29_005": "和歌山県紀の川市古和田238-1", "P29_006": "4", "P29_007": "0", "P29_008": "00", "P29_009": null }, "geometry": { "type": "Point", "coordinates": [ 135.347734415413242, 34.26970835809469 ] } },
{ "type": "Feature", "properties": { "P29_001": "30209", "P29_002": "A230310000085", "P29_003": "16013", "P29_004": "おひさま子ども園", "P29_005": "和歌山県岩出市岡田550", "P29_006": "4", "P29_007": "0", "P29_008": "00", "P29_009": null }, "geometry": { "type": "Point", "coordinates": [ 135.329336310260913, 34.2571545253709 ] } },
{ "type": "Feature", "properties": { "P29_001": "30201", "P29_002": "A230310000094", "P29_003": "16013", "P29_004": "愛徳幼稚園", "P29_005": "和歌山県和歌山市今福3-6-37", "P29_006": "4", "P29_007": "0", "P29_008": "00", "P29_009": null }, "geometry": { "type": "Point", "coordinates": [ 135.163297004633648, 34.210206996677577 ] } },
{ "type": "Feature", "properties": { "P29_001": "30201", "P29_002": "A230310000101", "P29_003": "16013", "P29_004": "たから幼稚園", "P29_005": "和歌山県和歌山市塩屋2-1-15", "P29_006": "4", "P29_007": "0", "P29_008": "00", "P29_009": null }, "geometry": { "type": "Point", "coordinates": [ 135.175094143207843, 34.20143820482788 ] } },
{ "type": "Feature", "properties": { "P29_001": "30201", "P29_002": "A230310000110", "P29_003": "16013", "P29_004": "むつみこども園", "P29_005": "和歌山県和歌山市砂山南3-2-21", "P29_006": "4", "P29_007": "0", "P29_008": "00", "P29_009": null }, "geometry": { "type": "Point", "coordinates": [ 135.161031676648435, 34.216064559685584 ] } },
{ "type": "Feature", "properties": { "P29_001": "30201", "P29_002": "A230310000129", "P29_003": "16013", "P29_004": "しょうぶこども園", "P29_005": "和歌山県和歌山市吉礼53-6", "P29_006": "4", "P29_007": "0", "P29_008": "00", "P29_009": null }, "geometry": { "type": "Point", "coordinates": [ 135.235688112885953, 34.20233171269367 ] } },
{ "type": "Feature", "properties": { "P29_001": "30201", "P29_002": "A230310000138", "P29_003": "16013", "P29_004": "ひまわりこども園", "P29_005": "和歌山県和歌山市有本431", "P29_006": "4", "P29_007": "0", "P29_008": "00", "P29_009": null }, "geometry": { "type": "Point", "coordinates": [ 135.19866316350425, 34.250710864979453 ] } },
{ "type": "Feature", "properties": { "P29_001": "30201", "P29_002": "A230310000147", "P29_003": "16013", "P29_004": "第２ひまわりこども園", "P29_005": "和歌山県和歌山市栄谷58-2", "P29_006": "4", "P29_007": "0", "P29_008": "00", "P29_009": null }, "geometry": { "type": "Point", "coordinates": [ 135.156732543358686, 34.255180492453952 ] } },
{ "type": "Feature", "properties": { "P29_001": "30201", "P29_002": "A230310000156", "P29_003": "16013", "P29_004": "こひつじこども園", "P29_005": "和歌山県和歌山市木ノ本1230-2", "P29_006": "4", "P29_007": "0", "P29_008": "00", "P29_009": null }, "geometry": { "type": "Point", "coordinates": [ 135.122567825800729, 34.264630842709138 ] } },
{ "type": "Feature", "properties": { "P29_001": "30201", "P29_002": "A230310000165", "P29_003": "16013", "P29_004": "木ノ本こども園", "P29_005": "和歌山県和歌山市木ノ本300-1", "P29_006": "4", "P29_007": "0", "P29_008": "00", "P29_009": null }, "geometry": { "type": "Point", "coordinates": [ 135.126322518117519, 34.258394601304623 ] } },
{ "type": "Feature", "properties": { "P29_001": "30201", "P29_002": "A230310000174", "P29_003": "16013", "P29_004": "三宝幼稚園", "P29_005": "和歌山県和歌山市楠本267-1", "P29_006": "4", "P29_007": "0", "P29_008": "00", "P29_009": null }, "geometry": { "type": "Point", "coordinates": [ 135.25790780654026, 34.257075001486207 ] } },
{ "type": "Feature", "properties": { "P29_001": "30201", "P29_002": "A230310000183", "P29_003": "16013", "P29_004": "いさお幼稚園", "P29_005": "和歌山県和歌山市園部1518-1", "P29_006": "4", "P29_007": "0", "P29_008": "00", "P29_009": null }, "geometry": { "type": "Point", "coordinates": [ 135.198991941275267, 34.266029366817882 ] } },
{ "type": "Feature", "properties": { "P29_001": "30201", "P29_002": "A230310000192", "P29_003": "16013", "P29_004": "和歌山ひかり幼稚園", "P29_005": "和歌山県和歌山市関戸1-2-30", "P29_006": "4", "P29_007": "0", "P29_008": "00", "P29_009": null }, "geometry": { "type": "Point", "coordinates": [ 135.168546893802727, 34.201057072930091 ] } },
{ "type": "Feature", "properties": { "P29_001": "30201", "P29_002": "A230310000209", "P29_003": "16013", "P29_004": "つくし幼保園", "P29_005": "和歌山県和歌山市吉礼486-1", "P29_006": "4", "P29_007": "0", "P29_008": "00", "P29_009": null }, "geometry": { "type": "Point", "coordinates": [ 135.240506763640639, 34.201784209551271 ] } },
{ "type": "Feature", "properties": { "P29_001": "30206", "P29_002": "A230310000218", "P29_003": "16013", "P29_004": "認定こども園立正幼稚園", "P29_005": "和歌山県田辺市東陽15-30", "P29_006": "4", "P29_007": "0", "P29_008": "00", "P29_009": null }, "geometry": { "type": "Point", "coordinates": [ 135.385536415078803, 33.727941469251007 ] } },
{ "type": "Feature", "properties": { "P29_001": "30206", "P29_002": "A230310000227", "P29_003": "16013", "P29_004": "うえのやま学園認定こども園", "P29_005": "和歌山県田辺市古尾17-1", "P29_006": "4", "P29_007": "0", "P29_008": "00", "P29_009": null }, "geometry": { "type": "Point", "coordinates": [ 135.371266577420784, 33.735963279695234 ] } },
{ "type": "Feature", "properties": { "P29_001": "30390", "P29_002": "A230310000236", "P29_003": "16013", "P29_004": "いなみこども園", "P29_005": "和歌山県日高郡印南町山口150-3", "P29_006": "4", "P29_007": "0", "P29_008": "00", "P29_009": null }, "geometry": { "type": "Point", "coordinates": [ 135.222839216959528, 33.822634204976836 ] } },
{ "type": "Feature", "properties": { "P29_001": "30203", "P29_002": "A230310000245", "P29_003": "16013", "P29_004": "認定こども園輝きの森学園", "P29_005": "和歌山県橋本市城山台1-17-4", "P29_006": "4", "P29_007": "0", "P29_008": "00", "P29_009": null }, "geometry": { "type": "Point", "coordinates": [ 135.613467001305168, 34.34544899685703 ] } },
{ "type": "Feature", "properties": { "P29_001": "30203", "P29_002": "A230310000254", "P29_003": "16013", "P29_004": "みついしこども園", "P29_005": "和歌山県橋本市三石台2-1-3", "P29_006": "4", "P29_007": "0", "P29_008": "00", "P29_009": null }, "geometry": { "type": "Point", "coordinates": [ 135.60061297965342, 34.35392028395858 ] } },
{ "type": "Feature", "properties": { "P29_001": "30203", "P29_002": "A230310000263", "P29_003": "16013", "P29_004": "幼保連携型認定こども園あやの台幼稚園", "P29_005": "和歌山県橋本市あやの台2-30-1", "P29_006": "4", "P29_007": "0", "P29_008": "00", "P29_009": null }, "geometry": { "type": "Point", "coordinates": [ 135.654477239183592, 34.338906967796952 ] } },
{ "type": "Feature", "properties": { "P29_001": "30428", "P29_002": "A230310000272", "P29_003": "16013", "P29_004": "上野山こども園", "P29_005": "和歌山県東牟婁郡串本町津荷29-2", "P29_006": "4", "P29_007": "0", "P29_008": "00", "P29_009": null }, "geometry": { "type": "Point", "coordinates": [ 135.838026853713529, 33.51510915608069 ] } },
{ "type": "Feature", "properties": { "P29_001": "30201", "P29_002": "A230310000281", "P29_003": "16013", "P29_004": "じろうまるこども園", "P29_005": "和歌山県和歌山市次郎丸107-1", "P29_006": "4", "P29_007": "0", "P29_008": "00", "P29_009": null }, "geometry": { "type": "Point", "coordinates": [ 135.147360730252871, 34.254683749952456 ] } },
{ "type": "Feature", "properties": { "P29_001": "30201", "P29_002": "A230310000290", "P29_003": "16013", "P29_004": "かんどりこども園", "P29_005": "和歌山県和歌山市平井466-1", "P29_006": "4", "P29_007": "0", "P29_008": "00", "P29_009": null }, "geometry": { "type": "Point", "coordinates": [ 135.16550962437725, 34.262864617330706 ] } },
{ "type": "Feature", "properties": { "P29_001": "30208", "P29_002": "A230310000307", "P29_003": "16013", "P29_004": "愛の光幼稚園", "P29_005": "和歌山県紀の川市紀の川市粉河4620-4", "P29_006": "4", "P29_007": "0", "P29_008": "00", "P29_009": null }, "geometry": { "type": "Point", "coordinates": [ 135.407381178066515, 34.273676784116091 ] } },
{ "type": "Feature", "properties": { "P29_001": "30209", "P29_002": "A230310000316", "P29_003": "16013", "P29_004": "山崎北こども園", "P29_005": "和歌山県岩出市金池354", "P29_006": "4", "P29_007": "0", "P29_008": "00", "P29_009": null }, "geometry": { "type": "Point", "coordinates": [ 135.290514125869777, 34.275876506248366 ] } },
{ "type": "Feature", "properties": { "P29_001": "30201", "P29_002": "A230310000325", "P29_003": "16013", "P29_004": "名草幼稚園", "P29_005": "和歌山県和歌山市紀三井寺520", "P29_006": "4", "P29_007": "0", "P29_008": "00", "P29_009": null }, "geometry": { "type": "Point", "coordinates": [ 135.188998949563995, 34.175930553296524 ] } },
{ "type": "Feature", "properties": { "P29_001": "30201", "P29_002": "A230310000334", "P29_003": "16013", "P29_004": "とうようこども園", "P29_005": "和歌山県和歌山市宇田森67", "P29_006": "4", "P29_007": "0", "P29_008": "00", "P29_009": null }, "geometry": { "type": "Point", "coordinates": [ 135.249296631241634, 34.261071087589919 ] } },
{ "type": "Feature", "properties": { "P29_001": "30201", "P29_002": "A230310000343", "P29_003": "16013", "P29_004": "山口こども園", "P29_005": "和歌山県和歌山市谷2", "P29_006": "4", "P29_007": "0", "P29_008": "00", "P29_009": null }, "geometry": { "type": "Point", "coordinates": [ 135.266152639833365, 34.269996217912272 ] } },
{ "type": "Feature", "properties": { "P29_001": "30201", "P29_002": "A230310000352", "P29_003": "16013", "P29_004": "みどり幼稚園", "P29_005": "和歌山県和歌山市東高松3-3-30", "P29_006": "4", "P29_007": "0", "P29_008": "00", "P29_009": null }, "geometry": { "type": "Point", "coordinates": [ 135.172476473861224, 34.20558766998986 ] } },
{ "type": "Feature", "properties": { "P29_001": "30203", "P29_002": "A230310000361", "P29_003": "16013", "P29_004": "学文路さつきこども園", "P29_005": "和歌山県橋本市清水388-1", "P29_006": "4", "P29_007": "0", "P29_008": "00", "P29_009": null }, "geometry": { "type": "Point", "coordinates": [ 135.59682771134996, 34.306502220630115 ] } },
{ "type": "Feature", "properties": { "P29_001": "30207", "P29_002": "A230310000370", "P29_003": "16013", "P29_004": "木の川認定こども園", "P29_005": "和歌山県新宮市木ノ川380-1", "P29_006": "4", "P29_007": "0", "P29_008": "00", "P29_009": null }, "geometry": { "type": "Point", "coordinates": [ 135.96224086277482, 33.682207504936436 ] } },
{ "type": "Feature", "properties": { "P29_001": "30201", "P29_002": "A230310000389", "P29_003": "16013", "P29_004": "ほしや子ども園", "P29_005": "和歌山県和歌山市布施屋3-1", "P29_006": "4", "P29_007": "0", "P29_008": "00", "P29_009": null }, "geometry": { "type": "Point", "coordinates": [ 135.259675679769089, 34.242220998043848 ] } },
{ "type": "Feature", "properties": { "P29_001": "30201", "P29_002": "A230310000398", "P29_003": "16013", "P29_004": "すみれこども園", "P29_005": "和歌山県和歌山市木ノ本321-2", "P29_006": "4", "P29_007": "0", "P29_008": "00", "P29_009": null }, "geometry": { "type": "Point", "coordinates": [ 135.1281049026353, 34.257815410319786 ] } },
{ "type": "Feature", "properties": { "P29_001": "30201", "P29_002": "A230310000405", "P29_003": "16013", "P29_004": "まつえ幼稚園", "P29_005": "和歌山県和歌山市松江中3-1-35", "P29_006": "4", "P29_007": "0", "P29_008": "00", "P29_009": null }, "geometry": { "type": "Point", "coordinates": [ 135.133311104070231, 34.247953416261446 ] } },
{ "type": "Feature", "properties": { "P29_001": "30206", "P29_002": "A230310000414", "P29_003": "16013", "P29_004": "ＮＵＫＵ森の丘こども園", "P29_005": "和歌山県田辺市上屋敷2-14-25", "P29_006": "4", "P29_007": "0", "P29_008": "00", "P29_009": null }, "geometry": { "type": "Point", "coordinates": [ 135.375716105235796, 33.72906345388526 ] } },
{ "type": "Feature", "properties": { "P29_001": "30203", "P29_002": "A230310000423", "P29_003": "16013", "P29_004": "山田さつきこども園", "P29_005": "和歌山県橋本市柏原372-1", "P29_006": "4", "P29_007": "0", "P29_008": "00", "P29_009": null }, "geometry": { "type": "Point", "coordinates": [ 135.585758335858912, 34.318091835526189 ] } },
{ "type": "Feature", "properties": { "P29_001": "30201", "P29_002": "A230310000432", "P29_003": "16013", "P29_004": "まことこども園", "P29_005": "和歌山県和歌山市つつじヶ丘4-3-2", "P29_006": "4", "P29_007": "0", "P29_008": "00", "P29_009": null }, "geometry": { "type": "Point", "coordinates": [ 135.100960641263271, 34.268708849070514 ] } },
{ "type": "Feature", "properties": { "P29_001": "30208", "P29_002": "A230310000441", "P29_003": "16013", "P29_004": "ながやまこども園", "P29_005": "和歌山県紀の川市貴志川町長山277-78", "P29_006": "4", "P29_007": "0", "P29_008": "00", "P29_009": null }, "geometry": { "type": "Point", "coordinates": [ 135.289371096427288, 34.209390083974412 ] } },
{ "type": "Feature", "properties": { "P29_001": "30391", "P29_002": "A230310000450", "P29_003": "16013", "P29_004": "みなべ愛之園こども園", "P29_005": "和歌山県日高郡みなべ町南道141-1", "P29_006": "4", "P29_007": "0", "P29_008": "00", "P29_009": null }, "geometry": { "type": "Point", "coordinates": [ 135.330291601758233, 33.771959083407218 ] } }
]
}
