{
"type": "FeatureCollection",
"name": "geo_30_認知症対応型通所介護",
"crs": { "type": "name", "properties": { "name": "urn:ogc:def:crs:OGC:1.3:CRS84" } },
"features": [
{ "type": "Feature", "properties": { "内容": "生協よりあい【認知症対応型通所介護】和歌山市有本１４３－１", "url": "https://www.kaigokensaku.mhlw.go.jp/30/index.php?action_kouhyou_detail_004_kani=true&JigyosyoCd=3090100037-00&ServiceCd=720&Type=search", "url2": "http://www.w-iryoseikyo.com/" }, "geometry": { "type": "Point", "coordinates": [ 135.197833299999957, 34.2455661 ] } },
{ "type": "Feature", "properties": { "内容": "デイサービス　花【認知症対応型通所介護】和歌山市一筋目２６", "url": "https://www.kaigokensaku.mhlw.go.jp/30/index.php?action_kouhyou_detail_004_kani=true&JigyosyoCd=3070104934-00&ServiceCd=720&Type=search", "url2": "yukako.s@vivifala-yukako.co.jp" }, "geometry": { "type": "Point", "coordinates": [ 135.171472, 34.2374716 ] } },
{ "type": "Feature", "properties": { "内容": "デイサービス　アゼリア【認知症対応型通所介護】和歌山市つつじが丘2丁目6-1", "url": "https://www.kaigokensaku.mhlw.go.jp/30/index.php?action_kouhyou_detail_004_kani=true&JigyosyoCd=3090100177-00&ServiceCd=720&Type=search", "url2": null }, "geometry": { "type": "Point", "coordinates": [ 135.09949180000001, 34.2688035 ] } },
{ "type": "Feature", "properties": { "内容": "楠見第4デイサービスセンターすずらん【認知症対応型通所介護】楠見中26-1楠見第2介護センターすずらん　2階", "url": "https://www.kaigokensaku.mhlw.go.jp/30/index.php?action_kouhyou_detail_004_kani=true&JigyosyoCd=3090100631-00&ServiceCd=720&Type=search", "url2": null }, "geometry": { "type": "Point", "coordinates": [ 135.176479200000017, 34.2537425 ] } },
{ "type": "Feature", "properties": { "内容": "春風会きし【認知症対応型通所介護】和歌山市栄谷４６０番1", "url": "https://www.kaigokensaku.mhlw.go.jp/30/index.php?action_kouhyou_detail_004_kani=true&JigyosyoCd=3090100771-00&ServiceCd=720&Type=search", "url2": "http://harukazekai.jp/" }, "geometry": { "type": "Point", "coordinates": [ 135.161769926072679, 34.26061903309246 ] } },
{ "type": "Feature", "properties": { "内容": "春風会　わかのうら【認知症対応型通所介護】和歌山市和歌浦中１丁目１番１５号", "url": "https://www.kaigokensaku.mhlw.go.jp/30/index.php?action_kouhyou_detail_004_kani=true&JigyosyoCd=3090100896-00&ServiceCd=720&Type=search", "url2": "http://harukazekai.jp/" }, "geometry": { "type": "Point", "coordinates": [ 135.170097700000042, 34.1941516 ] } },
{ "type": "Feature", "properties": { "内容": "デイサービス　わかば【認知症対応型通所介護】和歌山県和歌山市有本140", "url": "https://www.kaigokensaku.mhlw.go.jp/30/index.php?action_kouhyou_detail_004_kani=true&JigyosyoCd=3090100839-00&ServiceCd=720&Type=search", "url2": "http://www.nijiwakaba.com/" }, "geometry": { "type": "Point", "coordinates": [ 135.196234272383094, 34.245301205059263 ] } },
{ "type": "Feature", "properties": { "内容": "デイサービスセンター・こころII【認知症対応型通所介護】和歌山県海南市下津町方2151番地", "url": "https://www.kaigokensaku.mhlw.go.jp/30/index.php?action_kouhyou_detail_004_kani=true&JigyosyoCd=3091400055-00&ServiceCd=720&Type=search", "url2": "http://cocolo4031.com" }, "geometry": { "type": "Point", "coordinates": [ 135.134862050926245, 34.126079299999965 ] } },
{ "type": "Feature", "properties": { "内容": "ライフパートナー東雲【認知症対応型通所介護】海南市小野田１６３３－１３", "url": "https://www.kaigokensaku.mhlw.go.jp/30/index.php?action_kouhyou_detail_004_kani=true&JigyosyoCd=3091400030-00&ServiceCd=720&Type=search", "url2": null }, "geometry": { "type": "Point", "coordinates": [ 135.2464281, 34.1605276 ] } },
{ "type": "Feature", "properties": { "内容": "デイサービスうらら【認知症対応型通所介護】和歌山県海南市鳥居1-1", "url": "https://www.kaigokensaku.mhlw.go.jp/30/index.php?action_kouhyou_detail_004_kani=true&JigyosyoCd=3091400105-00&ServiceCd=720&Type=search", "url2": "http://www.sakuraclinic.org/publics/index/36/" }, "geometry": { "type": "Point", "coordinates": [ 135.220026759964526, 34.153437243659127 ] } },
{ "type": "Feature", "properties": { "内容": "デイサービス幸楽の里【認知症対応型通所介護】橋本市隅田町山内1919-3", "url": "https://www.kaigokensaku.mhlw.go.jp/30/index.php?action_kouhyou_detail_004_kani=true&JigyosyoCd=3071000446-00&ServiceCd=720&Type=search", "url2": "http://keieikai.com" }, "geometry": { "type": "Point", "coordinates": [ 135.643308299999944, 34.3627196 ] } },
{ "type": "Feature", "properties": { "内容": "デイサービス幸楽の里【認知症対応型通所介護】橋本市隅田町山内1919-3", "url": "https://www.kaigokensaku.mhlw.go.jp/30/index.php?action_kouhyou_detail_004_kani=true&JigyosyoCd=3091000228-00&ServiceCd=720&Type=search", "url2": "http://keieikai.com" }, "geometry": { "type": "Point", "coordinates": [ 135.6433166, 34.3627195 ] } },
{ "type": "Feature", "properties": { "内容": "コミュニティケアキタデ　ゆうゆうⅠ【認知症対応型通所介護】薗98-3", "url": "https://www.kaigokensaku.mhlw.go.jp/30/index.php?action_kouhyou_detail_004_kani=true&JigyosyoCd=3092000094-00&ServiceCd=720&Type=search", "url2": "http://www.hck.jp" }, "geometry": { "type": "Point", "coordinates": [ 135.153341353967278, 33.896199436197875 ] } },
{ "type": "Feature", "properties": { "内容": "コミュニティケアキタデ　ゆうゆうⅡ【認知症対応型通所介護】薗98-3", "url": "https://www.kaigokensaku.mhlw.go.jp/30/index.php?action_kouhyou_detail_004_kani=true&JigyosyoCd=3092000102-00&ServiceCd=720&Type=search", "url2": "http://www.hck.jp" }, "geometry": { "type": "Point", "coordinates": [ 135.153350955819633, 33.896194723060994 ] } },
{ "type": "Feature", "properties": { "内容": "認知症対応型デイサービスあがら花まる【認知症対応型通所介護】御坊市藤田町藤井２１１８番地の６", "url": "https://www.kaigokensaku.mhlw.go.jp/30/index.php?action_kouhyou_detail_004_kani=true&JigyosyoCd=3092000011-00&ServiceCd=720&Type=search", "url2": "http://www.kikyokai.or.jp" }, "geometry": { "type": "Point", "coordinates": [ 135.173111699999936, 33.9059968 ] } },
{ "type": "Feature", "properties": { "内容": "田辺すみれホーム【認知症対応型通所介護】和歌山県田辺市新庄町田鶴1739-22", "url": "https://www.kaigokensaku.mhlw.go.jp/30/index.php?action_kouhyou_detail_004_kani=true&JigyosyoCd=3092200207-00&ServiceCd=720&Type=search", "url2": "http://tanabe-sumire-heim.jp/sumire-home/index.html" }, "geometry": { "type": "Point", "coordinates": [ 135.406738, 33.709175 ] } },
{ "type": "Feature", "properties": { "内容": "栄寿苑ファミリーデイサービス【認知症対応型通所介護】和歌山県紀の川市打田1481-2", "url": "https://www.kaigokensaku.mhlw.go.jp/30/index.php?action_kouhyou_detail_004_kani=true&JigyosyoCd=3091700033-00&ServiceCd=720&Type=search", "url2": "http://koueikai-nate.com/" }, "geometry": { "type": "Point", "coordinates": [ 135.462148800000023, 34.248245 ] } },
{ "type": "Feature", "properties": { "内容": "デイサービスセンターつつじ園【認知症対応型通所介護】和歌山県東牟婁郡那智勝浦町下里770番地", "url": "https://www.kaigokensaku.mhlw.go.jp/30/index.php?action_kouhyou_detail_004_kani=true&JigyosyoCd=3092500127-00&ServiceCd=720&Type=search", "url2": null }, "geometry": { "type": "Point", "coordinates": [ 135.929260600000021, 33.5835458 ] } }
]
}
