{
"type": "FeatureCollection",
"name": "geo_30_福祉用具貸与",
"crs": { "type": "name", "properties": { "name": "urn:ogc:def:crs:OGC:1.3:CRS84" } },
"features": [
{ "type": "Feature", "properties": { "内容": "アプリ株式会社　福祉用具事業部【福祉用具貸与】和歌山市有本４５８番地９", "url": "https://www.kaigokensaku.mhlw.go.jp/30/index.php?action_kouhyou_detail_004_kani=true&JigyosyoCd=3070106079-00&ServiceCd=170&Type=search", "url2": null }, "geometry": { "type": "Point", "coordinates": [ 135.19707219999998, 34.2509267 ] } },
{ "type": "Feature", "properties": { "内容": "介護用品ショップあすも【福祉用具貸与】和歌山市鳴神968-11", "url": "https://www.kaigokensaku.mhlw.go.jp/30/index.php?action_kouhyou_detail_004_kani=true&JigyosyoCd=3070108257-00&ServiceCd=170&Type=search", "url2": null }, "geometry": { "type": "Point", "coordinates": [ 135.209251818898792, 34.231131650825326 ] } },
{ "type": "Feature", "properties": { "内容": "ヤマヨ家具ランド貸与事業所【福祉用具貸与】毛見1437番地", "url": "https://www.kaigokensaku.mhlw.go.jp/30/index.php?action_kouhyou_detail_004_kani=true&JigyosyoCd=3070106137-00&ServiceCd=170&Type=search", "url2": "https://www.yamayo-taiyo.net" }, "geometry": { "type": "Point", "coordinates": [ 135.192682858752477, 34.159936487177482 ] } },
{ "type": "Feature", "properties": { "内容": "フランスベッド株式会社メディカル和歌山営業所【福祉用具貸与】和歌山県和歌山市舟津町三丁目22番地の2", "url": "https://www.kaigokensaku.mhlw.go.jp/30/index.php?action_kouhyou_detail_004_kani=true&JigyosyoCd=3070113687-00&ServiceCd=170&Type=search", "url2": "https://www.francebed.co.jp/" }, "geometry": { "type": "Point", "coordinates": [ 135.1587433, 34.2198488 ] } },
{ "type": "Feature", "properties": { "内容": "ともにケアレンタル【福祉用具貸与】和歌山県和歌山市加納２４６－１パルム加納２０２", "url": "https://www.kaigokensaku.mhlw.go.jp/30/index.php?action_kouhyou_detail_004_kani=true&JigyosyoCd=3070112028-00&ServiceCd=170&Type=search", "url2": null }, "geometry": { "type": "Point", "coordinates": [ 135.207065899999947, 34.2449887 ] } },
{ "type": "Feature", "properties": { "内容": "ライフケア　そよかぜ【福祉用具貸与】和歌山県和歌山市西高松１丁目２番２号　１F", "url": "https://www.kaigokensaku.mhlw.go.jp/30/index.php?action_kouhyou_detail_004_kani=true&JigyosyoCd=3070107697-00&ServiceCd=170&Type=search", "url2": "http://www.lifecare-soyokaze.jp/" }, "geometry": { "type": "Point", "coordinates": [ 135.172028502783064, 34.211791604492369 ] } },
{ "type": "Feature", "properties": { "内容": "株式会社グッドライフ【福祉用具貸与】和歌山県和歌山市内原876-1　ナグサ名店1F1号", "url": "https://www.kaigokensaku.mhlw.go.jp/30/index.php?action_kouhyou_detail_004_kani=true&JigyosyoCd=3070106194-00&ServiceCd=170&Type=search", "url2": null }, "geometry": { "type": "Point", "coordinates": [ 135.194029300000011, 34.1715829 ] } },
{ "type": "Feature", "properties": { "内容": "紀州車椅子サービス有限会社【福祉用具貸与】和歌山市木ノ本364-11", "url": "https://www.kaigokensaku.mhlw.go.jp/30/index.php?action_kouhyou_detail_004_kani=true&JigyosyoCd=3070101476-00&ServiceCd=170&Type=search", "url2": "mokks_w@yahoo.co.jp" }, "geometry": { "type": "Point", "coordinates": [ 135.129683405522542, 34.261030035147378 ] } },
{ "type": "Feature", "properties": { "内容": "くるー【福祉用具貸与】和歌山県和歌山市六十谷1295番地19", "url": "https://www.kaigokensaku.mhlw.go.jp/30/index.php?action_kouhyou_detail_004_kani=true&JigyosyoCd=3070114776-00&ServiceCd=170&Type=search", "url2": null }, "geometry": { "type": "Point", "coordinates": [ 135.2064115, 34.2706271 ] } },
{ "type": "Feature", "properties": { "内容": "株式会社スズキ自販和歌山　和歌山北営業所【福祉用具貸与】和歌山県和歌山市永穂277-4", "url": "https://www.kaigokensaku.mhlw.go.jp/30/index.php?action_kouhyou_detail_004_kani=true&JigyosyoCd=3070103266-00&ServiceCd=170&Type=search", "url2": "https://www.suzuki.co.jp/dealer/sj-wakayama/" }, "geometry": { "type": "Point", "coordinates": [ 135.245926, 34.2552413 ] } },
{ "type": "Feature", "properties": { "内容": "福祉用具ステーションStandup【福祉用具貸与】和歌山県和歌山市紀三井寺655-1コンフォート紀三井寺107号", "url": "https://www.kaigokensaku.mhlw.go.jp/30/index.php?action_kouhyou_detail_004_kani=true&JigyosyoCd=3070113745-00&ServiceCd=170&Type=search", "url2": "http://hp.kaipoke.biz/fb2/index.html" }, "geometry": { "type": "Point", "coordinates": [ 135.187262800000013, 34.182059700000018 ] } },
{ "type": "Feature", "properties": { "内容": "ケアサポートおまもり【福祉用具貸与】和歌山市紀三井寺516番1-201", "url": "https://www.kaigokensaku.mhlw.go.jp/30/index.php?action_kouhyou_detail_004_kani=true&JigyosyoCd=3070105469-00&ServiceCd=170&Type=search", "url2": "http://www.horinnosato.com" }, "geometry": { "type": "Point", "coordinates": [ 135.200482950926244, 34.167834266967411 ] } },
{ "type": "Feature", "properties": { "内容": "ノア株式会社【福祉用具貸与】中之島345番地16", "url": "https://www.kaigokensaku.mhlw.go.jp/30/index.php?action_kouhyou_detail_004_kani=true&JigyosyoCd=3070112895-00&ServiceCd=170&Type=search", "url2": null }, "geometry": { "type": "Point", "coordinates": [ 135.193442535529925, 34.243493137558886 ] } },
{ "type": "Feature", "properties": { "内容": "セントケアりまいん紀の川【福祉用具貸与】和歌山県和歌山市福島361-1サーパス福島　5号", "url": "https://www.kaigokensaku.mhlw.go.jp/30/index.php?action_kouhyou_detail_004_kani=true&JigyosyoCd=3070114446-00&ServiceCd=170&Type=search", "url2": null }, "geometry": { "type": "Point", "coordinates": [ 135.165466400000014, 34.2491436 ] } },
{ "type": "Feature", "properties": { "内容": "株式会社大東医療器【福祉用具貸与】和歌山県和歌山市太田２丁目７番７号", "url": "https://www.kaigokensaku.mhlw.go.jp/30/index.php?action_kouhyou_detail_004_kani=true&JigyosyoCd=3070101005-00&ServiceCd=170&Type=search", "url2": "http://www.bigeast-m.co.jp" }, "geometry": { "type": "Point", "coordinates": [ 135.194464599999947, 34.2302676 ] } },
{ "type": "Feature", "properties": { "内容": "アイコン【福祉用具貸与】和歌山市秋月１５５番地の１フォーレス乙井206号", "url": "https://www.kaigokensaku.mhlw.go.jp/30/index.php?action_kouhyou_detail_004_kani=true&JigyosyoCd=3070102573-00&ServiceCd=170&Type=search", "url2": null }, "geometry": { "type": "Point", "coordinates": [ 135.205994, 34.2337536 ] } },
{ "type": "Feature", "properties": { "内容": "川村義肢株式会社　和歌山営業所【福祉用具貸与】和歌山市手平1丁目5番25号", "url": "https://www.kaigokensaku.mhlw.go.jp/30/index.php?action_kouhyou_detail_004_kani=true&JigyosyoCd=3070101153-00&ServiceCd=170&Type=search", "url2": "http://www.kawamura-gishi.co.jp/" }, "geometry": { "type": "Point", "coordinates": [ 135.187596100000064, 34.21788 ] } },
{ "type": "Feature", "properties": { "内容": "あすか【福祉用具貸与】和歌山市新在家165-8", "url": "https://www.kaigokensaku.mhlw.go.jp/30/index.php?action_kouhyou_detail_004_kani=true&JigyosyoCd=3070107754-00&ServiceCd=170&Type=search", "url2": null }, "geometry": { "type": "Point", "coordinates": [ 135.192914500000029, 34.2355419 ] } },
{ "type": "Feature", "properties": { "内容": "トヨタCW和歌山ホールディングス【福祉用具貸与】和歌山県和歌山市和歌浦西１－１－７", "url": "https://www.kaigokensaku.mhlw.go.jp/30/index.php?action_kouhyou_detail_004_kani=true&JigyosyoCd=3070114644-00&ServiceCd=170&Type=search", "url2": "https://www.c-wakayama.co.jp" }, "geometry": { "type": "Point", "coordinates": [ 135.169471216943805, 34.198558365001993 ] } },
{ "type": "Feature", "properties": { "内容": "株式会社　ライフピース【福祉用具貸与】和歌山県和歌山市中之島１９０８", "url": "https://www.kaigokensaku.mhlw.go.jp/30/index.php?action_kouhyou_detail_004_kani=true&JigyosyoCd=3070106152-00&ServiceCd=170&Type=search", "url2": null }, "geometry": { "type": "Point", "coordinates": [ 135.182240299999989, 34.2402856 ] } },
{ "type": "Feature", "properties": { "内容": "株式会社丸昌ホットスペースポプラ【福祉用具貸与】和歌山市和田115", "url": "https://www.kaigokensaku.mhlw.go.jp/30/index.php?action_kouhyou_detail_004_kani=true&JigyosyoCd=3070100650-00&ServiceCd=170&Type=search", "url2": "http://www.marusho-net.com" }, "geometry": { "type": "Point", "coordinates": [ 135.213716400000067, 34.2014765 ] } },
{ "type": "Feature", "properties": { "内容": "介護の森【福祉用具貸与】和歌山市鳴神２４８－８", "url": "https://www.kaigokensaku.mhlw.go.jp/30/index.php?action_kouhyou_detail_004_kani=true&JigyosyoCd=3070107226-00&ServiceCd=170&Type=search", "url2": "http://medical-and-care.com" }, "geometry": { "type": "Point", "coordinates": [ 135.215435, 34.22711 ] } },
{ "type": "Feature", "properties": { "内容": "株式会社セリオ　和歌山営業所【福祉用具貸与】和歌山県和歌山市和歌浦東4丁目3-19", "url": "https://www.kaigokensaku.mhlw.go.jp/30/index.php?action_kouhyou_detail_004_kani=true&JigyosyoCd=3070103738-00&ServiceCd=170&Type=search", "url2": "http://serio888.net/" }, "geometry": { "type": "Point", "coordinates": [ 135.176482200000038, 34.18819460000001 ] } },
{ "type": "Feature", "properties": { "内容": "エバーラスティング【福祉用具貸与】和歌山市内原９８８－６", "url": "https://www.kaigokensaku.mhlw.go.jp/30/index.php?action_kouhyou_detail_004_kani=true&JigyosyoCd=3070107705-00&ServiceCd=170&Type=search", "url2": null }, "geometry": { "type": "Point", "coordinates": [ 135.189810369975248, 34.173233066723277 ] } },
{ "type": "Feature", "properties": { "内容": "一家団蘭レンタルケア【福祉用具貸与】新中島63-5陽光の郷わかやま内", "url": "https://www.kaigokensaku.mhlw.go.jp/30/index.php?action_kouhyou_detail_004_kani=true&JigyosyoCd=3070115187-00&ServiceCd=170&Type=search", "url2": null }, "geometry": { "type": "Point", "coordinates": [ 135.198471399999988, 34.2157844 ] } },
{ "type": "Feature", "properties": { "内容": "にこにこサポートいけだ【福祉用具貸与】和歌山県和歌山市有家２５０", "url": "https://www.kaigokensaku.mhlw.go.jp/30/index.php?action_kouhyou_detail_004_kani=true&JigyosyoCd=3070106889-00&ServiceCd=170&Type=search", "url2": null }, "geometry": { "type": "Point", "coordinates": [ 135.1968951, 34.2242322 ] } },
{ "type": "Feature", "properties": { "内容": "有限会社ウェルフェアー【福祉用具貸与】和歌山市津秦145", "url": "https://www.kaigokensaku.mhlw.go.jp/30/index.php?action_kouhyou_detail_004_kani=true&JigyosyoCd=3070100874-00&ServiceCd=170&Type=search", "url2": "http://www.e-welfare.net/" }, "geometry": { "type": "Point", "coordinates": [ 135.204741799999965, 34.2177497 ] } },
{ "type": "Feature", "properties": { "内容": "ヘルシーライフ【福祉用具貸与】和歌山市大谷119-3", "url": "https://www.kaigokensaku.mhlw.go.jp/30/index.php?action_kouhyou_detail_004_kani=true&JigyosyoCd=3070103290-00&ServiceCd=170&Type=search", "url2": "http://www.go-kenko.jp" }, "geometry": { "type": "Point", "coordinates": [ 135.177184500000067, 34.2584088 ] } },
{ "type": "Feature", "properties": { "内容": "有限会社　城東メディカルサービス【福祉用具貸与】和歌山市友田町３丁目２０番地", "url": "https://www.kaigokensaku.mhlw.go.jp/30/index.php?action_kouhyou_detail_004_kani=true&JigyosyoCd=3070102037-00&ServiceCd=170&Type=search", "url2": "https://tagami-joto.co.jp/" }, "geometry": { "type": "Point", "coordinates": [ 135.187220700000012, 34.2335142 ] } },
{ "type": "Feature", "properties": { "内容": "オレンジ【福祉用具貸与】和歌山市中之島７１０－３グランドハイツサンシャイン201号", "url": "https://www.kaigokensaku.mhlw.go.jp/30/index.php?action_kouhyou_detail_004_kani=true&JigyosyoCd=3070104736-00&ServiceCd=170&Type=search", "url2": null }, "geometry": { "type": "Point", "coordinates": [ 135.182683, 34.2415497 ] } },
{ "type": "Feature", "properties": { "内容": "スマイル・ステーション【福祉用具貸与】和歌山市大垣内564-3", "url": "https://www.kaigokensaku.mhlw.go.jp/30/index.php?action_kouhyou_detail_004_kani=true&JigyosyoCd=3070102656-00&ServiceCd=170&Type=search", "url2": null }, "geometry": { "type": "Point", "coordinates": [ 135.273854186508203, 34.246323453736551 ] } },
{ "type": "Feature", "properties": { "内容": "株式会社　フロントライフ【福祉用具貸与】土佐町1丁目45-3", "url": "https://www.kaigokensaku.mhlw.go.jp/30/index.php?action_kouhyou_detail_004_kani=true&JigyosyoCd=3070113299-00&ServiceCd=170&Type=search", "url2": null }, "geometry": { "type": "Point", "coordinates": [ 135.160446330281218, 34.223794581947182 ] } },
{ "type": "Feature", "properties": { "内容": "株式会社　大黒ヘルスケアサービス和歌山店【福祉用具貸与】和歌山市毛見1111-1", "url": "https://www.kaigokensaku.mhlw.go.jp/30/index.php?action_kouhyou_detail_004_kani=true&JigyosyoCd=3070100957-00&ServiceCd=170&Type=search", "url2": "httpｓ://daikoku-healthcare.co.jp" }, "geometry": { "type": "Point", "coordinates": [ 135.190118699999971, 34.1639865 ] } },
{ "type": "Feature", "properties": { "内容": "北水館【福祉用具貸与】和歌山県和歌山市北出島88-2", "url": "https://www.kaigokensaku.mhlw.go.jp/30/index.php?action_kouhyou_detail_004_kani=true&JigyosyoCd=3070113232-00&ServiceCd=170&Type=search", "url2": null }, "geometry": { "type": "Point", "coordinates": [ 135.192178778458043, 34.222168202459819 ] } },
{ "type": "Feature", "properties": { "内容": "有限会社　ダイケンハウジング　福祉事業部【福祉用具貸与】和歌山市三葛５２１　日之出建設本社ビル２Ｆ", "url": "https://www.kaigokensaku.mhlw.go.jp/30/index.php?action_kouhyou_detail_004_kani=true&JigyosyoCd=3070103357-00&ServiceCd=170&Type=search", "url2": null }, "geometry": { "type": "Point", "coordinates": [ 135.186267199999946, 34.2006978 ] } },
{ "type": "Feature", "properties": { "内容": "福祉用具ながのや【福祉用具貸与】和歌山県和歌山市中之島281-3", "url": "https://www.kaigokensaku.mhlw.go.jp/30/index.php?action_kouhyou_detail_004_kani=true&JigyosyoCd=3070110527-00&ServiceCd=170&Type=search", "url2": null }, "geometry": { "type": "Point", "coordinates": [ 135.195825671216681, 34.243199761015958 ] } },
{ "type": "Feature", "properties": { "内容": "有限会社　ナルデン【福祉用具貸与】和歌山市西浜1038-52", "url": "https://www.kaigokensaku.mhlw.go.jp/30/index.php?action_kouhyou_detail_004_kani=true&JigyosyoCd=3070101781-00&ServiceCd=170&Type=search", "url2": "http://www.naruden.com/" }, "geometry": { "type": "Point", "coordinates": [ 135.15878194500354, 34.193786634617929 ] } },
{ "type": "Feature", "properties": { "内容": "おたっしゃ俱楽部福祉用具【福祉用具貸与】和歌山県和歌山市直川565-7", "url": "https://www.kaigokensaku.mhlw.go.jp/30/index.php?action_kouhyou_detail_004_kani=true&JigyosyoCd=3070114230-00&ServiceCd=170&Type=search", "url2": "http://www.s-co-op.or.jp/" }, "geometry": { "type": "Point", "coordinates": [ 135.2193944, 34.2624607 ] } },
{ "type": "Feature", "properties": { "内容": "フィオーレ【福祉用具貸与】和歌山県和歌山市加納208番地12", "url": "https://www.kaigokensaku.mhlw.go.jp/30/index.php?action_kouhyou_detail_004_kani=true&JigyosyoCd=3070111251-00&ServiceCd=170&Type=search", "url2": "https://care-cosmos.com/item/" }, "geometry": { "type": "Point", "coordinates": [ 135.203515061515418, 34.245176066514141 ] } },
{ "type": "Feature", "properties": { "内容": "株式会社ヤマシタ和歌山営業所【福祉用具貸与】和歌山市府中２６－１", "url": "https://www.kaigokensaku.mhlw.go.jp/30/index.php?action_kouhyou_detail_004_kani=true&JigyosyoCd=3070100635-00&ServiceCd=170&Type=search", "url2": "https://www.yco.co.jp/" }, "geometry": { "type": "Point", "coordinates": [ 135.223849101636006, 34.264158434790438 ] } },
{ "type": "Feature", "properties": { "内容": "an【福祉用具貸与】和歌山県和歌山市有本555-8プランドールビル102号室", "url": "https://www.kaigokensaku.mhlw.go.jp/30/index.php?action_kouhyou_detail_004_kani=true&JigyosyoCd=3070114362-00&ServiceCd=170&Type=search", "url2": "https://bishin201309.co.jp/" }, "geometry": { "type": "Point", "coordinates": [ 135.1939669, 34.2487989 ] } },
{ "type": "Feature", "properties": { "内容": "福祉用具ウェイク【福祉用具貸与】和歌山市舟津町3丁目32-3パレ・ロワイヤル舟津1階", "url": "https://www.kaigokensaku.mhlw.go.jp/30/index.php?action_kouhyou_detail_004_kani=true&JigyosyoCd=3070102730-00&ServiceCd=170&Type=search", "url2": null }, "geometry": { "type": "Point", "coordinates": [ 135.159867399999939, 34.2194557 ] } },
{ "type": "Feature", "properties": { "内容": "有限会社アクト【福祉用具貸与】和歌山市中之島297-7", "url": "https://www.kaigokensaku.mhlw.go.jp/30/index.php?action_kouhyou_detail_004_kani=true&JigyosyoCd=3070100601-00&ServiceCd=170&Type=search", "url2": "http://www.act-r.co.jp/" }, "geometry": { "type": "Point", "coordinates": [ 135.194236400000023, 34.244455 ] } },
{ "type": "Feature", "properties": { "内容": "楠見ホ-ムケアすずらん【福祉用具貸与】和歌山市楠見中148-2楠見第3介護センターすずらん", "url": "https://www.kaigokensaku.mhlw.go.jp/30/index.php?action_kouhyou_detail_004_kani=true&JigyosyoCd=3070105071-00&ServiceCd=170&Type=search", "url2": null }, "geometry": { "type": "Point", "coordinates": [ 135.17598900530345, 34.254429315782303 ] } },
{ "type": "Feature", "properties": { "内容": "セイコーメディカル株式会社【福祉用具貸与】和歌山県和歌山市築港6丁目9番地の10", "url": "https://www.kaigokensaku.mhlw.go.jp/30/index.php?action_kouhyou_detail_004_kani=true&JigyosyoCd=3070106764-00&ServiceCd=170&Type=search", "url2": "http://www.skmnet.co.jp" }, "geometry": { "type": "Point", "coordinates": [ 135.150740300000052, 34.2197094 ] } },
{ "type": "Feature", "properties": { "内容": "株式会社OBM和歌山支店【福祉用具貸与】和歌山県和歌山市善明寺365-4", "url": "https://www.kaigokensaku.mhlw.go.jp/30/index.php?action_kouhyou_detail_004_kani=true&JigyosyoCd=3070113166-00&ServiceCd=170&Type=search", "url2": "http://o-b-m.co.jp/" }, "geometry": { "type": "Point", "coordinates": [ 135.1842739, 34.26069840000001 ] } },
{ "type": "Feature", "properties": { "内容": "株式会社きのくに福祉ｻｰﾋﾞｽ【福祉用具貸与】和歌山県和歌山市茶屋町33番地", "url": "https://www.kaigokensaku.mhlw.go.jp/30/index.php?action_kouhyou_detail_004_kani=true&JigyosyoCd=3070110261-00&ServiceCd=170&Type=search", "url2": null }, "geometry": { "type": "Point", "coordinates": [ 135.164328299999966, 34.2260505 ] } },
{ "type": "Feature", "properties": { "内容": "有限会社河西メディカルサービス　介護ショップパナサンブル【福祉用具貸与】和歌山市狐島266-4", "url": "https://www.kaigokensaku.mhlw.go.jp/30/index.php?action_kouhyou_detail_004_kani=true&JigyosyoCd=3070101484-00&ServiceCd=170&Type=search", "url2": "https://www.panasanburu.com" }, "geometry": { "type": "Point", "coordinates": [ 135.151151, 34.2429401 ] } },
{ "type": "Feature", "properties": { "内容": "ネクストライフ福祉用具【福祉用具貸与】和歌山市延時147-39", "url": "https://www.kaigokensaku.mhlw.go.jp/30/index.php?action_kouhyou_detail_004_kani=true&JigyosyoCd=3070113158-00&ServiceCd=170&Type=search", "url2": "http://www.ikoinosato-group.com/" }, "geometry": { "type": "Point", "coordinates": [ 135.146384, 34.252239 ] } },
{ "type": "Feature", "properties": { "内容": "ラポール【福祉用具貸与】和歌山県和歌山市有本６９２－３６", "url": "https://www.kaigokensaku.mhlw.go.jp/30/index.php?action_kouhyou_detail_004_kani=true&JigyosyoCd=3070111459-00&ServiceCd=170&Type=search", "url2": "http://www.rapport270515.co.jp/" }, "geometry": { "type": "Point", "coordinates": [ 135.188328500000011, 34.245577 ] } },
{ "type": "Feature", "properties": { "内容": "株式会社イサミ　和歌山営業所【福祉用具貸与】和歌山市東紺屋町10", "url": "https://www.kaigokensaku.mhlw.go.jp/30/index.php?action_kouhyou_detail_004_kani=true&JigyosyoCd=3070103308-00&ServiceCd=170&Type=search", "url2": "http://www.isamigo.com" }, "geometry": { "type": "Point", "coordinates": [ 135.180371400000013, 34.2287896 ] } },
{ "type": "Feature", "properties": { "内容": "株式会社ケイ・コーポレーション【福祉用具貸与】和歌山市関戸5丁目7-6", "url": "https://www.kaigokensaku.mhlw.go.jp/30/index.php?action_kouhyou_detail_004_kani=true&JigyosyoCd=3070102664-00&ServiceCd=170&Type=search", "url2": null }, "geometry": { "type": "Point", "coordinates": [ 135.159554600452793, 34.192206316331593 ] } },
{ "type": "Feature", "properties": { "内容": "介護ショップロコ【福祉用具貸与】和歌山市畑屋敷端ノ丁34番地1", "url": "https://www.kaigokensaku.mhlw.go.jp/30/index.php?action_kouhyou_detail_004_kani=true&JigyosyoCd=3070107135-00&ServiceCd=170&Type=search", "url2": null }, "geometry": { "type": "Point", "coordinates": [ 135.184356032441656, 34.236855873419891 ] } },
{ "type": "Feature", "properties": { "内容": "すまいるケアーサービス【福祉用具貸与】和歌山市吹上３丁目１‐６５", "url": "https://www.kaigokensaku.mhlw.go.jp/30/index.php?action_kouhyou_detail_004_kani=true&JigyosyoCd=3070101252-00&ServiceCd=170&Type=search", "url2": "https://komura-g.jp/smile/" }, "geometry": { "type": "Point", "coordinates": [ 135.171588886684162, 34.219681624900005 ] } },
{ "type": "Feature", "properties": { "内容": "ヒシヨシ【福祉用具貸与】和歌山県和歌山市雑賀町３４", "url": "https://www.kaigokensaku.mhlw.go.jp/30/index.php?action_kouhyou_detail_004_kani=true&JigyosyoCd=3070107945-00&ServiceCd=170&Type=search", "url2": "http://hp.kaipoke.biz/c3n/access.html" }, "geometry": { "type": "Point", "coordinates": [ 135.17680770000004, 34.2337694 ] } },
{ "type": "Feature", "properties": { "内容": "ケアサポートサイマン【福祉用具貸与】和歌山市宇治鉄砲場112-3", "url": "https://www.kaigokensaku.mhlw.go.jp/30/index.php?action_kouhyou_detail_004_kani=true&JigyosyoCd=3070105667-00&ServiceCd=170&Type=search", "url2": null }, "geometry": { "type": "Point", "coordinates": [ 135.175060300000041, 34.243024 ] } },
{ "type": "Feature", "properties": { "内容": "さぎのもり【福祉用具貸与】和歌山市鷺ノ森西ノ丁２５番地株式会社家具ノ谷沢内", "url": "https://www.kaigokensaku.mhlw.go.jp/30/index.php?action_kouhyou_detail_004_kani=true&JigyosyoCd=3070104959-00&ServiceCd=170&Type=search", "url2": "http://www.tanizawa.biz" }, "geometry": { "type": "Point", "coordinates": [ 135.170441500000038, 34.23583290000002 ] } },
{ "type": "Feature", "properties": { "内容": "福祉用具せんじゅ【福祉用具貸与】和歌山県和歌山市北島424番地2", "url": "https://www.kaigokensaku.mhlw.go.jp/30/index.php?action_kouhyou_detail_004_kani=true&JigyosyoCd=3070112788-00&ServiceCd=170&Type=search", "url2": null }, "geometry": { "type": "Point", "coordinates": [ 135.157227027261342, 34.240601428893847 ] } },
{ "type": "Feature", "properties": { "内容": "有限会社　ケアサービスわだ【福祉用具貸与】和歌山市和田200番地の7", "url": "https://www.kaigokensaku.mhlw.go.jp/30/index.php?action_kouhyou_detail_004_kani=true&JigyosyoCd=3070104389-00&ServiceCd=170&Type=search", "url2": null }, "geometry": { "type": "Point", "coordinates": [ 135.20982468596344, 34.201266439444062 ] } },
{ "type": "Feature", "properties": { "内容": "合同会社サンオリエント　介護ショップえいと【福祉用具貸与】太田4丁目5-13", "url": "https://www.kaigokensaku.mhlw.go.jp/30/index.php?action_kouhyou_detail_004_kani=true&JigyosyoCd=3070111749-00&ServiceCd=170&Type=search", "url2": null }, "geometry": { "type": "Point", "coordinates": [ 135.198282344859109, 34.229523700665794 ] } },
{ "type": "Feature", "properties": { "内容": "ダスキンヘルスレント和歌山ステーション【福祉用具貸与】和歌山市和歌浦東４－３－５", "url": "https://www.kaigokensaku.mhlw.go.jp/30/index.php?action_kouhyou_detail_004_kani=true&JigyosyoCd=3070100643-00&ServiceCd=170&Type=search", "url2": "https://www.dra-wakayama.jp/health/" }, "geometry": { "type": "Point", "coordinates": [ 135.1749567, 34.188619 ] } },
{ "type": "Feature", "properties": { "内容": "介護ショップリノ【福祉用具貸与】狐島49-1グリーンフル島本103号", "url": "https://www.kaigokensaku.mhlw.go.jp/30/index.php?action_kouhyou_detail_004_kani=true&JigyosyoCd=3070113703-00&ServiceCd=170&Type=search", "url2": null }, "geometry": { "type": "Point", "coordinates": [ 135.145869800000014, 34.2485752 ] } },
{ "type": "Feature", "properties": { "内容": "トータス介助ホーム合同会社【福祉用具貸与】中之島３８２番地３０1戸建", "url": "https://www.kaigokensaku.mhlw.go.jp/30/index.php?action_kouhyou_detail_004_kani=true&JigyosyoCd=3070112036-00&ServiceCd=170&Type=search", "url2": "https://www.facebook.com/kamezaq" }, "geometry": { "type": "Point", "coordinates": [ 135.19055144720781, 34.241952133957774 ] } },
{ "type": "Feature", "properties": { "内容": "有限会社　すばる【福祉用具貸与】和歌山県海南市船尾249-17", "url": "https://www.kaigokensaku.mhlw.go.jp/30/index.php?action_kouhyou_detail_004_kani=true&JigyosyoCd=3071400455-00&ServiceCd=170&Type=search", "url2": "http://www.keiyukai.com/main/subalu.html" }, "geometry": { "type": "Point", "coordinates": [ 135.200201200000038, 34.1590486 ] } },
{ "type": "Feature", "properties": { "内容": "オスカーケアセンター【福祉用具貸与】和歌山県海南市重根東1－11－7", "url": "https://www.kaigokensaku.mhlw.go.jp/30/index.php?action_kouhyou_detail_004_kani=true&JigyosyoCd=3071400521-00&ServiceCd=170&Type=search", "url2": null }, "geometry": { "type": "Point", "coordinates": [ 135.2494696, 34.1544201 ] } },
{ "type": "Feature", "properties": { "内容": "福祉用具　バジル【福祉用具貸与】重根１１２２－４", "url": "https://www.kaigokensaku.mhlw.go.jp/30/index.php?action_kouhyou_detail_004_kani=true&JigyosyoCd=3071401099-00&ServiceCd=170&Type=search", "url2": "http://ameblo.jp/basilfukusi/" }, "geometry": { "type": "Point", "coordinates": [ 135.255414875119556, 34.152750567530894 ] } },
{ "type": "Feature", "properties": { "内容": "大谷家具店福祉事業部【福祉用具貸与】橋本市隅田町河瀬433番地", "url": "https://www.kaigokensaku.mhlw.go.jp/30/index.php?action_kouhyou_detail_004_kani=true&JigyosyoCd=3071000826-00&ServiceCd=170&Type=search", "url2": null }, "geometry": { "type": "Point", "coordinates": [ 135.62845219999997, 34.3230855 ] } },
{ "type": "Feature", "properties": { "内容": "サンハート有限会社【福祉用具貸与】和歌山県橋本市吉原612番地", "url": "https://www.kaigokensaku.mhlw.go.jp/30/index.php?action_kouhyou_detail_004_kani=true&JigyosyoCd=3071000180-00&ServiceCd=170&Type=search", "url2": null }, "geometry": { "type": "Point", "coordinates": [ 135.573851800000057, 34.3244316 ] } },
{ "type": "Feature", "properties": { "内容": "株式会社　マリックス【福祉用具貸与】和歌山県橋本市高野口町伏原1048-1", "url": "https://www.kaigokensaku.mhlw.go.jp/30/index.php?action_kouhyou_detail_004_kani=true&JigyosyoCd=3071300184-00&ServiceCd=170&Type=search", "url2": "http://www.marix317.com" }, "geometry": { "type": "Point", "coordinates": [ 135.573349600000029, 34.3075641 ] } },
{ "type": "Feature", "properties": { "内容": "居宅介護サービス事業所　たんぽぽ【福祉用具貸与】和歌山県橋本市高野口町名古曽607-1", "url": "https://www.kaigokensaku.mhlw.go.jp/30/index.php?action_kouhyou_detail_004_kani=true&JigyosyoCd=3071300283-00&ServiceCd=170&Type=search", "url2": "http://www.kanefuku-tanpopo.com" }, "geometry": { "type": "Point", "coordinates": [ 135.564056100000016, 34.3030119 ] } },
{ "type": "Feature", "properties": { "内容": "ケアショップ　レインボー【福祉用具貸与】市脇１丁目33-9", "url": "https://www.kaigokensaku.mhlw.go.jp/30/index.php?action_kouhyou_detail_004_kani=true&JigyosyoCd=3071000875-00&ServiceCd=170&Type=search", "url2": "https://www.care-rainbow.jp/" }, "geometry": { "type": "Point", "coordinates": [ 135.60292979999997, 34.315272 ] } },
{ "type": "Feature", "properties": { "内容": "株式会社OBM【福祉用具貸与】和歌山県橋本市高野口町伏原53-6", "url": "https://www.kaigokensaku.mhlw.go.jp/30/index.php?action_kouhyou_detail_004_kani=true&JigyosyoCd=3071000834-00&ServiceCd=170&Type=search", "url2": "http://o-b-m.co.jp/" }, "geometry": { "type": "Point", "coordinates": [ 135.567980600000027, 34.307428 ] } },
{ "type": "Feature", "properties": { "内容": "富桝商行有限会社【福祉用具貸与】和歌山県橋本市胡麻生1008-1", "url": "https://www.kaigokensaku.mhlw.go.jp/30/index.php?action_kouhyou_detail_004_kani=true&JigyosyoCd=3071000214-00&ServiceCd=170&Type=search", "url2": null }, "geometry": { "type": "Point", "coordinates": [ 135.611788299089085, 34.340671708799469 ] } },
{ "type": "Feature", "properties": { "内容": "医療法人南労会　介護ショップ【福祉用具貸与】神野々1103", "url": "https://www.kaigokensaku.mhlw.go.jp/30/index.php?action_kouhyou_detail_004_kani=true&JigyosyoCd=3071001444-00&ServiceCd=170&Type=search", "url2": "http://www.nanroukai.or.jp" }, "geometry": { "type": "Point", "coordinates": [ 135.58172949643739, 34.3060122703709 ] } },
{ "type": "Feature", "properties": { "内容": "株式会社　喜集【福祉用具貸与】和歌山県有田市辻堂７７５", "url": "https://www.kaigokensaku.mhlw.go.jp/30/index.php?action_kouhyou_detail_004_kani=true&JigyosyoCd=3071500429-00&ServiceCd=170&Type=search", "url2": "yoshida_fa@yahoo,co,jp" }, "geometry": { "type": "Point", "coordinates": [ 135.143028299999969, 34.0757606 ] } },
{ "type": "Feature", "properties": { "内容": "エア・ウォーター西日本株式会社　愛らんど有田【福祉用具貸与】和歌山県有田市古江見51番地1", "url": "https://www.kaigokensaku.mhlw.go.jp/30/index.php?action_kouhyou_detail_004_kani=true&JigyosyoCd=3071601292-00&ServiceCd=170&Type=search", "url2": null }, "geometry": { "type": "Point", "coordinates": [ 135.123624521157154, 34.080931232023794 ] } },
{ "type": "Feature", "properties": { "内容": "ビーウェル【福祉用具貸与】和歌山県有田市千田５６２－３", "url": "https://www.kaigokensaku.mhlw.go.jp/30/index.php?action_kouhyou_detail_004_kani=true&JigyosyoCd=3071500692-00&ServiceCd=170&Type=search", "url2": null }, "geometry": { "type": "Point", "coordinates": [ 135.146547700000042, 34.0683839 ] } },
{ "type": "Feature", "properties": { "内容": "有限会社シマウメ【福祉用具貸与】有田市宮崎町５５７－２", "url": "https://www.kaigokensaku.mhlw.go.jp/30/index.php?action_kouhyou_detail_004_kani=true&JigyosyoCd=3071500312-00&ServiceCd=170&Type=search", "url2": null }, "geometry": { "type": "Point", "coordinates": [ 135.103840200000036, 34.0778564 ] } },
{ "type": "Feature", "properties": { "内容": "ヒューマンケアキタデ【福祉用具貸与】和歌山県御坊市湯川町財部728-4北出病院Ｃ棟１階", "url": "https://www.kaigokensaku.mhlw.go.jp/30/index.php?action_kouhyou_detail_004_kani=true&JigyosyoCd=3072000676-00&ServiceCd=170&Type=search", "url2": "http://www.hck.jp" }, "geometry": { "type": "Point", "coordinates": [ 135.155563275532586, 33.896970583857865 ] } },
{ "type": "Feature", "properties": { "内容": "有限会社　リフレＨＯＭＥシオジ【福祉用具貸与】和歌山県御坊市薗４３２番地の１", "url": "https://www.kaigokensaku.mhlw.go.jp/30/index.php?action_kouhyou_detail_004_kani=true&JigyosyoCd=3072000346-00&ServiceCd=170&Type=search", "url2": "https://refrehome-shioji.com" }, "geometry": { "type": "Point", "coordinates": [ 135.1516186, 33.8894565 ] } },
{ "type": "Feature", "properties": { "内容": "有限会社　和歌山ホームケアサービス【福祉用具貸与】和歌山県御坊市湯川町富安１８７２－１", "url": "https://www.kaigokensaku.mhlw.go.jp/30/index.php?action_kouhyou_detail_004_kani=true&JigyosyoCd=3072000130-00&ServiceCd=170&Type=search", "url2": "http://hp.kaipoke.biz/0w7" }, "geometry": { "type": "Point", "coordinates": [ 135.14849670000001, 33.9149035 ] } },
{ "type": "Feature", "properties": { "内容": "介護ショップゆうゆう【福祉用具貸与】和歌山県田辺市上屋敷三丁目一番29号", "url": "https://www.kaigokensaku.mhlw.go.jp/30/index.php?action_kouhyou_detail_004_kani=true&JigyosyoCd=3072201035-00&ServiceCd=170&Type=search", "url2": null }, "geometry": { "type": "Point", "coordinates": [ 135.374232200000051, 33.7309331 ] } },
{ "type": "Feature", "properties": { "内容": "株式会社大黒ヘルスケアサービス紀南店【福祉用具貸与】田辺市新庄町3778-2", "url": "https://www.kaigokensaku.mhlw.go.jp/30/index.php?action_kouhyou_detail_004_kani=true&JigyosyoCd=3072200136-00&ServiceCd=170&Type=search", "url2": null }, "geometry": { "type": "Point", "coordinates": [ 135.3856978, 33.6927794 ] } },
{ "type": "Feature", "properties": { "内容": "株式会社ヤマシタ田辺営業所【福祉用具貸与】和歌山県田辺市新庄町2915-328", "url": "https://www.kaigokensaku.mhlw.go.jp/30/index.php?action_kouhyou_detail_004_kani=true&JigyosyoCd=3072200052-00&ServiceCd=170&Type=search", "url2": "http://www.yco.co.jp" }, "geometry": { "type": "Point", "coordinates": [ 135.399833578006394, 33.707364050369833 ] } },
{ "type": "Feature", "properties": { "内容": "株式会社紀南酸素熔材店たいよう紀南【福祉用具貸与】和歌山県新宮市神倉2-9-8", "url": "https://www.kaigokensaku.mhlw.go.jp/30/index.php?action_kouhyou_detail_004_kani=true&JigyosyoCd=3072300654-00&ServiceCd=170&Type=search", "url2": null }, "geometry": { "type": "Point", "coordinates": [ 135.986966700000039, 33.7220106 ] } },
{ "type": "Feature", "properties": { "内容": "株式会社大黒ヘルスケアサービス新宮店【福祉用具貸与】和歌山県新宮市橋本２－５－６１", "url": "https://www.kaigokensaku.mhlw.go.jp/30/index.php?action_kouhyou_detail_004_kani=true&JigyosyoCd=3072300126-00&ServiceCd=170&Type=search", "url2": "https://daikoku-healthcare.co.jp/" }, "geometry": { "type": "Point", "coordinates": [ 135.988027699999947, 33.7168557 ] } },
{ "type": "Feature", "properties": { "内容": "株式会社佐田工作所【福祉用具貸与】和歌山県紀の川市藤崎371-1", "url": "https://www.kaigokensaku.mhlw.go.jp/30/index.php?action_kouhyou_detail_004_kani=true&JigyosyoCd=3071701068-00&ServiceCd=170&Type=search", "url2": null }, "geometry": { "type": "Point", "coordinates": [ 135.4238187, 34.2704631 ] } },
{ "type": "Feature", "properties": { "内容": "株式会社　おかい商店【福祉用具貸与】和歌山県紀の川市粉河517番地6", "url": "https://www.kaigokensaku.mhlw.go.jp/30/index.php?action_kouhyou_detail_004_kani=true&JigyosyoCd=3071201143-00&ServiceCd=170&Type=search", "url2": "http://okai-shoten.com/" }, "geometry": { "type": "Point", "coordinates": [ 135.4105561, 34.2687307 ] } },
{ "type": "Feature", "properties": { "内容": "ぴーち【福祉用具貸与】和歌山県紀の川市東大井321番地4", "url": "https://www.kaigokensaku.mhlw.go.jp/30/index.php?action_kouhyou_detail_004_kani=true&JigyosyoCd=3071700888-00&ServiceCd=170&Type=search", "url2": "https://peach-kinokawa.com/struct/wp-login.php" }, "geometry": { "type": "Point", "coordinates": [ 135.366301299999975, 34.2689989 ] } },
{ "type": "Feature", "properties": { "内容": "ホームヘルスケアサービス　日向　～ひなた～【福祉用具貸与】和歌山県紀の川市貴志川町尼寺186", "url": "https://www.kaigokensaku.mhlw.go.jp/30/index.php?action_kouhyou_detail_004_kani=true&JigyosyoCd=3071700318-00&ServiceCd=170&Type=search", "url2": null }, "geometry": { "type": "Point", "coordinates": [ 135.31251270000007, 34.2239843 ] } },
{ "type": "Feature", "properties": { "内容": "株式会社イサミ【福祉用具貸与】岩出市溝川２０１－１", "url": "https://www.kaigokensaku.mhlw.go.jp/30/index.php?action_kouhyou_detail_004_kani=true&JigyosyoCd=3071200194-00&ServiceCd=170&Type=search", "url2": "http://www.isamigo.com/" }, "geometry": { "type": "Point", "coordinates": [ 135.325079599999981, 34.2624886 ] } },
{ "type": "Feature", "properties": { "内容": "介護福祉用具ユーミィ【福祉用具貸与】和歌山県海草郡紀美野町動木102-1", "url": "https://www.kaigokensaku.mhlw.go.jp/30/index.php?action_kouhyou_detail_004_kani=true&JigyosyoCd=3071100451-00&ServiceCd=170&Type=search", "url2": null }, "geometry": { "type": "Point", "coordinates": [ 135.3065914, 34.1667735 ] } },
{ "type": "Feature", "properties": { "内容": "有限会社　小西医療器店【福祉用具貸与】有田郡湯浅町湯浅1755-7", "url": "https://www.kaigokensaku.mhlw.go.jp/30/index.php?action_kouhyou_detail_004_kani=true&JigyosyoCd=3071600237-00&ServiceCd=170&Type=search", "url2": null }, "geometry": { "type": "Point", "coordinates": [ 135.183074799999986, 34.0410446 ] } },
{ "type": "Feature", "properties": { "内容": "ケアセンターらん【福祉用具貸与】和歌山県有田郡有田川町水尻1184-2", "url": "https://www.kaigokensaku.mhlw.go.jp/30/index.php?action_kouhyou_detail_004_kani=true&JigyosyoCd=3071600591-00&ServiceCd=170&Type=search", "url2": null }, "geometry": { "type": "Point", "coordinates": [ 135.1992563, 34.0548767 ] } },
{ "type": "Feature", "properties": { "内容": "YGS福祉用具貸与・販売事業所【福祉用具貸与】和歌山県日高郡由良町中232番地8", "url": "https://www.kaigokensaku.mhlw.go.jp/30/index.php?action_kouhyou_detail_004_kani=true&JigyosyoCd=3072101193-00&ServiceCd=170&Type=search", "url2": null }, "geometry": { "type": "Point", "coordinates": [ 135.1380553, 33.973637 ] } },
{ "type": "Feature", "properties": { "内容": "株式会社　旭屋【福祉用具貸与】和歌山県日高郡日高川町皆瀬３２４", "url": "https://www.kaigokensaku.mhlw.go.jp/30/index.php?action_kouhyou_detail_004_kani=true&JigyosyoCd=3072100674-00&ServiceCd=170&Type=search", "url2": null }, "geometry": { "type": "Point", "coordinates": [ 135.364301899999987, 33.9825012 ] } },
{ "type": "Feature", "properties": { "内容": "セイコーメディカル株式会社紀南営業所【福祉用具貸与】和歌山県西牟婁郡上富田町朝来1995番地の3", "url": "https://www.kaigokensaku.mhlw.go.jp/30/index.php?action_kouhyou_detail_004_kani=true&JigyosyoCd=3072200839-00&ServiceCd=170&Type=search", "url2": "http://www.skmnet.co.jp/skl/" }, "geometry": { "type": "Point", "coordinates": [ 135.415252111351805, 33.703214771497152 ] } }
]
}
