{
"type": "FeatureCollection",
"name": "geo_30_訪問看護",
"crs": { "type": "name", "properties": { "name": "urn:ogc:def:crs:OGC:1.3:CRS84" } },
"features": [
{ "type": "Feature", "properties": { "内容": "訪問看護ステーションでいご【訪問看護】和歌山県和歌山市黒田34-1", "url": "https://www.kaigokensaku.mhlw.go.jp/30/index.php?action_kouhyou_detail_004_kani=true&JigyosyoCd=3062290204-00&ServiceCd=130&Type=search", "url2": "www.getounohana.jp" }, "geometry": { "type": "Point", "coordinates": [ 135.196418, 34.2348705 ] } },
{ "type": "Feature", "properties": { "内容": "訪問看護ステーション　きらら【訪問看護】和歌山県和歌山市本町４丁目３７藤井ビル２０２", "url": "https://www.kaigokensaku.mhlw.go.jp/30/index.php?action_kouhyou_detail_004_kani=true&JigyosyoCd=3060191263-00&ServiceCd=130&Type=search", "url2": null }, "geometry": { "type": "Point", "coordinates": [ 135.175210099999987, 34.23786370000002 ] } },
{ "type": "Feature", "properties": { "内容": "訪問看護ステーション　まぐねっと【訪問看護】和歌山県和歌山市布施屋792-1エル布施屋110号", "url": "https://www.kaigokensaku.mhlw.go.jp/30/index.php?action_kouhyou_detail_004_kani=true&JigyosyoCd=3060191289-00&ServiceCd=130&Type=search", "url2": "https://magnet-nursing.com/" }, "geometry": { "type": "Point", "coordinates": [ 135.2582308, 34.2452531 ] } },
{ "type": "Feature", "properties": { "内容": "訪問看護ステーションもも【訪問看護】坂田665番地5", "url": "https://www.kaigokensaku.mhlw.go.jp/30/index.php?action_kouhyou_detail_004_kani=true&JigyosyoCd=3060191149-00&ServiceCd=130&Type=search", "url2": null }, "geometry": { "type": "Point", "coordinates": [ 135.198739, 34.201375 ] } },
{ "type": "Feature", "properties": { "内容": "訪問看護ステーション優々【訪問看護】和歌山県和歌山市吉礼83-1リバーサイドⅤ102号室", "url": "https://www.kaigokensaku.mhlw.go.jp/30/index.php?action_kouhyou_detail_004_kani=true&JigyosyoCd=3060191214-00&ServiceCd=130&Type=search", "url2": "http://hp.kaipoke.biz/2ua/" }, "geometry": { "type": "Point", "coordinates": [ 135.239873234173587, 34.202502222531635 ] } },
{ "type": "Feature", "properties": { "内容": "訪問看護ステーションCOCO-CARE【訪問看護】和歌山市狐島691-18", "url": "https://www.kaigokensaku.mhlw.go.jp/30/index.php?action_kouhyou_detail_004_kani=true&JigyosyoCd=3060191420-00&ServiceCd=130&Type=search", "url2": null }, "geometry": { "type": "Point", "coordinates": [ 135.149533377909847, 34.241840242225855 ] } },
{ "type": "Feature", "properties": { "内容": "訪問看護ステーションはーとふる和歌山【訪問看護】福島700-1", "url": "https://www.kaigokensaku.mhlw.go.jp/30/index.php?action_kouhyou_detail_004_kani=true&JigyosyoCd=3060191412-00&ServiceCd=130&Type=search", "url2": "https://www.heartfulcare.com/royalhome/facility/wakayama/wakayama_01.html" }, "geometry": { "type": "Point", "coordinates": [ 135.160906, 34.24545 ] } },
{ "type": "Feature", "properties": { "内容": "医療法人あさかクリニック【訪問看護】和歌山市新庄465", "url": "https://www.kaigokensaku.mhlw.go.jp/30/index.php?action_kouhyou_detail_004_kani=true&JigyosyoCd=3010112708-00&ServiceCd=130&Type=search", "url2": "https://asaka-c.jp/" }, "geometry": { "type": "Point", "coordinates": [ 135.286104300000034, 34.245865 ] } },
{ "type": "Feature", "properties": { "内容": "医療法人　有紀会　さとう内科【訪問看護】太田667-6", "url": "https://www.kaigokensaku.mhlw.go.jp/30/index.php?action_kouhyou_detail_004_kani=true&JigyosyoCd=3010113300-00&ServiceCd=130&Type=search", "url2": null }, "geometry": { "type": "Point", "coordinates": [ 135.205291200000033, 34.2363616 ] } },
{ "type": "Feature", "properties": { "内容": "訪問看護ステーションみちラボ和歌山【訪問看護】鳴神1204-2アルコバレーノ1C", "url": "https://www.kaigokensaku.mhlw.go.jp/30/index.php?action_kouhyou_detail_004_kani=true&JigyosyoCd=3060191339-00&ServiceCd=130&Type=search", "url2": null }, "geometry": { "type": "Point", "coordinates": [ 135.2074941, 34.2275393 ] } },
{ "type": "Feature", "properties": { "内容": "田中内科医院【訪問看護】和歌山県和歌山市秋葉町7-28", "url": "https://www.kaigokensaku.mhlw.go.jp/30/index.php?action_kouhyou_detail_004_kani=true&JigyosyoCd=3010112534-00&ServiceCd=130&Type=search", "url2": null }, "geometry": { "type": "Point", "coordinates": [ 135.170692, 34.2023869 ] } },
{ "type": "Feature", "properties": { "内容": "訪問看護ステーション　デユーン和歌山【訪問看護】和歌山県和歌山市吉田305-3グレース吉田102号室", "url": "https://www.kaigokensaku.mhlw.go.jp/30/index.php?action_kouhyou_detail_004_kani=true&JigyosyoCd=3060190745-00&ServiceCd=130&Type=search", "url2": null }, "geometry": { "type": "Point", "coordinates": [ 135.1888668, 34.2373885 ] } },
{ "type": "Feature", "properties": { "内容": "医心館訪問看護ステーション和歌山【訪問看護】和歌山県和歌山市津秦223番１", "url": "https://www.kaigokensaku.mhlw.go.jp/30/index.php?action_kouhyou_detail_004_kani=true&JigyosyoCd=3060191578-00&ServiceCd=130&Type=search", "url2": null }, "geometry": { "type": "Point", "coordinates": [ 135.206898132951665, 34.219797092575789 ] } },
{ "type": "Feature", "properties": { "内容": "訪問看護ステーション　紀伊【訪問看護】北野117番地1高齢者総合ケアセンター紀伊", "url": "https://www.kaigokensaku.mhlw.go.jp/30/index.php?action_kouhyou_detail_004_kani=true&JigyosyoCd=3060190844-00&ServiceCd=130&Type=search", "url2": "http://www.kiseikai-w.or.jp" }, "geometry": { "type": "Point", "coordinates": [ 135.247765299999969, 34.2648297 ] } },
{ "type": "Feature", "properties": { "内容": "訪問看護ステーションコスモス【訪問看護】和歌山市塩屋6丁目2-70", "url": "https://www.kaigokensaku.mhlw.go.jp/30/index.php?action_kouhyou_detail_004_kani=true&JigyosyoCd=3060190067-00&ServiceCd=130&Type=search", "url2": "http://www.wachuohp.or.jp/cosmos/index.shtml" }, "geometry": { "type": "Point", "coordinates": [ 135.177811099999985, 34.1953268 ] } },
{ "type": "Feature", "properties": { "内容": "訪問看護ステーション　メンタルナース【訪問看護】和歌山県和歌山市神前488-4", "url": "https://www.kaigokensaku.mhlw.go.jp/30/index.php?action_kouhyou_detail_004_kani=true&JigyosyoCd=3060190778-00&ServiceCd=130&Type=search", "url2": null }, "geometry": { "type": "Point", "coordinates": [ 135.207504206329332, 34.2111648454636 ] } },
{ "type": "Feature", "properties": { "内容": "訪問看護ステーションフロムはーと【訪問看護】布施屋320-1", "url": "https://www.kaigokensaku.mhlw.go.jp/30/index.php?action_kouhyou_detail_004_kani=true&JigyosyoCd=3060190570-00&ServiceCd=130&Type=search", "url2": null }, "geometry": { "type": "Point", "coordinates": [ 135.267106977909862, 34.240157608480963 ] } },
{ "type": "Feature", "properties": { "内容": "ナースケアステーションルポ【訪問看護】西高松１丁目４－１９ＰＡＴＬＹビル", "url": "https://www.kaigokensaku.mhlw.go.jp/30/index.php?action_kouhyou_detail_004_kani=true&JigyosyoCd=3060191529-00&ServiceCd=130&Type=search", "url2": null }, "geometry": { "type": "Point", "coordinates": [ 135.1709447, 34.2100038 ] } },
{ "type": "Feature", "properties": { "内容": "プライマリーリハビリ訪問看護ステーション和歌山北【訪問看護】和歌山県和歌山市園部870-1", "url": "https://www.kaigokensaku.mhlw.go.jp/30/index.php?action_kouhyou_detail_004_kani=true&JigyosyoCd=3060191362-00&ServiceCd=130&Type=search", "url2": "https://primas.jp" }, "geometry": { "type": "Point", "coordinates": [ 135.194515400000029, 34.2627327 ] } },
{ "type": "Feature", "properties": { "内容": "クラシア訪問看護ステーション【訪問看護】和歌山市塩屋5丁目7番60号", "url": "https://www.kaigokensaku.mhlw.go.jp/30/index.php?action_kouhyou_detail_004_kani=true&JigyosyoCd=3060191222-00&ServiceCd=130&Type=search", "url2": "http://classia.biz/" }, "geometry": { "type": "Point", "coordinates": [ 135.177975665928813, 34.199283437319217 ] } },
{ "type": "Feature", "properties": { "内容": "幹在宅看護センター【訪問看護】冬野703-9", "url": "https://www.kaigokensaku.mhlw.go.jp/30/index.php?action_kouhyou_detail_004_kani=true&JigyosyoCd=3060191123-00&ServiceCd=130&Type=search", "url2": "https://miki-zaitaku.com/" }, "geometry": { "type": "Point", "coordinates": [ 135.21072430000001, 34.1910218 ] } },
{ "type": "Feature", "properties": { "内容": "訪問看護アン【訪問看護】和歌山県和歌山市鷹匠町１－５６－１", "url": "https://www.kaigokensaku.mhlw.go.jp/30/index.php?action_kouhyou_detail_004_kani=true&JigyosyoCd=3060191594-00&ServiceCd=130&Type=search", "url2": null }, "geometry": { "type": "Point", "coordinates": [ 135.1773373, 34.2233505 ] } },
{ "type": "Feature", "properties": { "内容": "医療法人須佐病院訪問看護ステーション【訪問看護】吹屋町4丁目30番地須佐病院内", "url": "https://www.kaigokensaku.mhlw.go.jp/30/index.php?action_kouhyou_detail_004_kani=true&JigyosyoCd=3060191370-00&ServiceCd=130&Type=search", "url2": "https://susa-hospital.com/" }, "geometry": { "type": "Point", "coordinates": [ 135.189673699999986, 34.2253018 ] } },
{ "type": "Feature", "properties": { "内容": "敬愛訪問看護ステーション和歌山【訪問看護】和歌山県和歌山市松島５５２－１", "url": "https://www.kaigokensaku.mhlw.go.jp/30/index.php?action_kouhyou_detail_004_kani=true&JigyosyoCd=3060190919-00&ServiceCd=130&Type=search", "url2": "http://hashizen.jp" }, "geometry": { "type": "Point", "coordinates": [ 135.210276, 34.2517502 ] } },
{ "type": "Feature", "properties": { "内容": "訪問看護ステーション　ハッピーライフ【訪問看護】和歌山県和歌山市金谷206-6", "url": "https://www.kaigokensaku.mhlw.go.jp/30/index.php?action_kouhyou_detail_004_kani=true&JigyosyoCd=3060190356-00&ServiceCd=130&Type=search", "url2": null }, "geometry": { "type": "Point", "coordinates": [ 135.276219099999906, 34.2393597 ] } },
{ "type": "Feature", "properties": { "内容": "訪問看護ステーションCH和歌山【訪問看護】和歌山県和歌山市元寺町3-21", "url": "https://www.kaigokensaku.mhlw.go.jp/30/index.php?action_kouhyou_detail_004_kani=true&JigyosyoCd=3060191669-00&ServiceCd=130&Type=search", "url2": "https://c-human.co.jp/" }, "geometry": { "type": "Point", "coordinates": [ 135.1771569, 34.2372584 ] } },
{ "type": "Feature", "properties": { "内容": "訪問看護ステーション蒲輪の里【訪問看護】和歌山県和歌山市紀三井寺516番1-202", "url": "https://www.kaigokensaku.mhlw.go.jp/30/index.php?action_kouhyou_detail_004_kani=true&JigyosyoCd=3060191099-00&ServiceCd=130&Type=search", "url2": "https://www.horinnosato.com" }, "geometry": { "type": "Point", "coordinates": [ 135.188206889902631, 34.175987632858089 ] } },
{ "type": "Feature", "properties": { "内容": "訪問看護ステーション　ナンバーワン【訪問看護】和歌山県和歌山市野崎62-1", "url": "https://www.kaigokensaku.mhlw.go.jp/30/index.php?action_kouhyou_detail_004_kani=true&JigyosyoCd=3060191073-00&ServiceCd=130&Type=search", "url2": null }, "geometry": { "type": "Point", "coordinates": [ 135.1554784, 34.2421829 ] } },
{ "type": "Feature", "properties": { "内容": "アクア和歌山訪問看護【訪問看護】和歌山市栄谷431番地1", "url": "https://www.kaigokensaku.mhlw.go.jp/30/index.php?action_kouhyou_detail_004_kani=true&JigyosyoCd=3060191636-00&ServiceCd=130&Type=search", "url2": null }, "geometry": { "type": "Point", "coordinates": [ 135.162402899999989, 34.2591928 ] } },
{ "type": "Feature", "properties": { "内容": "訪問看護リハビリ　手to手【訪問看護】和歌山県和歌山市狐島600-1シマハイツ105号", "url": "https://www.kaigokensaku.mhlw.go.jp/30/index.php?action_kouhyou_detail_004_kani=true&JigyosyoCd=3060191321-00&ServiceCd=130&Type=search", "url2": "https://houkan-riha-tetote.com/" }, "geometry": { "type": "Point", "coordinates": [ 135.1567421, 34.247965600000015 ] } },
{ "type": "Feature", "properties": { "内容": "えめ訪問看護ステーション和歌山【訪問看護】中之島１４９６2-A", "url": "https://www.kaigokensaku.mhlw.go.jp/30/index.php?action_kouhyou_detail_004_kani=true&JigyosyoCd=3060191701-00&ServiceCd=130&Type=search", "url2": null }, "geometry": { "type": "Point", "coordinates": [ 135.186694453826021, 34.238882516205997 ] } },
{ "type": "Feature", "properties": { "内容": "株式会社かつらケアサービス【訪問看護】和歌山県和歌山市西小二里3丁目4番13号", "url": "https://www.kaigokensaku.mhlw.go.jp/30/index.php?action_kouhyou_detail_004_kani=true&JigyosyoCd=3060191065-00&ServiceCd=130&Type=search", "url2": null }, "geometry": { "type": "Point", "coordinates": [ 135.16259070000001, 34.2081422 ] } },
{ "type": "Feature", "properties": { "内容": "なないろ訪問看護ステーション【訪問看護】和歌山県和歌山市布施屋５５７ー１７", "url": "https://www.kaigokensaku.mhlw.go.jp/30/index.php?action_kouhyou_detail_004_kani=true&JigyosyoCd=3060190679-00&ServiceCd=130&Type=search", "url2": "https://colors7716.com/" }, "geometry": { "type": "Point", "coordinates": [ 135.262912352621612, 34.24608331616929 ] } },
{ "type": "Feature", "properties": { "内容": "訪問看護ステーション禅【訪問看護】和歌山県和歌山市善明寺281番地1", "url": "https://www.kaigokensaku.mhlw.go.jp/30/index.php?action_kouhyou_detail_004_kani=true&JigyosyoCd=3060191537-00&ServiceCd=130&Type=search", "url2": null }, "geometry": { "type": "Point", "coordinates": [ 135.187450490213024, 34.260582213110418 ] } },
{ "type": "Feature", "properties": { "内容": "マロウ訪問看護ステーション【訪問看護】和歌山県和歌山市松江北5丁目566-31", "url": "https://www.kaigokensaku.mhlw.go.jp/30/index.php?action_kouhyou_detail_004_kani=true&JigyosyoCd=3060191388-00&ServiceCd=130&Type=search", "url2": null }, "geometry": { "type": "Point", "coordinates": [ 135.12954577008361, 34.249982865706791 ] } },
{ "type": "Feature", "properties": { "内容": "ふく訪問看護ステーション宮前【訪問看護】和歌山県和歌山市杭ノ瀬74-1-102", "url": "https://www.kaigokensaku.mhlw.go.jp/30/index.php?action_kouhyou_detail_004_kani=true&JigyosyoCd=3060191776-00&ServiceCd=130&Type=search", "url2": null }, "geometry": { "type": "Point", "coordinates": [ 135.194219004229694, 34.21271119410634 ] } },
{ "type": "Feature", "properties": { "内容": "訪問看護ステーションひかり和歌山北【訪問看護】和歌山県和歌山市北島ｺﾝﾌﾟﾗﾍﾞﾙﾃﾞⅡ1-C号", "url": "https://www.kaigokensaku.mhlw.go.jp/30/index.php?action_kouhyou_detail_004_kani=true&JigyosyoCd=3060191610-00&ServiceCd=130&Type=search", "url2": null }, "geometry": { "type": "Point", "coordinates": [ 135.163964499999963, 34.2461004 ] } },
{ "type": "Feature", "properties": { "内容": "いのうえケアセンター訪問看護【訪問看護】和歌山県和歌山市湊通丁北４丁目２３番地通り丁ハイツ２０１", "url": "https://www.kaigokensaku.mhlw.go.jp/30/index.php?action_kouhyou_detail_004_kani=true&JigyosyoCd=3060190687-00&ServiceCd=130&Type=search", "url2": null }, "geometry": { "type": "Point", "coordinates": [ 135.163335599502261, 34.223297373927835 ] } },
{ "type": "Feature", "properties": { "内容": "訪問看護ステーションMANO（マーノ）【訪問看護】和歌山県和歌山市坂田561-18", "url": "https://www.kaigokensaku.mhlw.go.jp/30/index.php?action_kouhyou_detail_004_kani=true&JigyosyoCd=3060190794-00&ServiceCd=130&Type=search", "url2": null }, "geometry": { "type": "Point", "coordinates": [ 135.199058181441501, 34.199253447029918 ] } },
{ "type": "Feature", "properties": { "内容": "訪問看護つばさ【訪問看護】木ノ本２５７－１３ル・シャンテ木ノ本１０３号室", "url": "https://www.kaigokensaku.mhlw.go.jp/30/index.php?action_kouhyou_detail_004_kani=true&JigyosyoCd=3060190554-00&ServiceCd=130&Type=search", "url2": "cfggv502@jtw.zaq.ne.jp" }, "geometry": { "type": "Point", "coordinates": [ 135.12632259999998, 34.2612896 ] } },
{ "type": "Feature", "properties": { "内容": "訪問看護ステーションたかまつ【訪問看護】和歌山市西高松１－５－３６", "url": "https://www.kaigokensaku.mhlw.go.jp/30/index.php?action_kouhyou_detail_004_kani=true&JigyosyoCd=3060190125-00&ServiceCd=130&Type=search", "url2": null }, "geometry": { "type": "Point", "coordinates": [ 135.171303, 34.2081112 ] } },
{ "type": "Feature", "properties": { "内容": "いこいの訪問看護ステーション【訪問看護】和歌山県和歌山市栄谷741-7", "url": "https://www.kaigokensaku.mhlw.go.jp/30/index.php?action_kouhyou_detail_004_kani=true&JigyosyoCd=3060191180-00&ServiceCd=130&Type=search", "url2": "https://ikoinohoumon.jimdosite.com" }, "geometry": { "type": "Point", "coordinates": [ 135.155078321587467, 34.259857082163578 ] } },
{ "type": "Feature", "properties": { "内容": "訪問看護ステーション「西和歌山」【訪問看護】和歌山市土入１７６番地", "url": "https://www.kaigokensaku.mhlw.go.jp/30/index.php?action_kouhyou_detail_004_kani=true&JigyosyoCd=3060190109-00&ServiceCd=130&Type=search", "url2": "http://wwwnishiwaka.or.jp" }, "geometry": { "type": "Point", "coordinates": [ 135.140248400000019, 34.2530556 ] } },
{ "type": "Feature", "properties": { "内容": "訪問看護ステーション心晴【訪問看護】和歌山県和歌山市鳴神13ー29朝日プラザ611朝日プラザ611", "url": "https://www.kaigokensaku.mhlw.go.jp/30/index.php?action_kouhyou_detail_004_kani=true&JigyosyoCd=3060190448-00&ServiceCd=130&Type=search", "url2": null }, "geometry": { "type": "Point", "coordinates": [ 135.2086567, 34.2255804 ] } },
{ "type": "Feature", "properties": { "内容": "訪問看護ステーション家路【訪問看護】永穂339-4", "url": "https://www.kaigokensaku.mhlw.go.jp/30/index.php?action_kouhyou_detail_004_kani=true&JigyosyoCd=3060191743-00&ServiceCd=130&Type=search", "url2": "https://www.houkan-ieji-caeru.com/" }, "geometry": { "type": "Point", "coordinates": [ 135.246903455819677, 34.258453972207015 ] } },
{ "type": "Feature", "properties": { "内容": "訪問看護ステーション向日葵【訪問看護】新中島63-5", "url": "https://www.kaigokensaku.mhlw.go.jp/30/index.php?action_kouhyou_detail_004_kani=true&JigyosyoCd=3060191750-00&ServiceCd=130&Type=search", "url2": "https://liglux.jp/company-info/" }, "geometry": { "type": "Point", "coordinates": [ 135.198471399999988, 34.2157844 ] } },
{ "type": "Feature", "properties": { "内容": "訪問看護ステーションなごみ【訪問看護】和歌山県和歌山市松江東２丁目１番７２号", "url": "https://www.kaigokensaku.mhlw.go.jp/30/index.php?action_kouhyou_detail_004_kani=true&JigyosyoCd=3060191057-00&ServiceCd=130&Type=search", "url2": null }, "geometry": { "type": "Point", "coordinates": [ 135.13802002076315, 34.244443834950353 ] } },
{ "type": "Feature", "properties": { "内容": "あんど訪問看護【訪問看護】和歌山県和歌山市吉礼83-1リバーサイドV102号室", "url": "https://www.kaigokensaku.mhlw.go.jp/30/index.php?action_kouhyou_detail_004_kani=true&JigyosyoCd=3060191495-00&ServiceCd=130&Type=search", "url2": "http://kaipoke.biz/94x/" }, "geometry": { "type": "Point", "coordinates": [ 135.2398627, 34.2024771 ] } },
{ "type": "Feature", "properties": { "内容": "訪問看護ステーションはやしもと【訪問看護】和歌山市小松原5丁目1-4", "url": "https://www.kaigokensaku.mhlw.go.jp/30/index.php?action_kouhyou_detail_004_kani=true&JigyosyoCd=3060190422-00&ServiceCd=130&Type=search", "url2": "http://getwell-home.com/" }, "geometry": { "type": "Point", "coordinates": [ 135.169241419931069, 34.218791718857759 ] } },
{ "type": "Feature", "properties": { "内容": "セントケア　訪問看護ステーション城北【訪問看護】和歌山県和歌山市東布経丁3丁目6番地", "url": "https://www.kaigokensaku.mhlw.go.jp/30/index.php?action_kouhyou_detail_004_kani=true&JigyosyoCd=3060190513-00&ServiceCd=130&Type=search", "url2": "https://www.saint-care.com/" }, "geometry": { "type": "Point", "coordinates": [ 135.171816300000046, 34.239407600000014 ] } },
{ "type": "Feature", "properties": { "内容": "訪問看護ステーションエスポワール【訪問看護】和歌山市f船所30－1", "url": "https://www.kaigokensaku.mhlw.go.jp/30/index.php?action_kouhyou_detail_004_kani=true&JigyosyoCd=3060190034-00&ServiceCd=130&Type=search", "url2": "http://www.nakae.or.jp/contents/espo/index.html" }, "geometry": { "type": "Point", "coordinates": [ 135.180639228311179, 34.254207915631966 ] } },
{ "type": "Feature", "properties": { "内容": "老人訪問看護ステーションかまやま【訪問看護】和歌山市和田350", "url": "https://www.kaigokensaku.mhlw.go.jp/30/index.php?action_kouhyou_detail_004_kani=true&JigyosyoCd=3060190018-00&ServiceCd=130&Type=search", "url2": "http://www.inada-med.or.jp" }, "geometry": { "type": "Point", "coordinates": [ 135.205906, 34.2008988 ] } },
{ "type": "Feature", "properties": { "内容": "訪問看護ステーションＡＣＣＯＲＤ【訪問看護】和歌山県和歌山市南出島６８番地２", "url": "https://www.kaigokensaku.mhlw.go.jp/30/index.php?action_kouhyou_detail_004_kani=true&JigyosyoCd=3060191396-00&ServiceCd=130&Type=search", "url2": null }, "geometry": { "type": "Point", "coordinates": [ 135.194074699999987, 34.2188258 ] } },
{ "type": "Feature", "properties": { "内容": "あかり訪問看護【訪問看護】和歌山県和歌山市有本481-3", "url": "https://www.kaigokensaku.mhlw.go.jp/30/index.php?action_kouhyou_detail_004_kani=true&JigyosyoCd=3060191313-00&ServiceCd=130&Type=search", "url2": "https://akarihome.com/" }, "geometry": { "type": "Point", "coordinates": [ 135.194752960713203, 34.250794193736866 ] } },
{ "type": "Feature", "properties": { "内容": "訪問看護ステーションひより【訪問看護】和歌山県和歌山市粟128-6", "url": "https://www.kaigokensaku.mhlw.go.jp/30/index.php?action_kouhyou_detail_004_kani=true&JigyosyoCd=3060191586-00&ServiceCd=130&Type=search", "url2": "https://www.sowan-lien.net/" }, "geometry": { "type": "Point", "coordinates": [ 135.173032922760683, 34.249587392676858 ] } },
{ "type": "Feature", "properties": { "内容": "訪問看護オアシス【訪問看護】和歌山市つつじが丘2丁目6-1なし", "url": "https://www.kaigokensaku.mhlw.go.jp/30/index.php?action_kouhyou_detail_004_kani=true&JigyosyoCd=3060190430-00&ServiceCd=130&Type=search", "url2": "なし" }, "geometry": { "type": "Point", "coordinates": [ 135.09949180000001, 34.2688035 ] } },
{ "type": "Feature", "properties": { "内容": "紀州リハビリケア訪問看護ステーション【訪問看護】和歌山市冬野1335-1", "url": "https://www.kaigokensaku.mhlw.go.jp/30/index.php?action_kouhyou_detail_004_kani=true&JigyosyoCd=3060190729-00&ServiceCd=130&Type=search", "url2": "http://www.kisyuuriha.com/" }, "geometry": { "type": "Point", "coordinates": [ 135.211507593917872, 34.176910490349378 ] } },
{ "type": "Feature", "properties": { "内容": "訪問看護ステーション　彩【訪問看護】和歌山県和歌山市鳴神870-1", "url": "https://www.kaigokensaku.mhlw.go.jp/30/index.php?action_kouhyou_detail_004_kani=true&JigyosyoCd=3060190992-00&ServiceCd=130&Type=search", "url2": null }, "geometry": { "type": "Point", "coordinates": [ 135.209567225131224, 34.236532880335282 ] } },
{ "type": "Feature", "properties": { "内容": "まつい訪問看護ステーション【訪問看護】和歌山県和歌山市砂山南四丁目1番37号", "url": "https://www.kaigokensaku.mhlw.go.jp/30/index.php?action_kouhyou_detail_004_kani=true&JigyosyoCd=3060190398-00&ServiceCd=130&Type=search", "url2": "http://matsui-houmonkango.co.jp/" }, "geometry": { "type": "Point", "coordinates": [ 135.159764799999948, 34.2166015 ] } },
{ "type": "Feature", "properties": { "内容": "あきば訪問看護ステーション【訪問看護】和歌山県和歌山市塩屋3丁目6番2号", "url": "https://www.kaigokensaku.mhlw.go.jp/30/index.php?action_kouhyou_detail_004_kani=true&JigyosyoCd=3060191768-00&ServiceCd=130&Type=search", "url2": "http://www.fujitami.jp" }, "geometry": { "type": "Point", "coordinates": [ 135.1759695, 34.1978166 ] } },
{ "type": "Feature", "properties": { "内容": "訪問看護ステーションなごみ【訪問看護】和歌山県和歌山市布施屋603-1ベルハウス布施屋Ⅱ205号室", "url": "https://www.kaigokensaku.mhlw.go.jp/30/index.php?action_kouhyou_detail_004_kani=true&JigyosyoCd=3060191255-00&ServiceCd=130&Type=search", "url2": "https//mcw-houmon.com" }, "geometry": { "type": "Point", "coordinates": [ 135.2633476, 34.246068 ] } },
{ "type": "Feature", "properties": { "内容": "ほうもんかんごあすなろ【訪問看護】和歌山市久保丁2丁目32", "url": "https://www.kaigokensaku.mhlw.go.jp/30/index.php?action_kouhyou_detail_004_kani=true&JigyosyoCd=3060191438-00&ServiceCd=130&Type=search", "url2": null }, "geometry": { "type": "Point", "coordinates": [ 135.166178949300587, 34.231132685970415 ] } },
{ "type": "Feature", "properties": { "内容": "そうわケアサービス【訪問看護】和歌山県和歌山市広瀬通丁3丁目１３－２コスモ広瀬２０１号", "url": "https://www.kaigokensaku.mhlw.go.jp/30/index.php?action_kouhyou_detail_004_kani=true&JigyosyoCd=3060190737-00&ServiceCd=130&Type=search", "url2": "http://www.souwacare.org/" }, "geometry": { "type": "Point", "coordinates": [ 135.182918400000062, 34.2267343 ] } },
{ "type": "Feature", "properties": { "内容": "訪問看護ステーションあした【訪問看護】和歌山県和歌山市榎原204-10ストリームビル１階", "url": "https://www.kaigokensaku.mhlw.go.jp/30/index.php?action_kouhyou_detail_004_kani=true&JigyosyoCd=3060191404-00&ServiceCd=130&Type=search", "url2": null }, "geometry": { "type": "Point", "coordinates": [ 135.125650758264101, 34.254559071595246 ] } },
{ "type": "Feature", "properties": { "内容": "訪問看護ステーションこだま【訪問看護】和歌山県和歌山市友田町4丁目130番地", "url": "https://www.kaigokensaku.mhlw.go.jp/30/index.php?action_kouhyou_detail_004_kani=true&JigyosyoCd=3060191156-00&ServiceCd=130&Type=search", "url2": "https://www.hakubunkai.com" }, "geometry": { "type": "Point", "coordinates": [ 135.188963543655404, 34.233329011410675 ] } },
{ "type": "Feature", "properties": { "内容": "訪問看護ステーション福慈会【訪問看護】和歌山県和歌山市和歌浦東3丁目5番29", "url": "https://www.kaigokensaku.mhlw.go.jp/30/index.php?action_kouhyou_detail_004_kani=true&JigyosyoCd=3060190646-00&ServiceCd=130&Type=search", "url2": "http://www.fukugeka.jp/" }, "geometry": { "type": "Point", "coordinates": [ 138.252924, 36.204824 ] } },
{ "type": "Feature", "properties": { "内容": "訪問看護ステーションHARE【訪問看護】和歌山県和歌山市善明寺415", "url": "https://www.kaigokensaku.mhlw.go.jp/30/index.php?action_kouhyou_detail_004_kani=true&JigyosyoCd=3060191131-00&ServiceCd=130&Type=search", "url2": null }, "geometry": { "type": "Point", "coordinates": [ 135.1830304, 34.261723 ] } },
{ "type": "Feature", "properties": { "内容": "訪問看護ステーションこむすび【訪問看護】榎原250-3", "url": "https://www.kaigokensaku.mhlw.go.jp/30/index.php?action_kouhyou_detail_004_kani=true&JigyosyoCd=3060190885-00&ServiceCd=130&Type=search", "url2": "https://carna8.co.jp/visit" }, "geometry": { "type": "Point", "coordinates": [ 135.126633099999907, 34.2561687 ] } },
{ "type": "Feature", "properties": { "内容": "訪問看護ステーション　龍木堂【訪問看護】和歌山市古屋215-1IM八幡前T102", "url": "https://www.kaigokensaku.mhlw.go.jp/30/index.php?action_kouhyou_detail_004_kani=true&JigyosyoCd=3060191446-00&ServiceCd=130&Type=search", "url2": "http://hp.kaipoke.biz/pkz/" }, "geometry": { "type": "Point", "coordinates": [ 135.1234658, 34.2526346 ] } },
{ "type": "Feature", "properties": { "内容": "訪問看護ステーション　みやがわ【訪問看護】布施屋828番地の16メープル・フレア101号室", "url": "https://www.kaigokensaku.mhlw.go.jp/30/index.php?action_kouhyou_detail_004_kani=true&JigyosyoCd=3060190596-00&ServiceCd=130&Type=search", "url2": null }, "geometry": { "type": "Point", "coordinates": [ 135.2571567, 34.2451839 ] } },
{ "type": "Feature", "properties": { "内容": "訪問看護ステーションみどり【訪問看護】和歌山県和歌山市三葛265-1セジュール三葛205号", "url": "https://www.kaigokensaku.mhlw.go.jp/30/index.php?action_kouhyou_detail_004_kani=true&JigyosyoCd=3060191461-00&ServiceCd=130&Type=search", "url2": null }, "geometry": { "type": "Point", "coordinates": [ 135.1844372, 34.1901121 ] } },
{ "type": "Feature", "properties": { "内容": "楠見訪問看護ステーションすずらん【訪問看護】和歌山県和歌山市楠見中296-4", "url": "https://www.kaigokensaku.mhlw.go.jp/30/index.php?action_kouhyou_detail_004_kani=true&JigyosyoCd=3060191024-00&ServiceCd=130&Type=search", "url2": "https://wakayama-suzuran.amebaownd.com/" }, "geometry": { "type": "Point", "coordinates": [ 135.175414957416081, 34.257288220128274 ] } },
{ "type": "Feature", "properties": { "内容": "訪問看護ステーションせれん【訪問看護】和歌山県和歌山市湊2丁目15-13", "url": "https://www.kaigokensaku.mhlw.go.jp/30/index.php?action_kouhyou_detail_004_kani=true&JigyosyoCd=3060191735-00&ServiceCd=130&Type=search", "url2": null }, "geometry": { "type": "Point", "coordinates": [ 135.1454306, 34.2331885 ] } },
{ "type": "Feature", "properties": { "内容": "セントケア訪問看護ステーション和歌山【訪問看護】和歌山県和歌山市友田町4丁目130番地A-tower２階　207-1号室", "url": "https://www.kaigokensaku.mhlw.go.jp/30/index.php?action_kouhyou_detail_004_kani=true&JigyosyoCd=3060190984-00&ServiceCd=130&Type=search", "url2": "https://www.saint-care.com/" }, "geometry": { "type": "Point", "coordinates": [ 135.188619306907412, 34.233186983745064 ] } },
{ "type": "Feature", "properties": { "内容": "訪問看護ステーション桔梗【訪問看護】和歌山市鳴神120番地5", "url": "https://www.kaigokensaku.mhlw.go.jp/30/index.php?action_kouhyou_detail_004_kani=true&JigyosyoCd=3060190042-00&ServiceCd=130&Type=search", "url2": null }, "geometry": { "type": "Point", "coordinates": [ 135.210715463893195, 34.226139814948475 ] } },
{ "type": "Feature", "properties": { "内容": "訪問看護ステーション響【訪問看護】和歌山県和歌山市弘西８８９番地３", "url": "https://www.kaigokensaku.mhlw.go.jp/30/index.php?action_kouhyou_detail_004_kani=true&JigyosyoCd=3060190711-00&ServiceCd=130&Type=search", "url2": "http://kyowa.ac.jp/hibiki/index.html" }, "geometry": { "type": "Point", "coordinates": [ 135.243229499999984, 34.2646323 ] } },
{ "type": "Feature", "properties": { "内容": "アンジュールメディカルケア【訪問看護】和歌山市和歌浦南3丁目1番17号", "url": "https://www.kaigokensaku.mhlw.go.jp/30/index.php?action_kouhyou_detail_004_kani=true&JigyosyoCd=3060191230-00&ServiceCd=130&Type=search", "url2": "http://www.unjour88.com" }, "geometry": { "type": "Point", "coordinates": [ 135.1698652, 34.1873285 ] } },
{ "type": "Feature", "properties": { "内容": "スミヤ訪問看護ステーション【訪問看護】和歌山県和歌山市納定11-4スミヤ在宅ケアセンター2F", "url": "https://www.kaigokensaku.mhlw.go.jp/30/index.php?action_kouhyou_detail_004_kani=true&JigyosyoCd=3060190117-00&ServiceCd=130&Type=search", "url2": "http://www.sumiya.or.jp" }, "geometry": { "type": "Point", "coordinates": [ 135.191267400000044, 34.237083400000017 ] } },
{ "type": "Feature", "properties": { "内容": "訪問看護ステーション紀三井寺苑【訪問看護】和歌山市布引13-7", "url": "https://www.kaigokensaku.mhlw.go.jp/30/index.php?action_kouhyou_detail_004_kani=true&JigyosyoCd=3060190158-00&ServiceCd=130&Type=search", "url2": "https://www.kisan.or.jp" }, "geometry": { "type": "Point", "coordinates": [ 135.184724500000016, 34.181339800000018 ] } },
{ "type": "Feature", "properties": { "内容": "ホーム・ナース【訪問看護】和歌山県和歌山市鳴神70‐10", "url": "https://www.kaigokensaku.mhlw.go.jp/30/index.php?action_kouhyou_detail_004_kani=true&JigyosyoCd=3060190331-00&ServiceCd=130&Type=search", "url2": null }, "geometry": { "type": "Point", "coordinates": [ 135.212608899999964, 34.2232295 ] } },
{ "type": "Feature", "properties": { "内容": "訪問看護ステーション明日香【訪問看護】和歌山市手平１丁目７－２７", "url": "https://www.kaigokensaku.mhlw.go.jp/30/index.php?action_kouhyou_detail_004_kani=true&JigyosyoCd=3060190521-00&ServiceCd=130&Type=search", "url2": "http://www.silvernest.biz/" }, "geometry": { "type": "Point", "coordinates": [ 135.186404727708492, 34.219083340069531 ] } },
{ "type": "Feature", "properties": { "内容": "訪問看護ステーションかせいたむら【訪問看護】和歌山市北島325-106", "url": "https://www.kaigokensaku.mhlw.go.jp/30/index.php?action_kouhyou_detail_004_kani=true&JigyosyoCd=3060190091-00&ServiceCd=130&Type=search", "url2": "seishou-kai.jp" }, "geometry": { "type": "Point", "coordinates": [ 135.15211862792512, 34.24172272626226 ] } },
{ "type": "Feature", "properties": { "内容": "訪問看護ステーション　リーフ【訪問看護】太田６６７番地６", "url": "https://www.kaigokensaku.mhlw.go.jp/30/index.php?action_kouhyou_detail_004_kani=true&JigyosyoCd=3060191297-00&ServiceCd=130&Type=search", "url2": null }, "geometry": { "type": "Point", "coordinates": [ 139.3760432, 36.2909373 ] } },
{ "type": "Feature", "properties": { "内容": "訪問看護ステーションNICO【訪問看護】有家377番地7", "url": "https://www.kaigokensaku.mhlw.go.jp/30/index.php?action_kouhyou_detail_004_kani=true&JigyosyoCd=3060190943-00&ServiceCd=130&Type=search", "url2": "https://asxeed-nico.com/" }, "geometry": { "type": "Point", "coordinates": [ 135.201467079899231, 34.218180529117845 ] } },
{ "type": "Feature", "properties": { "内容": "訪問看護ステーション　リハいち【訪問看護】和歌山県和歌山市本町８丁目３－１", "url": "https://www.kaigokensaku.mhlw.go.jp/30/index.php?action_kouhyou_detail_004_kani=true&JigyosyoCd=3060190869-00&ServiceCd=130&Type=search", "url2": null }, "geometry": { "type": "Point", "coordinates": [ 135.174143011639416, 34.241611221450157 ] } },
{ "type": "Feature", "properties": { "内容": "訪問看護ステーションだるま【訪問看護】和歌山県和歌山市岩橋723-2グラヴィティ　101号", "url": "https://www.kaigokensaku.mhlw.go.jp/30/index.php?action_kouhyou_detail_004_kani=true&JigyosyoCd=3060191503-00&ServiceCd=130&Type=search", "url2": null }, "geometry": { "type": "Point", "coordinates": [ 135.2309391, 34.2415028 ] } },
{ "type": "Feature", "properties": { "内容": "訪問看護ステーション　つむぎ【訪問看護】和歌山県和歌山市園部１０３０－４", "url": "https://www.kaigokensaku.mhlw.go.jp/30/index.php?action_kouhyou_detail_004_kani=true&JigyosyoCd=3060190802-00&ServiceCd=130&Type=search", "url2": null }, "geometry": { "type": "Point", "coordinates": [ 135.19288610000001, 34.261009 ] } },
{ "type": "Feature", "properties": { "内容": "訪問看護ステーション　みかん【訪問看護】和歌山県和歌山市湊五丁目7番11号", "url": "https://www.kaigokensaku.mhlw.go.jp/30/index.php?action_kouhyou_detail_004_kani=true&JigyosyoCd=3060190786-00&ServiceCd=130&Type=search", "url2": "http://bishin201309.co.jp" }, "geometry": { "type": "Point", "coordinates": [ 135.145842691792609, 34.227942079493118 ] } },
{ "type": "Feature", "properties": { "内容": "社会福祉法人琴の浦リハビリテーションセンター附属病院みなし指定訪問看護事業所【訪問看護】和歌山県和歌山市毛見1451番地", "url": "https://www.kaigokensaku.mhlw.go.jp/30/index.php?action_kouhyou_detail_004_kani=true&JigyosyoCd=3010110413-00&ServiceCd=130&Type=search", "url2": "http://www.kotonoura.or.jp/" }, "geometry": { "type": "Point", "coordinates": [ 135.185449, 34.1579811 ] } },
{ "type": "Feature", "properties": { "内容": "愛ケアサービス訪問看護ステーション【訪問看護】和歌山市下三毛４６４番地１", "url": "https://www.kaigokensaku.mhlw.go.jp/30/index.php?action_kouhyou_detail_004_kani=true&JigyosyoCd=3060190653-00&ServiceCd=130&Type=search", "url2": null }, "geometry": { "type": "Point", "coordinates": [ 135.297093806467586, 34.242731811159345 ] } },
{ "type": "Feature", "properties": { "内容": "訪問看護ステーション生協みなみ【訪問看護】和歌山市中之島880-1", "url": "https://www.kaigokensaku.mhlw.go.jp/30/index.php?action_kouhyou_detail_004_kani=true&JigyosyoCd=3060190190-00&ServiceCd=130&Type=search", "url2": null }, "geometry": { "type": "Point", "coordinates": [ 135.185673153997868, 34.243355031632674 ] } },
{ "type": "Feature", "properties": { "内容": "サンライズ訪問看護ステーション【訪問看護】和歌山県和歌山市大谷93-10", "url": "https://www.kaigokensaku.mhlw.go.jp/30/index.php?action_kouhyou_detail_004_kani=true&JigyosyoCd=3060191453-00&ServiceCd=130&Type=search", "url2": "https://kimurakazuhiro.wixsite.com/my-site" }, "geometry": { "type": "Point", "coordinates": [ 135.1790441, 34.2596366 ] } },
{ "type": "Feature", "properties": { "内容": "和歌山すみれ訪問看護ステーション【訪問看護】和歌山県和歌山市栗栖6-18", "url": "https://www.kaigokensaku.mhlw.go.jp/30/index.php?action_kouhyou_detail_004_kani=true&JigyosyoCd=3060191040-00&ServiceCd=130&Type=search", "url2": null }, "geometry": { "type": "Point", "coordinates": [ 135.224056271435586, 34.236747061830954 ] } },
{ "type": "Feature", "properties": { "内容": "ライフサポート【訪問看護】和歌山県和歌山市六十谷414番地1号シャルマンM202", "url": "https://www.kaigokensaku.mhlw.go.jp/30/index.php?action_kouhyou_detail_004_kani=true&JigyosyoCd=3060190950-00&ServiceCd=130&Type=search", "url2": "life-sp-musota@snow.ocn.ne.jp" }, "geometry": { "type": "Point", "coordinates": [ 135.205635199999961, 34.2636064 ] } },
{ "type": "Feature", "properties": { "内容": "訪問看護ステーションひとつ【訪問看護】和歌山県和歌山市津秦229-4", "url": "https://www.kaigokensaku.mhlw.go.jp/30/index.php?action_kouhyou_detail_004_kani=true&JigyosyoCd=3060191552-00&ServiceCd=130&Type=search", "url2": null }, "geometry": { "type": "Point", "coordinates": [ 135.2064402, 34.218128800000024 ] } },
{ "type": "Feature", "properties": { "内容": "訪問看護ステーション　えいと【訪問看護】和歌山県和歌山市太田4丁目5-13", "url": "https://www.kaigokensaku.mhlw.go.jp/30/index.php?action_kouhyou_detail_004_kani=true&JigyosyoCd=3060190695-00&ServiceCd=130&Type=search", "url2": null }, "geometry": { "type": "Point", "coordinates": [ 135.1982837, 34.2294359 ] } },
{ "type": "Feature", "properties": { "内容": "いまむらびょういん【訪問看護】和歌山県和歌山市砂山南2丁目4番21号", "url": "https://www.kaigokensaku.mhlw.go.jp/30/index.php?action_kouhyou_detail_004_kani=true&JigyosyoCd=3010112963-00&ServiceCd=130&Type=search", "url2": "https://www.imamura.or.jp" }, "geometry": { "type": "Point", "coordinates": [ 135.159756649073785, 34.218679159812005 ] } },
{ "type": "Feature", "properties": { "内容": "訪問看護ステーションやつぎ【訪問看護】和歌山県和歌山市西647-1", "url": "https://www.kaigokensaku.mhlw.go.jp/30/index.php?action_kouhyou_detail_004_kani=true&JigyosyoCd=3060191008-00&ServiceCd=130&Type=search", "url2": null }, "geometry": { "type": "Point", "coordinates": [ 135.216449, 34.2086237 ] } },
{ "type": "Feature", "properties": { "内容": "訪問看護ステーションOhana【訪問看護】和歌山県和歌山市弘西92アヴニール105号", "url": "https://www.kaigokensaku.mhlw.go.jp/30/index.php?action_kouhyou_detail_004_kani=true&JigyosyoCd=3060191115-00&ServiceCd=130&Type=search", "url2": null }, "geometry": { "type": "Point", "coordinates": [ 135.2344192, 34.2667258 ] } },
{ "type": "Feature", "properties": { "内容": "看護ステーションアトム【訪問看護】和歌山市宇治家裏286番地1Ｒｅｍａｋｅビル２階", "url": "https://www.kaigokensaku.mhlw.go.jp/30/index.php?action_kouhyou_detail_004_kani=true&JigyosyoCd=3060190505-00&ServiceCd=130&Type=search", "url2": null }, "geometry": { "type": "Point", "coordinates": [ 135.177369900000031, 34.2420686 ] } },
{ "type": "Feature", "properties": { "内容": "訪問看護Re:TA【訪問看護】神前236−1", "url": "https://www.kaigokensaku.mhlw.go.jp/30/index.php?action_kouhyou_detail_004_kani=true&JigyosyoCd=3060191784-00&ServiceCd=130&Type=search", "url2": null }, "geometry": { "type": "Point", "coordinates": [ 135.2004968, 34.2138651 ] } },
{ "type": "Feature", "properties": { "内容": "一般社団法人訪問看護ステーションスマート【訪問看護】和歌山県和歌山市秋月331", "url": "https://www.kaigokensaku.mhlw.go.jp/30/index.php?action_kouhyou_detail_004_kani=true&JigyosyoCd=3060191198-00&ServiceCd=130&Type=search", "url2": "https://stsmart71.wixsite.com/website-1" }, "geometry": { "type": "Point", "coordinates": [ 135.2041417, 34.2289592 ] } },
{ "type": "Feature", "properties": { "内容": "石本病院訪問看護【訪問看護】和歌山県海南市船尾３６５", "url": "https://www.kaigokensaku.mhlw.go.jp/30/index.php?action_kouhyou_detail_004_kani=true&JigyosyoCd=3011410051-00&ServiceCd=130&Type=search", "url2": "http://www.ishimoto-hospital.jp/" }, "geometry": { "type": "Point", "coordinates": [ 135.20119550000004, 34.1611484 ] } },
{ "type": "Feature", "properties": { "内容": "みかん山訪問看護ステーション【訪問看護】和歌山県海南市日方1289-197", "url": "https://www.kaigokensaku.mhlw.go.jp/30/index.php?action_kouhyou_detail_004_kani=true&JigyosyoCd=3061490235-00&ServiceCd=130&Type=search", "url2": "https://www.mikanyama.jp/" }, "geometry": { "type": "Point", "coordinates": [ 135.2075155, 34.153485 ] } },
{ "type": "Feature", "properties": { "内容": "訪問看護ステーション誠花【訪問看護】和歌山県海南市船尾276港橋ビル1階", "url": "https://www.kaigokensaku.mhlw.go.jp/30/index.php?action_kouhyou_detail_004_kani=true&JigyosyoCd=3061490227-00&ServiceCd=130&Type=search", "url2": null }, "geometry": { "type": "Point", "coordinates": [ 135.2042098, 34.1601049 ] } },
{ "type": "Feature", "properties": { "内容": "あい訪問看護ステーション【訪問看護】和歌山県海南市阪井645番地8", "url": "https://www.kaigokensaku.mhlw.go.jp/30/index.php?action_kouhyou_detail_004_kani=true&JigyosyoCd=3061490243-00&ServiceCd=130&Type=search", "url2": null }, "geometry": { "type": "Point", "coordinates": [ 135.257479606861096, 34.161583932558337 ] } },
{ "type": "Feature", "properties": { "内容": "訪問看護ステーションひかり海南【訪問看護】和歌山県海南市名高503-3", "url": "https://www.kaigokensaku.mhlw.go.jp/30/index.php?action_kouhyou_detail_004_kani=true&JigyosyoCd=3061490219-00&ServiceCd=130&Type=search", "url2": null }, "geometry": { "type": "Point", "coordinates": [ 135.213004842705061, 34.153219083842444 ] } },
{ "type": "Feature", "properties": { "内容": "ライフパートナー【訪問看護】和歌山県海南市重根348-2ライフパートナー重根1F", "url": "https://www.kaigokensaku.mhlw.go.jp/30/index.php?action_kouhyou_detail_004_kani=true&JigyosyoCd=3061490086-00&ServiceCd=130&Type=search", "url2": null }, "geometry": { "type": "Point", "coordinates": [ 135.243056525812051, 34.156161293097938 ] } },
{ "type": "Feature", "properties": { "内容": "訪問看護ステーション　天美【訪問看護】和歌山県海南市七山964-1", "url": "https://www.kaigokensaku.mhlw.go.jp/30/index.php?action_kouhyou_detail_004_kani=true&JigyosyoCd=3061490078-00&ServiceCd=130&Type=search", "url2": "http://www.tenbien.jp" }, "geometry": { "type": "Point", "coordinates": [ 135.308888799999977, 34.1961325 ] } },
{ "type": "Feature", "properties": { "内容": "海南市訪問看護ステーション【訪問看護】和歌山県海南市日方1519-10海南市海南保健福祉センター", "url": "https://www.kaigokensaku.mhlw.go.jp/30/index.php?action_kouhyou_detail_004_kani=true&JigyosyoCd=3061490029-00&ServiceCd=130&Type=search", "url2": null }, "geometry": { "type": "Point", "coordinates": [ 135.210200200000031, 34.1554495 ] } },
{ "type": "Feature", "properties": { "内容": "訪問看護セントケアかいなん【訪問看護】和歌山県海南市日方1167-1日方スクエアB号室", "url": "https://www.kaigokensaku.mhlw.go.jp/30/index.php?action_kouhyou_detail_004_kani=true&JigyosyoCd=3061490201-00&ServiceCd=130&Type=search", "url2": "https://care-net.biz/30/saint-care.w/" }, "geometry": { "type": "Point", "coordinates": [ 135.213643021426378, 34.157047095064527 ] } },
{ "type": "Feature", "properties": { "内容": "ケアサポートさくら訪問看護ステーション【訪問看護】和歌山県海南市鳥居3-1", "url": "https://www.kaigokensaku.mhlw.go.jp/30/index.php?action_kouhyou_detail_004_kani=true&JigyosyoCd=3061490102-00&ServiceCd=130&Type=search", "url2": "http://www.sakuraclinic.org/publics/index/17/" }, "geometry": { "type": "Point", "coordinates": [ 135.21978266687529, 34.153432184065977 ] } },
{ "type": "Feature", "properties": { "内容": "きのくにリハビリ訪問看護ステーション【訪問看護】和歌山県海南市幡川29-3ベルドールⅡ202号", "url": "https://www.kaigokensaku.mhlw.go.jp/30/index.php?action_kouhyou_detail_004_kani=true&JigyosyoCd=3061490136-00&ServiceCd=130&Type=search", "url2": null }, "geometry": { "type": "Point", "coordinates": [ 135.236907665599176, 34.153224421306774 ] } },
{ "type": "Feature", "properties": { "内容": "阪井カルフール・ド・ルポ【訪問看護】和歌山県海南市阪井1769番地1　1770番地1", "url": "https://www.kaigokensaku.mhlw.go.jp/30/index.php?action_kouhyou_detail_004_kani=true&JigyosyoCd=3061490169-00&ServiceCd=130&Type=search", "url2": "http://www.doujin-kai.or.jp/lavie/" }, "geometry": { "type": "Point", "coordinates": [ 135.265654958288565, 34.160301344254343 ] } },
{ "type": "Feature", "properties": { "内容": "訪問看護ステーション・ウェルネス【訪問看護】和歌山県海南市日方1274-76ウェルネスコート内", "url": "https://www.kaigokensaku.mhlw.go.jp/30/index.php?action_kouhyou_detail_004_kani=true&JigyosyoCd=3061490177-00&ServiceCd=130&Type=search", "url2": "http//www.w428.jp" }, "geometry": { "type": "Point", "coordinates": [ 135.206134600000041, 34.1569257 ] } },
{ "type": "Feature", "properties": { "内容": "訪問看護ステーション　英～はな～【訪問看護】高野口町向島219-4", "url": "https://www.kaigokensaku.mhlw.go.jp/30/index.php?action_kouhyou_detail_004_kani=true&JigyosyoCd=3061090076-00&ServiceCd=130&Type=search", "url2": null }, "geometry": { "type": "Point", "coordinates": [ 135.5569482, 34.3011087 ] } },
{ "type": "Feature", "properties": { "内容": "訪問看護ステーション　そら【訪問看護】高野口町大野334-3", "url": "https://www.kaigokensaku.mhlw.go.jp/30/index.php?action_kouhyou_detail_004_kani=true&JigyosyoCd=3061390070-00&ServiceCd=130&Type=search", "url2": null }, "geometry": { "type": "Point", "coordinates": [ 135.549095198391683, 34.302416482653243 ] } },
{ "type": "Feature", "properties": { "内容": "訪問看護ステーションなのはな【訪問看護】和歌山県橋本市橋本１－２－１４", "url": "https://www.kaigokensaku.mhlw.go.jp/30/index.php?action_kouhyou_detail_004_kani=true&JigyosyoCd=3061090050-00&ServiceCd=130&Type=search", "url2": null }, "geometry": { "type": "Point", "coordinates": [ 135.613069950015301, 34.31594519260431 ] } },
{ "type": "Feature", "properties": { "内容": "訪問看護ステーション　ソレイユ【訪問看護】橋本市東家6丁目7番11号", "url": "https://www.kaigokensaku.mhlw.go.jp/30/index.php?action_kouhyou_detail_004_kani=true&JigyosyoCd=3061090027-00&ServiceCd=130&Type=search", "url2": "http://www.yamamoto-hp.net" }, "geometry": { "type": "Point", "coordinates": [ 135.605897684655702, 34.313049072393419 ] } },
{ "type": "Feature", "properties": { "内容": "橋本市訪問看護ステーション【訪問看護】和歌山県橋本市小峰台二丁目８番地の１橋本市民病院", "url": "https://www.kaigokensaku.mhlw.go.jp/30/index.php?action_kouhyou_detail_004_kani=true&JigyosyoCd=3061090001-00&ServiceCd=130&Type=search", "url2": "https://hashimoto-hsp.jp/patient/nurse.html" }, "geometry": { "type": "Point", "coordinates": [ 135.634620400000017, 34.354304 ] } },
{ "type": "Feature", "properties": { "内容": "訪問看護ステーションそら【訪問看護】高野口町大野334-3", "url": "https://www.kaigokensaku.mhlw.go.jp/30/index.php?action_kouhyou_detail_004_kani=true&JigyosyoCd=3061090118-00&ServiceCd=130&Type=search", "url2": null }, "geometry": { "type": "Point", "coordinates": [ 135.5490423, 34.3024115 ] } },
{ "type": "Feature", "properties": { "内容": "訪問看護ステーション孔雀【訪問看護】和歌山県橋本市城山台２丁目１１番地の４", "url": "https://www.kaigokensaku.mhlw.go.jp/30/index.php?action_kouhyou_detail_004_kani=true&JigyosyoCd=3061090100-00&ServiceCd=130&Type=search", "url2": null }, "geometry": { "type": "Point", "coordinates": [ 135.6132527, 34.3485533 ] } },
{ "type": "Feature", "properties": { "内容": "訪問看護ステーション　ウェルビー【訪問看護】和歌山県橋本市神野々1103", "url": "https://www.kaigokensaku.mhlw.go.jp/30/index.php?action_kouhyou_detail_004_kani=true&JigyosyoCd=3061090019-00&ServiceCd=130&Type=search", "url2": "http://www.nanroukai.or.jp" }, "geometry": { "type": "Point", "coordinates": [ 135.581752609786946, 34.306053850270473 ] } },
{ "type": "Feature", "properties": { "内容": "セントケア訪問看護ステーション橋本【訪問看護】橋本市岸上558-32F", "url": "https://www.kaigokensaku.mhlw.go.jp/30/index.php?action_kouhyou_detail_004_kani=true&JigyosyoCd=3061090092-00&ServiceCd=130&Type=search", "url2": "https://www.saint-care.com/" }, "geometry": { "type": "Point", "coordinates": [ 135.5912098, 34.3115078 ] } },
{ "type": "Feature", "properties": { "内容": "医療法人　仁清会　岡本クリニック【訪問看護】和歌山県橋本市清水512-7", "url": "https://www.kaigokensaku.mhlw.go.jp/30/index.php?action_kouhyou_detail_004_kani=true&JigyosyoCd=3011010497-00&ServiceCd=130&Type=search", "url2": "http://www.e-okamoto-clinic.com/" }, "geometry": { "type": "Point", "coordinates": [ 135.600371900000027, 34.3072256 ] } },
{ "type": "Feature", "properties": { "内容": "医療法人　辻本クリニック【訪問看護】和歌山県橋本市高野口町大野235-1医療法人　辻本クリニック", "url": "https://www.kaigokensaku.mhlw.go.jp/30/index.php?action_kouhyou_detail_004_kani=true&JigyosyoCd=3011010356-00&ServiceCd=130&Type=search", "url2": null }, "geometry": { "type": "Point", "coordinates": [ 135.548672399999987, 34.3049195 ] } },
{ "type": "Feature", "properties": { "内容": "訪問看護ステーション結（ゆい）【訪問看護】和歌山県橋本市高野口町向島98番地の27", "url": "https://www.kaigokensaku.mhlw.go.jp/30/index.php?action_kouhyou_detail_004_kani=true&JigyosyoCd=3061090084-00&ServiceCd=130&Type=search", "url2": "tunagu-musubu.com/" }, "geometry": { "type": "Point", "coordinates": [ 135.5563583, 34.2966165 ] } },
{ "type": "Feature", "properties": { "内容": "AIありだ訪問看護ステーション【訪問看護】和歌山県有田市野699番地", "url": "https://www.kaigokensaku.mhlw.go.jp/30/index.php?action_kouhyou_detail_004_kani=true&JigyosyoCd=3061590059-00&ServiceCd=130&Type=search", "url2": null }, "geometry": { "type": "Point", "coordinates": [ 135.131013, 34.078068 ] } },
{ "type": "Feature", "properties": { "内容": "訪問看護ステーションことり【訪問看護】和歌山県有田市宮崎町５８０番地８", "url": "https://www.kaigokensaku.mhlw.go.jp/30/index.php?action_kouhyou_detail_004_kani=true&JigyosyoCd=3061590067-00&ServiceCd=130&Type=search", "url2": "https://www.houmonkango-kotori.com/" }, "geometry": { "type": "Point", "coordinates": [ 135.105581699999959, 34.077402 ] } },
{ "type": "Feature", "properties": { "内容": "医療法人　千徳会　さくら訪問看護ステーション【訪問看護】和歌山県有田市港町　29-1グループホーム愛宕苑内", "url": "https://www.kaigokensaku.mhlw.go.jp/30/index.php?action_kouhyou_detail_004_kani=true&JigyosyoCd=3061590000-00&ServiceCd=130&Type=search", "url2": "http://www.cherry-hill.or.jp/" }, "geometry": { "type": "Point", "coordinates": [ 135.114222299999938, 34.0884915 ] } },
{ "type": "Feature", "properties": { "内容": "有田市立病院訪問看護ステーション【訪問看護】和歌山県有田市宮崎町6番地", "url": "https://www.kaigokensaku.mhlw.go.jp/30/index.php?action_kouhyou_detail_004_kani=true&JigyosyoCd=3061590034-00&ServiceCd=130&Type=search", "url2": "houmon@aridahp.arida.wakayama.jp" }, "geometry": { "type": "Point", "coordinates": [ 135.1203997, 34.0810537 ] } },
{ "type": "Feature", "properties": { "内容": "こころケアステーション和歌山【訪問看護】和歌山県御坊市湯川町財部889", "url": "https://www.kaigokensaku.mhlw.go.jp/30/index.php?action_kouhyou_detail_004_kani=true&JigyosyoCd=3062090083-00&ServiceCd=130&Type=search", "url2": null }, "geometry": { "type": "Point", "coordinates": [ 135.161963379006096, 33.899904584210553 ] } },
{ "type": "Feature", "properties": { "内容": "訪問看護ステーション北裏【訪問看護】和歌山県御坊市湯川町小松原454番地", "url": "https://www.kaigokensaku.mhlw.go.jp/30/index.php?action_kouhyou_detail_004_kani=true&JigyosyoCd=3062090091-00&ServiceCd=130&Type=search", "url2": null }, "geometry": { "type": "Point", "coordinates": [ 135.1569835, 33.9068599 ] } },
{ "type": "Feature", "properties": { "内容": "ひなた訪問看護ステーション【訪問看護】和歌山県御坊市湯川町小松原420番地15興土ビル4階A号室", "url": "https://www.kaigokensaku.mhlw.go.jp/30/index.php?action_kouhyou_detail_004_kani=true&JigyosyoCd=3062090067-00&ServiceCd=130&Type=search", "url2": null }, "geometry": { "type": "Point", "coordinates": [ 135.1606898, 33.9080234 ] } },
{ "type": "Feature", "properties": { "内容": "訪問看護ステーションひかり御坊【訪問看護】和歌山県御坊市湯川町丸山477-4", "url": "https://www.kaigokensaku.mhlw.go.jp/30/index.php?action_kouhyou_detail_004_kani=true&JigyosyoCd=3062090109-00&ServiceCd=130&Type=search", "url2": null }, "geometry": { "type": "Point", "coordinates": [ 135.151202, 33.9075893 ] } },
{ "type": "Feature", "properties": { "内容": "訪問看護ステーション・キタデ【訪問看護】御坊市湯川町財部728-4", "url": "https://www.kaigokensaku.mhlw.go.jp/30/index.php?action_kouhyou_detail_004_kani=true&JigyosyoCd=3062090000-00&ServiceCd=130&Type=search", "url2": "http://www.reimeikai.com/" }, "geometry": { "type": "Point", "coordinates": [ 135.155238103041029, 33.896971351190835 ] } },
{ "type": "Feature", "properties": { "内容": "訪問看護ステーション中紀【訪問看護】和歌山県御坊市藤田町吉田３２４－１", "url": "https://www.kaigokensaku.mhlw.go.jp/30/index.php?action_kouhyou_detail_004_kani=true&JigyosyoCd=3062090026-00&ServiceCd=130&Type=search", "url2": null }, "geometry": { "type": "Point", "coordinates": [ 135.170986800000037, 33.9014611 ] } },
{ "type": "Feature", "properties": { "内容": "田辺市社会福祉協議会　龍神訪問看護事業所【訪問看護】和歌山県田辺市龍神村柳瀬１１３４番地", "url": "https://www.kaigokensaku.mhlw.go.jp/30/index.php?action_kouhyou_detail_004_kani=true&JigyosyoCd=3062190057-00&ServiceCd=130&Type=search", "url2": null }, "geometry": { "type": "Point", "coordinates": [ 135.470053, 33.8800607 ] } },
{ "type": "Feature", "properties": { "内容": "訪問看護ステーションあおり【訪問看護】和歌山県田辺市下屋敷町２３-１", "url": "https://www.kaigokensaku.mhlw.go.jp/30/index.php?action_kouhyou_detail_004_kani=true&JigyosyoCd=3062290121-00&ServiceCd=130&Type=search", "url2": null }, "geometry": { "type": "Point", "coordinates": [ 135.381339900000057, 33.7297166 ] } },
{ "type": "Feature", "properties": { "内容": "田辺すみれ訪問看護ステーション【訪問看護】和歌山県田辺市城山台5番6号田辺すみれビレッジ", "url": "https://www.kaigokensaku.mhlw.go.jp/30/index.php?action_kouhyou_detail_004_kani=true&JigyosyoCd=3062290246-00&ServiceCd=130&Type=search", "url2": "https://tanabe-sumire-v.jp" }, "geometry": { "type": "Point", "coordinates": [ 135.4261244, 33.7281873 ] } },
{ "type": "Feature", "properties": { "内容": "訪問看護ステーション　エンゼル【訪問看護】和歌山県田辺市東山1-3-8３Ｆ", "url": "https://www.kaigokensaku.mhlw.go.jp/30/index.php?action_kouhyou_detail_004_kani=true&JigyosyoCd=3062290006-00&ServiceCd=130&Type=search", "url2": "http://yuuga.blogdehp.ne.jp/14968408187171" }, "geometry": { "type": "Point", "coordinates": [ 135.387431, 33.7296361 ] } },
{ "type": "Feature", "properties": { "内容": "訪問看護ステーションささゆり【訪問看護】和歌山県田辺市本宮町本宮667-6", "url": "https://www.kaigokensaku.mhlw.go.jp/30/index.php?action_kouhyou_detail_004_kani=true&JigyosyoCd=3062490069-00&ServiceCd=130&Type=search", "url2": null }, "geometry": { "type": "Point", "coordinates": [ 135.770182646515678, 33.835607157956439 ] } },
{ "type": "Feature", "properties": { "内容": "ナースステーション　Ｖｏｉｃｅ【訪問看護】上屋敷1丁目14番50号", "url": "https://www.kaigokensaku.mhlw.go.jp/30/index.php?action_kouhyou_detail_004_kani=true&JigyosyoCd=3062290147-00&ServiceCd=130&Type=search", "url2": null }, "geometry": { "type": "Point", "coordinates": [ 135.373473900000022, 33.7323774 ] } },
{ "type": "Feature", "properties": { "内容": "訪問看護ステーションふるさと【訪問看護】和歌山県田辺市高雄三丁目１９番１１号高雄事務所　１Ｆ", "url": "https://www.kaigokensaku.mhlw.go.jp/30/index.php?action_kouhyou_detail_004_kani=true&JigyosyoCd=3062290063-00&ServiceCd=130&Type=search", "url2": null }, "geometry": { "type": "Point", "coordinates": [ 135.384086805049151, 33.740403421774808 ] } },
{ "type": "Feature", "properties": { "内容": "スマイリング訪問看護ステーション【訪問看護】和歌山県田辺市稲成町４１１番地の２", "url": "https://www.kaigokensaku.mhlw.go.jp/30/index.php?action_kouhyou_detail_004_kani=true&JigyosyoCd=3062290071-00&ServiceCd=130&Type=search", "url2": null }, "geometry": { "type": "Point", "coordinates": [ 135.377529099999947, 33.7385489 ] } },
{ "type": "Feature", "properties": { "内容": "訪問看護ステーションはる【訪問看護】和歌山県田辺市下三栖1277-10", "url": "https://www.kaigokensaku.mhlw.go.jp/30/index.php?action_kouhyou_detail_004_kani=true&JigyosyoCd=3062290212-00&ServiceCd=130&Type=search", "url2": null }, "geometry": { "type": "Point", "coordinates": [ 135.422293832428323, 33.735096368820464 ] } },
{ "type": "Feature", "properties": { "内容": "訪問看護ステーションほがらか【訪問看護】和歌山県田辺市上万呂3グランジュテ101", "url": "https://www.kaigokensaku.mhlw.go.jp/30/index.php?action_kouhyou_detail_004_kani=true&JigyosyoCd=3062290253-00&ServiceCd=130&Type=search", "url2": null }, "geometry": { "type": "Point", "coordinates": [ 135.403042, 33.7353841 ] } },
{ "type": "Feature", "properties": { "内容": "訪問看護ステーション　田辺メディカル【訪問看護】田辺市新万3-19", "url": "https://www.kaigokensaku.mhlw.go.jp/30/index.php?action_kouhyou_detail_004_kani=true&JigyosyoCd=3062290097-00&ServiceCd=130&Type=search", "url2": "https://m3918494976.wixsite.com/tanabemedical" }, "geometry": { "type": "Point", "coordinates": [ 135.3947915, 33.7326191 ] } },
{ "type": "Feature", "properties": { "内容": "訪問看護ステーションピースフルたなべ【訪問看護】和歌山県田辺市稲成町79-7", "url": "https://www.kaigokensaku.mhlw.go.jp/30/index.php?action_kouhyou_detail_004_kani=true&JigyosyoCd=3062290220-00&ServiceCd=130&Type=search", "url2": "https://peaceful-mirai.com/" }, "geometry": { "type": "Point", "coordinates": [ 135.3714286, 33.7402381 ] } },
{ "type": "Feature", "properties": { "内容": "訪問看護ステーション　和【訪問看護】和歌山県田辺市上の山1-7-27", "url": "https://www.kaigokensaku.mhlw.go.jp/30/index.php?action_kouhyou_detail_004_kani=true&JigyosyoCd=3062290162-00&ServiceCd=130&Type=search", "url2": null }, "geometry": { "type": "Point", "coordinates": [ 135.378157464015146, 33.735684082786833 ] } },
{ "type": "Feature", "properties": { "内容": "訪問看護ステーション　たいよう【訪問看護】田辺市下万呂588-１フロムドットビル１F　103号", "url": "https://www.kaigokensaku.mhlw.go.jp/30/index.php?action_kouhyou_detail_004_kani=true&JigyosyoCd=3062290154-00&ServiceCd=130&Type=search", "url2": null }, "geometry": { "type": "Point", "coordinates": [ 135.39321659999996, 33.7403459 ] } },
{ "type": "Feature", "properties": { "内容": "訪問看護ステーション望夢【訪問看護】中万呂570-2", "url": "https://www.kaigokensaku.mhlw.go.jp/30/index.php?action_kouhyou_detail_004_kani=true&JigyosyoCd=3062290196-00&ServiceCd=130&Type=search", "url2": null }, "geometry": { "type": "Point", "coordinates": [ 135.404082100000011, 33.7390064 ] } },
{ "type": "Feature", "properties": { "内容": "訪問看護ステーションいなほ【訪問看護】和歌山県田辺市高雄二丁目34-17", "url": "https://www.kaigokensaku.mhlw.go.jp/30/index.php?action_kouhyou_detail_004_kani=true&JigyosyoCd=3062290188-00&ServiceCd=130&Type=search", "url2": null }, "geometry": { "type": "Point", "coordinates": [ 135.380907799999932, 33.7385479 ] } },
{ "type": "Feature", "properties": { "内容": "ナースセンターよろこび【訪問看護】和歌山県新宮市蜂伏11-49", "url": "https://www.kaigokensaku.mhlw.go.jp/30/index.php?action_kouhyou_detail_004_kani=true&JigyosyoCd=3062390137-00&ServiceCd=130&Type=search", "url2": null }, "geometry": { "type": "Point", "coordinates": [ 135.9639561, 33.6833017 ] } },
{ "type": "Feature", "properties": { "内容": "訪問看護ステーションのぞみ【訪問看護】和歌山県新宮市下本町2丁目4番地の1", "url": "https://www.kaigokensaku.mhlw.go.jp/30/index.php?action_kouhyou_detail_004_kani=true&JigyosyoCd=3062390053-00&ServiceCd=130&Type=search", "url2": null }, "geometry": { "type": "Point", "coordinates": [ 135.988402700000051, 33.7300819 ] } },
{ "type": "Feature", "properties": { "内容": "訪問看護ステーション　紀の風【訪問看護】和歌山県　新宮市　佐野1322-1", "url": "https://www.kaigokensaku.mhlw.go.jp/30/index.php?action_kouhyou_detail_004_kani=true&JigyosyoCd=3062390145-00&ServiceCd=130&Type=search", "url2": "http://www.kinokaze.net/" }, "geometry": { "type": "Point", "coordinates": [ 135.958665, 33.6930367 ] } },
{ "type": "Feature", "properties": { "内容": "ひだまり訪問看護ステーション【訪問看護】井の沢9番10号", "url": "https://www.kaigokensaku.mhlw.go.jp/30/index.php?action_kouhyou_detail_004_kani=true&JigyosyoCd=3062390111-00&ServiceCd=130&Type=search", "url2": null }, "geometry": { "type": "Point", "coordinates": [ 135.9912042, 33.72233720000002 ] } },
{ "type": "Feature", "properties": { "内容": "しんぐうリハビリ訪問看護ステーション【訪問看護】新宮市下田1-1-2マサキビル1Fマサキビル1F", "url": "https://www.kaigokensaku.mhlw.go.jp/30/index.php?action_kouhyou_detail_004_kani=true&JigyosyoCd=3062390061-00&ServiceCd=130&Type=search", "url2": null }, "geometry": { "type": "Point", "coordinates": [ 135.99452169999995, 33.7215273 ] } },
{ "type": "Feature", "properties": { "内容": "訪問看護ステーション仁智【訪問看護】和歌山県新宮市下本町2丁目4-22", "url": "https://www.kaigokensaku.mhlw.go.jp/30/index.php?action_kouhyou_detail_004_kani=true&JigyosyoCd=3062390095-00&ServiceCd=130&Type=search", "url2": "https://jinchi.co.jp/" }, "geometry": { "type": "Point", "coordinates": [ 135.988693767667428, 33.729998852039515 ] } },
{ "type": "Feature", "properties": { "内容": "訪問看護ステーションREVIVE【訪問看護】和歌山県紀の川市西大井143-5ロクイチビル3F", "url": "https://www.kaigokensaku.mhlw.go.jp/30/index.php?action_kouhyou_detail_004_kani=true&JigyosyoCd=3061790139-00&ServiceCd=130&Type=search", "url2": null }, "geometry": { "type": "Point", "coordinates": [ 135.3624864, 34.2655341 ] } },
{ "type": "Feature", "properties": { "内容": "訪問看護ステーション　なだい【訪問看護】和歌山県紀の川市下井阪605番地トータルケアセンターなだい", "url": "https://www.kaigokensaku.mhlw.go.jp/30/index.php?action_kouhyou_detail_004_kani=true&JigyosyoCd=3061290171-00&ServiceCd=130&Type=search", "url2": "http://www.tcc-nadai.com" }, "geometry": { "type": "Point", "coordinates": [ 135.338234199999988, 34.2565948 ] } },
{ "type": "Feature", "properties": { "内容": "聖アンナ訪問看護ステーション【訪問看護】和歌山県紀の川市貴志川町尼寺字大田359", "url": "https://www.kaigokensaku.mhlw.go.jp/30/index.php?action_kouhyou_detail_004_kani=true&JigyosyoCd=3061290023-00&ServiceCd=130&Type=search", "url2": "https://seianna.jp/" }, "geometry": { "type": "Point", "coordinates": [ 135.312780649876544, 34.225807935997821 ] } },
{ "type": "Feature", "properties": { "内容": "訪問看護ステーショングリーンスマイル【訪問看護】東野70番地１", "url": "https://www.kaigokensaku.mhlw.go.jp/30/index.php?action_kouhyou_detail_004_kani=true&JigyosyoCd=3061790030-00&ServiceCd=130&Type=search", "url2": "https://www.greensmail5001.com/profile.html" }, "geometry": { "type": "Point", "coordinates": [ 135.419090702141034, 34.269782961851448 ] } },
{ "type": "Feature", "properties": { "内容": "訪問看護ステーション　貴志川【訪問看護】和歌山県紀の川市貴志川町長原1037-4", "url": "https://www.kaigokensaku.mhlw.go.jp/30/index.php?action_kouhyou_detail_004_kani=true&JigyosyoCd=3061290189-00&ServiceCd=130&Type=search", "url2": "http://human-pc.com/wp1/" }, "geometry": { "type": "Point", "coordinates": [ 135.305186300000059, 34.2082114 ] } },
{ "type": "Feature", "properties": { "内容": "訪問看護ステーション　マリーゴールド【訪問看護】和歌山県紀の川市打田１３３６－１岡ビル１階", "url": "https://www.kaigokensaku.mhlw.go.jp/30/index.php?action_kouhyou_detail_004_kani=true&JigyosyoCd=3061790105-00&ServiceCd=130&Type=search", "url2": "marix317.com/" }, "geometry": { "type": "Point", "coordinates": [ 135.365374200000019, 34.2621191 ] } },
{ "type": "Feature", "properties": { "内容": "訪問看護ステーションみくるま【訪問看護】和歌山県紀の川市貴志川町丸栖1423-3", "url": "https://www.kaigokensaku.mhlw.go.jp/30/index.php?action_kouhyou_detail_004_kani=true&JigyosyoCd=3061790147-00&ServiceCd=130&Type=search", "url2": "http://www.mikurumakai.or.jp" }, "geometry": { "type": "Point", "coordinates": [ 135.3271863, 34.2407523 ] } },
{ "type": "Feature", "properties": { "内容": "医療法人　稲穂会　訪問看護ステーション瑞穂【訪問看護】和歌山県紀の川市粉河775-1Ｇｒａｎｄ　Ｈｏｍｅ瑞穂", "url": "https://www.kaigokensaku.mhlw.go.jp/30/index.php?action_kouhyou_detail_004_kani=true&JigyosyoCd=3061790097-00&ServiceCd=130&Type=search", "url2": "http://mizuho-home.co.jp" }, "geometry": { "type": "Point", "coordinates": [ 135.4045066, 34.268378 ] } },
{ "type": "Feature", "properties": { "内容": "訪問看護ステーション騏驎【訪問看護】和歌山県紀の川市粉河951-1", "url": "https://www.kaigokensaku.mhlw.go.jp/30/index.php?action_kouhyou_detail_004_kani=true&JigyosyoCd=3061290064-00&ServiceCd=130&Type=search", "url2": "http://www.koyokai.or.jp/116houkan.html" }, "geometry": { "type": "Point", "coordinates": [ 135.40251192883602, 34.268874667758794 ] } },
{ "type": "Feature", "properties": { "内容": "訪問看護ステーションNICO紀ノ川【訪問看護】和歌山県紀の川市下井阪605番地", "url": "https://www.kaigokensaku.mhlw.go.jp/30/index.php?action_kouhyou_detail_004_kani=true&JigyosyoCd=3061790162-00&ServiceCd=130&Type=search", "url2": null }, "geometry": { "type": "Point", "coordinates": [ 135.338961, 34.2586472 ] } },
{ "type": "Feature", "properties": { "内容": "Ocean訪問看護ステーション【訪問看護】和歌山県紀の川市貴志川町丸栖662番地", "url": "https://www.kaigokensaku.mhlw.go.jp/30/index.php?action_kouhyou_detail_004_kani=true&JigyosyoCd=3061790121-00&ServiceCd=130&Type=search", "url2": "https://www.ocean-1810.co.jp/sp/index.html" }, "geometry": { "type": "Point", "coordinates": [ 135.323844740089442, 34.232074051452152 ] } },
{ "type": "Feature", "properties": { "内容": "訪問看護ステーションひより【訪問看護】和歌山県紀の川市西三谷10-38", "url": "https://www.kaigokensaku.mhlw.go.jp/30/index.php?action_kouhyou_detail_004_kani=true&JigyosyoCd=3061890087-00&ServiceCd=130&Type=search", "url2": "http://www.sowan-lien.net" }, "geometry": { "type": "Point", "coordinates": [ 135.339012242873167, 34.271800569198831 ] } },
{ "type": "Feature", "properties": { "内容": "名手訪問看護ステーション【訪問看護】和歌山県紀の川市名手市場294-1", "url": "https://www.kaigokensaku.mhlw.go.jp/30/index.php?action_kouhyou_detail_004_kani=true&JigyosyoCd=3061290031-00&ServiceCd=130&Type=search", "url2": "http://nate-hospital.com/" }, "geometry": { "type": "Point", "coordinates": [ 135.438083600000027, 34.2727696 ] } },
{ "type": "Feature", "properties": { "内容": "訪問看護ステーション　りんく【訪問看護】和歌山県紀の川市畑野上333-1", "url": "https://www.kaigokensaku.mhlw.go.jp/30/index.php?action_kouhyou_detail_004_kani=true&JigyosyoCd=3061790055-00&ServiceCd=130&Type=search", "url2": null }, "geometry": { "type": "Point", "coordinates": [ 135.347461853289246, 34.260019622517305 ] } },
{ "type": "Feature", "properties": { "内容": "ほうもんかんごすてーしょんいしずえわかやま【訪問看護】湯窪43-14号室　湯窪テナント", "url": "https://www.kaigokensaku.mhlw.go.jp/30/index.php?action_kouhyou_detail_004_kani=true&JigyosyoCd=3061890129-00&ServiceCd=130&Type=search", "url2": "https://kango-ishizue.jp/" }, "geometry": { "type": "Point", "coordinates": [ 135.2948217, 34.2690542 ] } },
{ "type": "Feature", "properties": { "内容": "訪問看護ステーションご縁【訪問看護】山381-4ファルC", "url": "https://www.kaigokensaku.mhlw.go.jp/30/index.php?action_kouhyou_detail_004_kani=true&JigyosyoCd=3061890145-00&ServiceCd=130&Type=search", "url2": null }, "geometry": { "type": "Point", "coordinates": [ 135.31293, 34.258907 ] } },
{ "type": "Feature", "properties": { "内容": "訪問看護ステーションつくしの里【訪問看護】和歌山県岩出市中迫665", "url": "https://www.kaigokensaku.mhlw.go.jp/30/index.php?action_kouhyou_detail_004_kani=true&JigyosyoCd=3061890012-00&ServiceCd=130&Type=search", "url2": "https//www.wa.tsukushi-med.jp" }, "geometry": { "type": "Point", "coordinates": [ 135.3161359, 34.267657 ] } },
{ "type": "Feature", "properties": { "内容": "訪問看護リハビリステーションうらら【訪問看護】和歌山県岩出市山878-5メインストリート豊和ⅢB棟東号室", "url": "https://www.kaigokensaku.mhlw.go.jp/30/index.php?action_kouhyou_detail_004_kani=true&JigyosyoCd=3061890079-00&ServiceCd=130&Type=search", "url2": null }, "geometry": { "type": "Point", "coordinates": [ 135.2783652, 34.2724251 ] } },
{ "type": "Feature", "properties": { "内容": "プライマリーリハビリ訪問看護ステーション那賀【訪問看護】和歌山県岩出市今中127-6", "url": "https://www.kaigokensaku.mhlw.go.jp/30/index.php?action_kouhyou_detail_004_kani=true&JigyosyoCd=3061890137-00&ServiceCd=130&Type=search", "url2": "http://primas.jp/" }, "geometry": { "type": "Point", "coordinates": [ 135.315341, 34.2728426 ] } },
{ "type": "Feature", "properties": { "内容": "医療法人彌栄会やよいメデイカルクリニック【訪問看護】和歌山県岩出市中迫139やよいメディカルクリニック", "url": "https://www.kaigokensaku.mhlw.go.jp/30/index.php?action_kouhyou_detail_004_kani=true&JigyosyoCd=3011810060-00&ServiceCd=130&Type=search", "url2": "https://www.yaeikai.com/" }, "geometry": { "type": "Point", "coordinates": [ 135.3157048, 34.2613471 ] } },
{ "type": "Feature", "properties": { "内容": "訪問看護ステーション　リットビム【訪問看護】和歌山県　岩出市中島813‐1グリーンプラザ中島Ⅱ　2‐C", "url": "https://www.kaigokensaku.mhlw.go.jp/30/index.php?action_kouhyou_detail_004_kani=true&JigyosyoCd=3061890061-00&ServiceCd=130&Type=search", "url2": "https://litbm.net" }, "geometry": { "type": "Point", "coordinates": [ 135.29631406781516, 34.261229169308919 ] } },
{ "type": "Feature", "properties": { "内容": "ノア訪問看護ステーション【訪問看護】和歌山県岩出市中島993バルビゾン・ⅠC215", "url": "https://www.kaigokensaku.mhlw.go.jp/30/index.php?action_kouhyou_detail_004_kani=true&JigyosyoCd=3061890160-00&ServiceCd=130&Type=search", "url2": "https://www.noa-houkan.org/" }, "geometry": { "type": "Point", "coordinates": [ 135.292802706082142, 34.259421229573135 ] } },
{ "type": "Feature", "properties": { "内容": "訪問看護ステーション　千【訪問看護】和歌山県岩出市畑毛300", "url": "https://www.kaigokensaku.mhlw.go.jp/30/index.php?action_kouhyou_detail_004_kani=true&JigyosyoCd=3061890020-00&ServiceCd=130&Type=search", "url2": "http://www.1000.care" }, "geometry": { "type": "Point", "coordinates": [ 135.301838674181283, 34.258944250115405 ] } },
{ "type": "Feature", "properties": { "内容": "紀の川クリニック【訪問看護】和歌山県岩出市西国分501番地", "url": "https://www.kaigokensaku.mhlw.go.jp/30/index.php?action_kouhyou_detail_004_kani=true&JigyosyoCd=3011810045-00&ServiceCd=130&Type=search", "url2": "http://www.hakubunkai.com" }, "geometry": { "type": "Point", "coordinates": [ 135.331695599999989, 34.2652995 ] } },
{ "type": "Feature", "properties": { "内容": "訪問看護ステーションピースフルみらい【訪問看護】和歌山県岩出市西野202-31st　Pⅼace　1-C", "url": "https://www.kaigokensaku.mhlw.go.jp/30/index.php?action_kouhyou_detail_004_kani=true&JigyosyoCd=3061890152-00&ServiceCd=130&Type=search", "url2": "https://peaceful-mirai.com" }, "geometry": { "type": "Point", "coordinates": [ 135.3113156, 34.2582481 ] } },
{ "type": "Feature", "properties": { "内容": "訪問看護ステーションとみた【訪問看護】岩出市紀泉台432", "url": "https://www.kaigokensaku.mhlw.go.jp/30/index.php?action_kouhyou_detail_004_kani=true&JigyosyoCd=3061290197-00&ServiceCd=130&Type=search", "url2": "http://www.tomita.or.jp" }, "geometry": { "type": "Point", "coordinates": [ 135.293031199999973, 34.2809699 ] } },
{ "type": "Feature", "properties": { "内容": "訪問看護ステーションこむすび岩出紀の川【訪問看護】和歌山県岩出市宮７１-１パストラルビル２階２－C", "url": "https://www.kaigokensaku.mhlw.go.jp/30/index.php?action_kouhyou_detail_004_kani=true&JigyosyoCd=3061890046-00&ServiceCd=130&Type=search", "url2": "https://carna8.co.jp/" }, "geometry": { "type": "Point", "coordinates": [ 135.312477300000012, 34.2550564 ] } },
{ "type": "Feature", "properties": { "内容": "訪問看護ステーションみちラボ岩出【訪問看護】和歌山県岩出市清水405-1岩出駅前第１ビル２階", "url": "https://www.kaigokensaku.mhlw.go.jp/30/index.php?action_kouhyou_detail_004_kani=true&JigyosyoCd=3061890038-00&ServiceCd=130&Type=search", "url2": "https://sunbridge-mtd.com/" }, "geometry": { "type": "Point", "coordinates": [ 135.281837900000028, 34.2655994 ] } },
{ "type": "Feature", "properties": { "内容": "訪問看護ステーションHanako【訪問看護】和歌山県海草郡紀美野町小畑794-19", "url": "https://www.kaigokensaku.mhlw.go.jp/30/index.php?action_kouhyou_detail_004_kani=true&JigyosyoCd=3061190025-00&ServiceCd=130&Type=search", "url2": null }, "geometry": { "type": "Point", "coordinates": [ 135.3066555, 34.169861 ] } },
{ "type": "Feature", "properties": { "内容": "のかみ訪問看護ステーション【訪問看護】和歌山県海草郡紀美野町小畑198", "url": "https://www.kaigokensaku.mhlw.go.jp/30/index.php?action_kouhyou_detail_004_kani=true&JigyosyoCd=3061190009-00&ServiceCd=130&Type=search", "url2": "https://www.nokami-hospital.jp/" }, "geometry": { "type": "Point", "coordinates": [ 135.2953099, 34.1638444 ] } },
{ "type": "Feature", "properties": { "内容": "訪問看護ステーションひだまり【訪問看護】和歌山県伊都郡かつらぎ町兄井１３１－３", "url": "https://www.kaigokensaku.mhlw.go.jp/30/index.php?action_kouhyou_detail_004_kani=true&JigyosyoCd=3071300705-00&ServiceCd=130&Type=search", "url2": null }, "geometry": { "type": "Point", "coordinates": [ 135.505313446604987, 34.288504496464604 ] } },
{ "type": "Feature", "properties": { "内容": "こもれびの里訪問看護ステーション【訪問看護】和歌山県伊都郡かつらぎ町笠田東109-8森下テナント", "url": "https://www.kaigokensaku.mhlw.go.jp/30/index.php?action_kouhyou_detail_004_kani=true&JigyosyoCd=3061390096-00&ServiceCd=130&Type=search", "url2": null }, "geometry": { "type": "Point", "coordinates": [ 135.4803278, 34.2890024 ] } },
{ "type": "Feature", "properties": { "内容": "訪問看護ステーションはなぶさ【訪問看護】和歌山県伊都郡かつらぎ町笠田東446", "url": "https://www.kaigokensaku.mhlw.go.jp/30/index.php?action_kouhyou_detail_004_kani=true&JigyosyoCd=3061390088-00&ServiceCd=130&Type=search", "url2": "http://www.hanabusa.wakayama.jp" }, "geometry": { "type": "Point", "coordinates": [ 138.253047381614664, 36.204412781380462 ] } },
{ "type": "Feature", "properties": { "内容": "高野町立高野山総合診療所【訪問看護】和歌山県伊都郡高野町大字高野山６３１", "url": "https://www.kaigokensaku.mhlw.go.jp/30/index.php?action_kouhyou_detail_004_kani=true&JigyosyoCd=3018010417-00&ServiceCd=130&Type=search", "url2": "http://www.town.koya.wakayama.jp/health/hospital/" }, "geometry": { "type": "Point", "coordinates": [ 135.586672300000032, 34.2163158 ] } },
{ "type": "Feature", "properties": { "内容": "グルー訪問看護ステーション【訪問看護】和歌山県有田郡湯浅町大字湯浅2799番地", "url": "https://www.kaigokensaku.mhlw.go.jp/30/index.php?action_kouhyou_detail_004_kani=true&JigyosyoCd=3061690107-00&ServiceCd=130&Type=search", "url2": null }, "geometry": { "type": "Point", "coordinates": [ 135.179867, 34.0351699 ] } },
{ "type": "Feature", "properties": { "内容": "済生会有田訪問看護ステーション【訪問看護】和歌山県有田郡湯浅町吉川52の6", "url": "https://www.kaigokensaku.mhlw.go.jp/30/index.php?action_kouhyou_detail_004_kani=true&JigyosyoCd=3061690016-00&ServiceCd=130&Type=search", "url2": "http://www.saiseikai-arida.jp/" }, "geometry": { "type": "Point", "coordinates": [ 135.193196, 34.0455721 ] } },
{ "type": "Feature", "properties": { "内容": "きび訪問看護ステーション【訪問看護】和歌山県有田郡有田川町小島16", "url": "https://www.kaigokensaku.mhlw.go.jp/30/index.php?action_kouhyou_detail_004_kani=true&JigyosyoCd=3061690008-00&ServiceCd=130&Type=search", "url2": "http://www.akemikai.or.jp" }, "geometry": { "type": "Point", "coordinates": [ 135.201550099999963, 34.0681387 ] } },
{ "type": "Feature", "properties": { "内容": "訪問看護ステーションひかり【訪問看護】和歌山県有田郡有田川町大字下津野850番地1", "url": "https://www.kaigokensaku.mhlw.go.jp/30/index.php?action_kouhyou_detail_004_kani=true&JigyosyoCd=3061690081-00&ServiceCd=130&Type=search", "url2": "https://www.instagram.com/houkan_hikari/" }, "geometry": { "type": "Point", "coordinates": [ 135.209497520715445, 34.064258472368998 ] } },
{ "type": "Feature", "properties": { "内容": "あうる訪問看護ステーション【訪問看護】和歌山県有田郡有田川町庄849－1", "url": "https://www.kaigokensaku.mhlw.go.jp/30/index.php?action_kouhyou_detail_004_kani=true&JigyosyoCd=3061690099-00&ServiceCd=130&Type=search", "url2": null }, "geometry": { "type": "Point", "coordinates": [ 135.23095721132583, 34.070119024141199 ] } },
{ "type": "Feature", "properties": { "内容": "訪問看護ステーション日高リハビリセンター【訪問看護】和歌山県日高郡美浜町和田1902番地", "url": "https://www.kaigokensaku.mhlw.go.jp/30/index.php?action_kouhyou_detail_004_kani=true&JigyosyoCd=3062190081-00&ServiceCd=130&Type=search", "url2": null }, "geometry": { "type": "Point", "coordinates": [ 135.1202331, 33.8937064 ] } },
{ "type": "Feature", "properties": { "内容": "訪問看護ステーションひまわり【訪問看護】和歌山県日高郡美浜町田井３１３－１", "url": "https://www.kaigokensaku.mhlw.go.jp/30/index.php?action_kouhyou_detail_004_kani=true&JigyosyoCd=3062190024-00&ServiceCd=130&Type=search", "url2": null }, "geometry": { "type": "Point", "coordinates": [ 135.14848, 33.8925673 ] } },
{ "type": "Feature", "properties": { "内容": "訪問看護ステーションふらっと日高【訪問看護】和歌山県日高郡美浜町和田2101番地3", "url": "https://www.kaigokensaku.mhlw.go.jp/30/index.php?action_kouhyou_detail_004_kani=true&JigyosyoCd=3062190131-00&ServiceCd=130&Type=search", "url2": "https://sites.google.com/view/furatto-wakayama/%E3%83%9B%E3%83%BC%E3%83%A0" }, "geometry": { "type": "Point", "coordinates": [ 135.144169299999987, 33.9031917 ] } },
{ "type": "Feature", "properties": { "内容": "訪問看護ステーションあさがお【訪問看護】和歌山県日高郡日高町比井４４７", "url": "https://www.kaigokensaku.mhlw.go.jp/30/index.php?action_kouhyou_detail_004_kani=true&JigyosyoCd=3062190123-00&ServiceCd=130&Type=search", "url2": null }, "geometry": { "type": "Point", "coordinates": [ 135.085174, 33.9212339 ] } },
{ "type": "Feature", "properties": { "内容": "訪問看護ステーションナンバーワン日高【訪問看護】和歌山県日高郡日高町荊木115-1", "url": "https://www.kaigokensaku.mhlw.go.jp/30/index.php?action_kouhyou_detail_004_kani=true&JigyosyoCd=3062190073-00&ServiceCd=130&Type=search", "url2": "http://lifesize-hidaka.com/" }, "geometry": { "type": "Point", "coordinates": [ 135.1517895, 33.9240664 ] } },
{ "type": "Feature", "properties": { "内容": "訪問看護ステーションHull【訪問看護】和歌山県日高郡印南町島田1676", "url": "https://www.kaigokensaku.mhlw.go.jp/30/index.php?action_kouhyou_detail_004_kani=true&JigyosyoCd=3062190115-00&ServiceCd=130&Type=search", "url2": "https://hull-st.gifted-creative.com/" }, "geometry": { "type": "Point", "coordinates": [ 135.237134700000013, 33.7909638 ] } },
{ "type": "Feature", "properties": { "内容": "訪問看護ステーション　アルク【訪問看護】和歌山県日高郡みなべ町山内西魚崎1444番地", "url": "https://www.kaigokensaku.mhlw.go.jp/30/index.php?action_kouhyou_detail_004_kani=true&JigyosyoCd=3062190107-00&ServiceCd=130&Type=search", "url2": null }, "geometry": { "type": "Point", "coordinates": [ 135.3040795, 33.7771349 ] } },
{ "type": "Feature", "properties": { "内容": "訪問看護ステーションふらっと【訪問看護】和歌山県日高郡みなべ町堺474-2", "url": "https://www.kaigokensaku.mhlw.go.jp/30/index.php?action_kouhyou_detail_004_kani=true&JigyosyoCd=3062190099-00&ServiceCd=130&Type=search", "url2": "https://sites.google.com/view/furatto-wakayama/%E3%83%9B%E3%83%BC%E3%83%A0" }, "geometry": { "type": "Point", "coordinates": [ 135.3300204, 33.7460117 ] } },
{ "type": "Feature", "properties": { "内容": "みなべ町訪問看護ステーション【訪問看護】和歌山県日高郡みなべ町芝447-2", "url": "https://www.kaigokensaku.mhlw.go.jp/30/index.php?action_kouhyou_detail_004_kani=true&JigyosyoCd=3062190032-00&ServiceCd=130&Type=search", "url2": null }, "geometry": { "type": "Point", "coordinates": [ 135.3235118, 33.7660335 ] } },
{ "type": "Feature", "properties": { "内容": "訪問看護ステーション　白浜椿の郷【訪問看護】和歌山県西牟婁郡白浜町椿481-8", "url": "https://www.kaigokensaku.mhlw.go.jp/30/index.php?action_kouhyou_detail_004_kani=true&JigyosyoCd=3062490168-00&ServiceCd=130&Type=search", "url2": "sanyofukushikai.com/" }, "geometry": { "type": "Point", "coordinates": [ 135.3878317, 33.6010445 ] } },
{ "type": "Feature", "properties": { "内容": "公益財団法人白浜医療福祉財団訪問看護ステーションたんぽぽ【訪問看護】和歌山県西牟婁郡白浜町1447番地", "url": "https://www.kaigokensaku.mhlw.go.jp/30/index.php?action_kouhyou_detail_004_kani=true&JigyosyoCd=3062490028-00&ServiceCd=130&Type=search", "url2": "http://www.hamayu-hp.or.jp" }, "geometry": { "type": "Point", "coordinates": [ 135.348065499999962, 33.6781671 ] } },
{ "type": "Feature", "properties": { "内容": "訪問看護ステーションえーる【訪問看護】和歌山県西牟婁郡白浜町内ノ川573番地の1", "url": "https://www.kaigokensaku.mhlw.go.jp/30/index.php?action_kouhyou_detail_004_kani=true&JigyosyoCd=3062490176-00&ServiceCd=130&Type=search", "url2": null }, "geometry": { "type": "Point", "coordinates": [ 135.409405, 33.6737992 ] } },
{ "type": "Feature", "properties": { "内容": "訪問看護ステーション南紀【訪問看護】西牟婁郡白浜町富田６９９－１", "url": "https://www.kaigokensaku.mhlw.go.jp/30/index.php?action_kouhyou_detail_004_kani=true&JigyosyoCd=3062490002-00&ServiceCd=130&Type=search", "url2": "https://www.nankishirahama-fukushikai.or.jp" }, "geometry": { "type": "Point", "coordinates": [ 135.404901699999982, 33.6434636 ] } },
{ "type": "Feature", "properties": { "内容": "訪問看護ステーションすてっぷ【訪問看護】和歌山県西牟婁郡上富田町岩田1776-1南紀医療福祉センター内", "url": "https://www.kaigokensaku.mhlw.go.jp/30/index.php?action_kouhyou_detail_004_kani=true&JigyosyoCd=3062490101-00&ServiceCd=130&Type=search", "url2": "https://wfj.or.jp" }, "geometry": { "type": "Point", "coordinates": [ 135.4442894, 33.7080583 ] } },
{ "type": "Feature", "properties": { "内容": "訪問看護ステーションくりあ【訪問看護】和歌山県西牟婁郡上富田町朝来3295-17", "url": "https://www.kaigokensaku.mhlw.go.jp/30/index.php?action_kouhyou_detail_004_kani=true&JigyosyoCd=3062490143-00&ServiceCd=130&Type=search", "url2": null }, "geometry": { "type": "Point", "coordinates": [ 135.4151956, 33.7070529 ] } },
{ "type": "Feature", "properties": { "内容": "訪問看護ステーションこもれび【訪問看護】和歌山県西牟婁郡上富田町朝来782番地1", "url": "https://www.kaigokensaku.mhlw.go.jp/30/index.php?action_kouhyou_detail_004_kani=true&JigyosyoCd=3062490135-00&ServiceCd=130&Type=search", "url2": "https://nakatani-iin.com/" }, "geometry": { "type": "Point", "coordinates": [ 135.4281, 33.6947109 ] } },
{ "type": "Feature", "properties": { "内容": "たかの訪問看護センター【訪問看護】生馬321番地の74", "url": "https://www.kaigokensaku.mhlw.go.jp/30/index.php?action_kouhyou_detail_004_kani=true&JigyosyoCd=3062490127-00&ServiceCd=130&Type=search", "url2": "https://llcpodemos0722.wixsite.com/takano" }, "geometry": { "type": "Point", "coordinates": [ 135.4307172, 33.7099438 ] } },
{ "type": "Feature", "properties": { "内容": "訪問看護ステーション　ピースフル【訪問看護】和歌山県西牟婁郡上富田町市ノ瀬2407-4", "url": "https://www.kaigokensaku.mhlw.go.jp/30/index.php?action_kouhyou_detail_004_kani=true&JigyosyoCd=3062490119-00&ServiceCd=130&Type=search", "url2": "http://peaceful-mirai.com" }, "geometry": { "type": "Point", "coordinates": [ 135.45982170000002, 33.7205243 ] } },
{ "type": "Feature", "properties": { "内容": "訪問看護ステーションこころ【訪問看護】和歌山県西牟婁郡上富田町朝来2458-1", "url": "https://www.kaigokensaku.mhlw.go.jp/30/index.php?action_kouhyou_detail_004_kani=true&JigyosyoCd=3062490150-00&ServiceCd=130&Type=search", "url2": "https://www.cocolo-since20220801.com" }, "geometry": { "type": "Point", "coordinates": [ 135.418262159524573, 33.696625521254269 ] } },
{ "type": "Feature", "properties": { "内容": "訪問看護ステーション　めぐみ【訪問看護】西牟婁郡上富田町岩田２０６８番地", "url": "https://www.kaigokensaku.mhlw.go.jp/30/index.php?action_kouhyou_detail_004_kani=true&JigyosyoCd=3062490085-00&ServiceCd=130&Type=search", "url2": null }, "geometry": { "type": "Point", "coordinates": [ 135.438068822241547, 33.712589150608835 ] } },
{ "type": "Feature", "properties": { "内容": "国保すさみ病院【訪問看護】和歌山県西牟婁郡すさみ町周参見2916国保すさみ病院", "url": "https://www.kaigokensaku.mhlw.go.jp/30/index.php?action_kouhyou_detail_004_kani=true&JigyosyoCd=3012411090-00&ServiceCd=130&Type=search", "url2": "https://www.town.susami.lg.jp/susami_hospital/index.html" }, "geometry": { "type": "Point", "coordinates": [ 135.5115066, 33.5556231 ] } },
{ "type": "Feature", "properties": { "内容": "SOLEIL訪問看護ステーション【訪問看護】和歌山県東牟婁郡那智勝浦町天満204", "url": "https://www.kaigokensaku.mhlw.go.jp/30/index.php?action_kouhyou_detail_004_kani=true&JigyosyoCd=3062590108-00&ServiceCd=130&Type=search", "url2": null }, "geometry": { "type": "Point", "coordinates": [ 135.9331508, 33.6380697 ] } },
{ "type": "Feature", "properties": { "内容": "訪問看護ステーションフレッタ【訪問看護】和歌山県東牟婁郡那智勝浦町朝日２－２４９", "url": "https://www.kaigokensaku.mhlw.go.jp/30/index.php?action_kouhyou_detail_004_kani=true&JigyosyoCd=3062590082-00&ServiceCd=130&Type=search", "url2": "https://llcneo.webnode.jp/" }, "geometry": { "type": "Point", "coordinates": [ 135.937129659117033, 33.630885973860003 ] } },
{ "type": "Feature", "properties": { "内容": "訪問看護ステーション　すずらん【訪問看護】和歌山県那智勝浦町宇久井714-3", "url": "https://www.kaigokensaku.mhlw.go.jp/30/index.php?action_kouhyou_detail_004_kani=true&JigyosyoCd=3062590116-00&ServiceCd=130&Type=search", "url2": "http://rupinasu.jp/" }, "geometry": { "type": "Point", "coordinates": [ 135.982916493254123, 33.659540355358395 ] } },
{ "type": "Feature", "properties": { "内容": "リハビリ訪問看護センターやたがらす【訪問看護】和歌山県東牟婁郡那智勝浦町宇久井１７３０番地３２４", "url": "https://www.kaigokensaku.mhlw.go.jp/30/index.php?action_kouhyou_detail_004_kani=true&JigyosyoCd=3062590066-00&ServiceCd=130&Type=search", "url2": "https://tryad.co.jp/" }, "geometry": { "type": "Point", "coordinates": [ 135.961750677944593, 33.657857073901909 ] } },
{ "type": "Feature", "properties": { "内容": "訪問看護ステーションみなと【訪問看護】和歌山県東牟婁郡那智勝浦町天満１５９５－２２", "url": "https://www.kaigokensaku.mhlw.go.jp/30/index.php?action_kouhyou_detail_004_kani=true&JigyosyoCd=3062590124-00&ServiceCd=130&Type=search", "url2": null }, "geometry": { "type": "Point", "coordinates": [ 135.9326285, 33.6358692 ] } },
{ "type": "Feature", "properties": { "内容": "はまゆう訪問看護ステーション【訪問看護】和歌山県東牟婁郡那智勝浦町朝日１丁目６０木下医院３階", "url": "https://www.kaigokensaku.mhlw.go.jp/30/index.php?action_kouhyou_detail_004_kani=true&JigyosyoCd=3062590009-00&ServiceCd=130&Type=search", "url2": null }, "geometry": { "type": "Point", "coordinates": [ 135.9394668, 33.6257439 ] } },
{ "type": "Feature", "properties": { "内容": "訪問看護ステーション　ちょうりつ【訪問看護】和歌山県東牟婁郡那智勝浦町大字天満１１８５番地４那智勝浦町立温泉病院", "url": "https://www.kaigokensaku.mhlw.go.jp/30/index.php?action_kouhyou_detail_004_kani=true&JigyosyoCd=3062590132-00&ServiceCd=130&Type=search", "url2": "https://onsenhsp.com/" }, "geometry": { "type": "Point", "coordinates": [ 135.9375588, 33.62641480000002 ] } },
{ "type": "Feature", "properties": { "内容": "南紀訪問看護ステーション【訪問看護】和歌山県東牟婁郡太地町大字太地4200-4", "url": "https://www.kaigokensaku.mhlw.go.jp/30/index.php?action_kouhyou_detail_004_kani=true&JigyosyoCd=3062590157-00&ServiceCd=130&Type=search", "url2": null }, "geometry": { "type": "Point", "coordinates": [ 135.945719200000013, 33.595976 ] } },
{ "type": "Feature", "properties": { "内容": "高瀬会訪問看護ステーション【訪問看護】和歌山県東牟婁郡古座川町高瀬４０６番地", "url": "https://www.kaigokensaku.mhlw.go.jp/30/index.php?action_kouhyou_detail_004_kani=true&JigyosyoCd=3062590033-00&ServiceCd=130&Type=search", "url2": "http://www.takasekai.or.jp/" }, "geometry": { "type": "Point", "coordinates": [ 135.778481913302357, 33.535034357870451 ] } },
{ "type": "Feature", "properties": { "内容": "くしもと町立病院【訪問看護】和歌山県東牟婁郡串本町サンゴ台691-7くしもと町立病院", "url": "https://www.kaigokensaku.mhlw.go.jp/30/index.php?action_kouhyou_detail_004_kani=true&JigyosyoCd=3018010607-00&ServiceCd=130&Type=search", "url2": "hsp.kushimoto.wakayama.jp" }, "geometry": { "type": "Point", "coordinates": [ 135.784112, 33.4851246 ] } },
{ "type": "Feature", "properties": { "内容": "くしもと町立病院【訪問看護】和歌山県東牟婁郡串本町サンゴ台691番地7くしもと町立病院", "url": "https://www.kaigokensaku.mhlw.go.jp/30/index.php?action_kouhyou_detail_004_kani=true&JigyosyoCd=3062590140-00&ServiceCd=130&Type=search", "url2": "http://www.hsp.kushimoto.wakayama.jp/" }, "geometry": { "type": "Point", "coordinates": [ 135.784612099999975, 33.48470720000001 ] } },
{ "type": "Feature", "properties": { "内容": "訪問看護ステーションりあん【訪問看護】和歌山県東牟婁郡串本町串本10-13", "url": "https://www.kaigokensaku.mhlw.go.jp/30/index.php?action_kouhyou_detail_004_kani=true&JigyosyoCd=3062590165-00&ServiceCd=130&Type=search", "url2": null }, "geometry": { "type": "Point", "coordinates": [ 135.782563, 33.4764711 ] } },
{ "type": "Feature", "properties": { "内容": "健佑訪問看護ステーション【訪問看護】和歌山県東牟婁郡串本町串本2383", "url": "https://www.kaigokensaku.mhlw.go.jp/30/index.php?action_kouhyou_detail_004_kani=true&JigyosyoCd=3062490010-00&ServiceCd=130&Type=search", "url2": "http://www.i-kenyukai.com" }, "geometry": { "type": "Point", "coordinates": [ 135.782512099999963, 33.4729144 ] } }
]
}
