{
"type": "FeatureCollection",
"name": "geo_30_専修学校",
"crs": { "type": "name", "properties": { "name": "urn:ogc:def:crs:EPSG::6668" } },
"features": [
{ "type": "Feature", "properties": { "P29_001": "30206", "P29_002": "H130210000010", "P29_003": "16016", "P29_004": "紀南看護専門学校", "P29_005": "和歌山県田辺市新庄町225-135", "P29_006": "3", "P29_007": "0", "P29_008": "00", "P29_009": null }, "geometry": { "type": "Point", "coordinates": [ 135.40575784752528, 33.730783081774931 ] } },
{ "type": "Feature", "properties": { "P29_001": "30208", "P29_002": "H130210000029", "P29_003": "16016", "P29_004": "和歌山県立高等看護学院", "P29_005": "和歌山県紀の川市西野山505-1", "P29_006": "2", "P29_007": "0", "P29_008": "00", "P29_009": null }, "geometry": { "type": "Point", "coordinates": [ 135.4401723996736, 34.281134922360991 ] } },
{ "type": "Feature", "properties": { "P29_001": "30207", "P29_002": "H130210000038", "P29_003": "16016", "P29_004": "和歌山県立なぎ看護学校", "P29_005": "和歌山県新宮市蜂伏20-39", "P29_006": "2", "P29_007": "0", "P29_008": "00", "P29_009": null }, "geometry": { "type": "Point", "coordinates": [ 135.963240802442755, 33.68724723956133 ] } },
{ "type": "Feature", "properties": { "P29_001": "30341", "P29_002": "H130210000047", "P29_003": "16016", "P29_004": "和歌山県農林大学校", "P29_005": "和歌山県伊都郡かつらぎ町中飯降422", "P29_006": "2", "P29_007": "0", "P29_008": "00", "P29_009": null }, "geometry": { "type": "Point", "coordinates": [ 135.529196479325179, 34.308248422791074 ] } },
{ "type": "Feature", "properties": { "P29_001": "30304", "P29_002": "H130210000056", "P29_003": "16016", "P29_004": "国保野上厚生総合病院附属看護専門学校", "P29_005": "和歌山県海草郡紀美野町小畑165-4", "P29_006": "0", "P29_007": "0", "P29_008": "00", "P29_009": null }, "geometry": { "type": "Point", "coordinates": [ 135.294913907398609, 34.162568769015479 ] } },
{ "type": "Feature", "properties": { "P29_001": "30205", "P29_002": "H130210000065", "P29_003": "16016", "P29_004": "日高看護専門学校", "P29_005": "和歌山県御坊市薗116-2", "P29_006": "3", "P29_007": "0", "P29_008": "00", "P29_009": null }, "geometry": { "type": "Point", "coordinates": [ 135.15402903296237, 33.896224068040155 ] } },
{ "type": "Feature", "properties": { "P29_001": "30201", "P29_002": "H130310000027", "P29_003": "16016", "P29_004": "オカファッションデザイン専門学校", "P29_005": "和歌山県和歌山市吹上2-3-1", "P29_006": "4", "P29_007": "0", "P29_008": "00", "P29_009": null }, "geometry": { "type": "Point", "coordinates": [ 135.169560429056673, 34.222392211005243 ] } },
{ "type": "Feature", "properties": { "P29_001": "30201", "P29_002": "H130310000036", "P29_003": "16016", "P29_004": "和歌山県歯科衛生士専門学校", "P29_005": "和歌山県和歌山市築港1-4-7", "P29_006": "4", "P29_007": "0", "P29_008": "00", "P29_009": null }, "geometry": { "type": "Point", "coordinates": [ 135.157833046097664, 34.224607660874142 ] } },
{ "type": "Feature", "properties": { "P29_001": "30201", "P29_002": "H130310000045", "P29_003": "16016", "P29_004": "和歌山コンピュ－タビジネス専門学校", "P29_005": "和歌山県和歌山市黒田41-1", "P29_006": "4", "P29_007": "0", "P29_008": "00", "P29_009": null }, "geometry": { "type": "Point", "coordinates": [ 135.197542418568247, 34.233514023889086 ] } },
{ "type": "Feature", "properties": { "P29_001": "30201", "P29_002": "H130310000054", "P29_003": "16016", "P29_004": "学校法人平成医療学園　和歌山看護専門学校", "P29_005": "和歌山県和歌山市西庄1107-26", "P29_006": "4", "P29_007": "0", "P29_008": "00", "P29_009": null }, "geometry": { "type": "Point", "coordinates": [ 135.117813512407366, 34.269490534867124 ] } },
{ "type": "Feature", "properties": { "P29_001": "30202", "P29_002": "H130310000063", "P29_003": "16016", "P29_004": "海南文化服装学院", "P29_005": "和歌山県海南市日方1201", "P29_006": "4", "P29_007": "0", "P29_008": "00", "P29_009": null }, "geometry": { "type": "Point", "coordinates": [ 135.21093528332122, 34.157463307122001 ] } },
{ "type": "Feature", "properties": { "P29_001": "30201", "P29_002": "H130310000072", "P29_003": "16016", "P29_004": "専修学校和歌山英数学館", "P29_005": "和歌山県和歌山市太田2-13-12", "P29_006": "4", "P29_007": "0", "P29_008": "00", "P29_009": null }, "geometry": { "type": "Point", "coordinates": [ 135.195012976955354, 34.232144517665759 ] } },
{ "type": "Feature", "properties": { "P29_001": "30201", "P29_002": "H130310000081", "P29_003": "16016", "P29_004": "和歌山国際厚生学院", "P29_005": "和歌山県和歌山市北野229-2", "P29_006": "4", "P29_007": "0", "P29_008": "00", "P29_009": null }, "geometry": { "type": "Point", "coordinates": [ 135.244011306605813, 34.264609191023425 ] } },
{ "type": "Feature", "properties": { "P29_001": "30201", "P29_002": "H130310000090", "P29_003": "16016", "P29_004": "大原簿記法律＆美容製菓専門学校和歌山校", "P29_005": "和歌山県和歌山市黒田88-1", "P29_006": "4", "P29_007": "0", "P29_008": "00", "P29_009": null }, "geometry": { "type": "Point", "coordinates": [ 135.191447889826662, 34.234080782665735 ] } },
{ "type": "Feature", "properties": { "P29_001": "30201", "P29_002": "H130310000107", "P29_003": "16016", "P29_004": "和歌山ＹＭＣＡ国際福祉専門学校", "P29_005": "和歌山県和歌山市太田1-12-13", "P29_006": "4", "P29_007": "0", "P29_008": "00", "P29_009": null }, "geometry": { "type": "Point", "coordinates": [ 135.193629875225099, 34.231571430320706 ] } },
{ "type": "Feature", "properties": { "P29_001": "30201", "P29_002": "H130310000116", "P29_003": "16016", "P29_004": "ＩＢＷ美容専門学校", "P29_005": "和歌山県和歌山市南汀丁16", "P29_006": "4", "P29_007": "0", "P29_008": "00", "P29_009": null }, "geometry": { "type": "Point", "coordinates": [ 135.168466706291895, 34.229295063704825 ] } },
{ "type": "Feature", "properties": { "P29_001": "30362", "P29_002": "H130310000125", "P29_003": "16016", "P29_004": "和歌山社会福祉専門学校", "P29_005": "和歌山県有田郡広川町下津木1105", "P29_006": "4", "P29_007": "0", "P29_008": "00", "P29_009": null }, "geometry": { "type": "Point", "coordinates": [ 135.215318064717763, 33.978643780954116 ] } },
{ "type": "Feature", "properties": { "P29_001": "30203", "P29_002": "H130310000134", "P29_003": "16016", "P29_004": "きのくに国際高等専修学校", "P29_005": "和歌山県橋本市彦谷51", "P29_006": "4", "P29_007": "0", "P29_008": "00", "P29_009": null }, "geometry": { "type": "Point", "coordinates": [ 135.642652528206213, 34.282429134288734 ] } },
{ "type": "Feature", "properties": { "P29_001": "30201", "P29_002": "H130310000143", "P29_003": "16016", "P29_004": "和歌山市医師会看護専門学校", "P29_005": "和歌山県和歌山市西高松2-13-34", "P29_006": "4", "P29_007": "0", "P29_008": "00", "P29_009": null }, "geometry": { "type": "Point", "coordinates": [ 135.168987032464571, 34.204561510124293 ] } },
{ "type": "Feature", "properties": { "P29_001": "30201", "P29_002": "H130310000152", "P29_003": "16016", "P29_004": "和歌山グローバルビジネスカレッジ", "P29_005": "和歌山県和歌山市駿河町21", "P29_006": "4", "P29_007": "0", "P29_008": "00", "P29_009": null }, "geometry": { "type": "Point", "coordinates": [ 135.173828043266525, 34.233269198421176 ] } },
{ "type": "Feature", "properties": { "P29_001": "30201", "P29_002": "H130310000161", "P29_003": "16016", "P29_004": "大原情報医療保育専門学校和歌山校", "P29_005": "和歌山県和歌山市黒田88-1", "P29_006": "4", "P29_007": "0", "P29_008": "00", "P29_009": null }, "geometry": { "type": "Point", "coordinates": [ 135.191315218897358, 34.234312728917224 ] } },
{ "type": "Feature", "properties": { "P29_001": "30201", "P29_002": "H130310000170", "P29_003": "16016", "P29_004": "和歌山高等美容専門学校", "P29_005": "和歌山県和歌山市小人町32", "P29_006": "4", "P29_007": "0", "P29_008": "00", "P29_009": null }, "geometry": { "type": "Point", "coordinates": [ 135.167116283323594, 34.230526882850555 ] } },
{ "type": "Feature", "properties": { "P29_001": "30204", "P29_002": "H130310000189", "P29_003": "16016", "P29_004": "和歌山医療スポーツ専門学校", "P29_005": "和歌山県有田市初島町里1350-1", "P29_006": "4", "P29_007": "0", "P29_008": "00", "P29_009": null }, "geometry": { "type": "Point", "coordinates": [ 135.122934057100991, 34.100236710976468 ] } }
]
}
