{
"type": "FeatureCollection",
"name": "geo_30_夜間対応型訪問介護",
"crs": { "type": "name", "properties": { "name": "urn:ogc:def:crs:OGC:1.3:CRS84" } },
"features": [
{ "type": "Feature", "properties": { "内容": "訪問介護Ｌｉｎｏ【夜間対応型訪問介護】和歌山県東牟婁郡那智勝浦町天満697-1", "url": "https://www.kaigokensaku.mhlw.go.jp/30/index.php?action_kouhyou_detail_004_kani=true&JigyosyoCd=3072501111-00&ServiceCd=710&Type=search", "url2": "https://lino-kaigo.com/" }, "geometry": { "type": "Point", "coordinates": [ 135.9351196, 33.6341861 ] } }
]
}
