{
"type": "FeatureCollection",
"name": "geo_30_介護医療院",
"crs": { "type": "name", "properties": { "name": "urn:ogc:def:crs:OGC:1.3:CRS84" } },
"features": [
{ "type": "Feature", "properties": { "内容": "藤民病院介護医療院　さくらの家ふじたみ【介護医療院】和歌山県和歌山市塩屋３丁目６番２号", "url": "https://www.kaigokensaku.mhlw.go.jp/30/index.php?action_kouhyou_detail_004_kani=true&JigyosyoCd=30B0100016-00&ServiceCd=550&Type=search", "url2": "https://www.fujitami.jp/" }, "geometry": { "type": "Point", "coordinates": [ 135.175701299999986, 34.1979731 ] } },
{ "type": "Feature", "properties": { "内容": "伏虎リハビリテーション病院【介護医療院】畑屋敷東ノ丁1番地", "url": "https://www.kaigokensaku.mhlw.go.jp/30/index.php?action_kouhyou_detail_004_kani=true&JigyosyoCd=30B0100040-00&ServiceCd=550&Type=search", "url2": "https://nakatani.wakayama.jp/" }, "geometry": { "type": "Point", "coordinates": [ 135.18285310660707, 34.235291781718828 ] } },
{ "type": "Feature", "properties": { "内容": "介護医療院ふじの郷【介護医療院】岡山丁71", "url": "https://www.kaigokensaku.mhlw.go.jp/30/index.php?action_kouhyou_detail_004_kani=true&JigyosyoCd=30B0100024-00&ServiceCd=550&Type=search", "url2": "https://koujin.co/setoh-hp/" }, "geometry": { "type": "Point", "coordinates": [ 135.1762041, 34.226688 ] } },
{ "type": "Feature", "properties": { "内容": "医療法人　弘愛会　黒田医院【介護医療院】古屋６４番地", "url": "https://www.kaigokensaku.mhlw.go.jp/30/index.php?action_kouhyou_detail_004_kani=true&JigyosyoCd=30B0100032-00&ServiceCd=550&Type=search", "url2": "http：//gokidoc.net/kansai/nigata/30201/3701-00000000-006/clinic_top/" }, "geometry": { "type": "Point", "coordinates": [ 135.120481, 34.256494 ] } },
{ "type": "Feature", "properties": { "内容": "玉置病院介護医療院【介護医療院】和歌山県田辺市上屋敷二丁目５番１号", "url": "https://www.kaigokensaku.mhlw.go.jp/30/index.php?action_kouhyou_detail_004_kani=true&JigyosyoCd=30B2200012-00&ServiceCd=550&Type=search", "url2": "http://www.aikis.or.jp/~tamakihp/" }, "geometry": { "type": "Point", "coordinates": [ 135.376225200000022, 33.7308977 ] } },
{ "type": "Feature", "properties": { "内容": "稲穂会病院　介護医療院【介護医療院】紀の川市粉河756-3", "url": "https://www.kaigokensaku.mhlw.go.jp/30/index.php?action_kouhyou_detail_004_kani=true&JigyosyoCd=30B1700012-00&ServiceCd=550&Type=search", "url2": "http://inahokaihp.or.jp/" }, "geometry": { "type": "Point", "coordinates": [ 135.404266299999989, 34.2678334 ] } },
{ "type": "Feature", "properties": { "内容": "介護医療院やよい苑【介護医療院】和歌山県岩出市中迫３８０", "url": "https://www.kaigokensaku.mhlw.go.jp/30/index.php?action_kouhyou_detail_004_kani=true&JigyosyoCd=30B1800028-00&ServiceCd=550&Type=search", "url2": "https://www.yaeikai.com" }, "geometry": { "type": "Point", "coordinates": [ 135.3149521, 34.2617948 ] } },
{ "type": "Feature", "properties": { "内容": "富田病院介護医療院【介護医療院】和歌山県岩出市紀泉台2", "url": "https://www.kaigokensaku.mhlw.go.jp/30/index.php?action_kouhyou_detail_004_kani=true&JigyosyoCd=30B1800010-00&ServiceCd=550&Type=search", "url2": "http://www.tomita.or.jp/" }, "geometry": { "type": "Point", "coordinates": [ 135.2934836, 34.2807775 ] } },
{ "type": "Feature", "properties": { "内容": "白浜小南病院介護医療院【介護医療院】和歌山県西牟婁郡白浜町3220-9", "url": "https://www.kaigokensaku.mhlw.go.jp/30/index.php?action_kouhyou_detail_004_kani=true&JigyosyoCd=30B2400026-00&ServiceCd=550&Type=search", "url2": null }, "geometry": { "type": "Point", "coordinates": [ 135.356087784085503, 33.68026817132364 ] } },
{ "type": "Feature", "properties": { "内容": "白浜はまゆう病院介護医療院【介護医療院】和歌山県西牟婁郡白浜町1447", "url": "https://www.kaigokensaku.mhlw.go.jp/30/index.php?action_kouhyou_detail_004_kani=true&JigyosyoCd=30B2400018-00&ServiceCd=550&Type=search", "url2": "http://www.hamayu-hp.or.jp/" }, "geometry": { "type": "Point", "coordinates": [ 135.3482172, 33.6818241 ] } },
{ "type": "Feature", "properties": { "内容": "串本有田病院介護医療院【介護医療院】和歌山県東牟婁郡串本町有田499-1", "url": "https://www.kaigokensaku.mhlw.go.jp/30/index.php?action_kouhyou_detail_004_kani=true&JigyosyoCd=30B2500015-00&ServiceCd=550&Type=search", "url2": "http://i-kenyukai.com" }, "geometry": { "type": "Point", "coordinates": [ 135.7383884, 33.4946205 ] } },
{ "type": "Feature", "properties": { "内容": "くしもと町立病院介護医療院【介護医療院】和歌山県東牟婁郡串本町サンゴ台691-7", "url": "https://www.kaigokensaku.mhlw.go.jp/30/index.php?action_kouhyou_detail_004_kani=true&JigyosyoCd=30B2500023-00&ServiceCd=550&Type=search", "url2": "www.hsp.kushimoto.wakayama.jp" }, "geometry": { "type": "Point", "coordinates": [ 135.784112, 33.4851246 ] } }
]
}
