{
"type": "FeatureCollection",
"name": "geo_30_介護療養型医療施設",
"crs": { "type": "name", "properties": { "name": "urn:ogc:def:crs:OGC:1.3:CRS84" } },
"features": [
{ "type": "Feature", "properties": { "内容": "医療法人　匡慈会　伏虎リハビリテーション病院【介護療養型医療施設】和歌山市屋形町1丁目１１番地", "url": "https://www.kaigokensaku.mhlw.go.jp/30/index.php?action_kouhyou_detail_004_kani=true&JigyosyoCd=3010110512-00&ServiceCd=530&Type=search", "url2": "http://nakatani.wakayama.jp/" }, "geometry": { "type": "Point", "coordinates": [ 135.177091, 34.2313808 ] } }
]
}
