{
"type": "FeatureCollection",
"name": "geo_30_特定施設入居者生活介護（軽費老人ホーム）",
"crs": { "type": "name", "properties": { "name": "urn:ogc:def:crs:OGC:1.3:CRS84" } },
"features": [
{ "type": "Feature", "properties": { "内容": "ケアハウスバイオレット【特定施設入居者生活介護（軽費老人ホーム）】和歌山市平尾2番地1", "url": "https://www.kaigokensaku.mhlw.go.jp/30/index.php?action_kouhyou_detail_004_kani=true&JigyosyoCd=3070103480-00&ServiceCd=332&Type=search", "url2": "https://www.jukeikai.jp/" }, "geometry": { "type": "Point", "coordinates": [ 135.244989199999964, 34.2077125 ] } },
{ "type": "Feature", "properties": { "内容": "社会福祉法人相和会　ケアハウス　かつらぎ乃里【特定施設入居者生活介護（軽費老人ホーム）】和歌山県伊都郡かつらぎ町大字柏木字平山東尾848番地", "url": "https://www.kaigokensaku.mhlw.go.jp/30/index.php?action_kouhyou_detail_004_kani=true&JigyosyoCd=3071300754-00&ServiceCd=332&Type=search", "url2": "http://www18.ocn.ne.jp/~souwakai/" }, "geometry": { "type": "Point", "coordinates": [ 135.492154, 34.307955 ] } },
{ "type": "Feature", "properties": { "内容": "ケアハウス　ヘリオス【特定施設入居者生活介護（軽費老人ホーム）】和歌山県有田郡広川町和田１８番地", "url": "https://www.kaigokensaku.mhlw.go.jp/30/index.php?action_kouhyou_detail_004_kani=true&JigyosyoCd=3071600823-00&ServiceCd=332&Type=search", "url2": "http://w-himawarikai.or.jp/" }, "geometry": { "type": "Point", "coordinates": [ 135.163779057008355, 34.025425895363405 ] } },
{ "type": "Feature", "properties": { "内容": "軽費老人ホームケアハウス博愛みちしお【特定施設入居者生活介護（軽費老人ホーム）】和歌山県日高郡日高町阿尾646", "url": "https://www.kaigokensaku.mhlw.go.jp/30/index.php?action_kouhyou_detail_004_kani=true&JigyosyoCd=3072100534-00&ServiceCd=332&Type=search", "url2": null }, "geometry": { "type": "Point", "coordinates": [ 135.071630899999946, 33.9037765 ] } }
]
}
