{
"type": "FeatureCollection",
"name": "geo_30_地域密着型特定施設入居者生活介護（有料老人ホーム）",
"crs": { "type": "name", "properties": { "name": "urn:ogc:def:crs:OGC:1.3:CRS84" } },
"features": [
{ "type": "Feature", "properties": { "内容": "地域密着型特定施設　サンオーク紀伊【地域密着型特定施設入居者生活介護（有料老人ホーム）】和歌山市北野291番地", "url": "https://www.kaigokensaku.mhlw.go.jp/30/index.php?action_kouhyou_detail_004_kani=true&JigyosyoCd=3090100508-00&ServiceCd=361&Type=search", "url2": "http://www.kiseikai-w.or.jp" }, "geometry": { "type": "Point", "coordinates": [ 135.2483651, 34.2684822 ] } },
{ "type": "Feature", "properties": { "内容": "ファミールハウス【地域密着型特定施設入居者生活介護（有料老人ホーム）】和歌山県西牟婁郡上富田町岡627-1", "url": "https://www.kaigokensaku.mhlw.go.jp/30/index.php?action_kouhyou_detail_004_kani=true&JigyosyoCd=3092400013-00&ServiceCd=361&Type=search", "url2": null }, "geometry": { "type": "Point", "coordinates": [ 135.4442536, 33.7238468 ] } }
]
}
