{
"type": "FeatureCollection",
"name": "geo_30_介護老人福祉施設",
"crs": { "type": "name", "properties": { "name": "urn:ogc:def:crs:OGC:1.3:CRS84" } },
"features": [
{ "type": "Feature", "properties": { "内容": "特別養護老人ホーム　ソンリッサきみさと【介護老人福祉施設】和歌山市つつじが丘５丁目３番地２", "url": "https://www.kaigokensaku.mhlw.go.jp/30/index.php?action_kouhyou_detail_004_kani=true&JigyosyoCd=3070102631-00&ServiceCd=510&Type=search", "url2": "http://www.medi-wel.jp/" }, "geometry": { "type": "Point", "coordinates": [ 135.101475100000016, 34.265976 ] } },
{ "type": "Feature", "properties": { "内容": "特別養護老人ホーム　すこやか【介護老人福祉施設】和歌山市和田５８３－１", "url": "https://www.kaigokensaku.mhlw.go.jp/30/index.php?action_kouhyou_detail_004_kani=true&JigyosyoCd=3070106905-00&ServiceCd=510&Type=search", "url2": "http://www.santa-sukoyaka.or.jp/" }, "geometry": { "type": "Point", "coordinates": [ 135.2120804, 34.2044372 ] } },
{ "type": "Feature", "properties": { "内容": "特別養護老人ホームグランリーフ【介護老人福祉施設】和歌山市南片原２丁目１２番地", "url": "https://www.kaigokensaku.mhlw.go.jp/30/index.php?action_kouhyou_detail_004_kani=true&JigyosyoCd=3070100809-00&ServiceCd=510&Type=search", "url2": "asibe-so＠crocus.ocn.ne.jp" }, "geometry": { "type": "Point", "coordinates": [ 135.184326700000042, 34.2238236 ] } },
{ "type": "Feature", "properties": { "内容": "特別養護老人ホーム　わかうら園【介護老人福祉施設】和歌山市田野175番地社会福祉法人　わかうら会", "url": "https://www.kaigokensaku.mhlw.go.jp/30/index.php?action_kouhyou_detail_004_kani=true&JigyosyoCd=3070100783-00&ServiceCd=510&Type=search", "url2": "https://wakaurakai.or.jp/" }, "geometry": { "type": "Point", "coordinates": [ 135.150213300000019, 34.1856602 ] } },
{ "type": "Feature", "properties": { "内容": "特別養護老人ホームアンシアナトー【介護老人福祉施設】和歌山市松江東1丁目７－２５", "url": "https://www.kaigokensaku.mhlw.go.jp/30/index.php?action_kouhyou_detail_004_kani=true&JigyosyoCd=3070100759-00&ServiceCd=510&Type=search", "url2": "https://www.ancianatio.com/" }, "geometry": { "type": "Point", "coordinates": [ 135.134546099999966, 34.2438399 ] } },
{ "type": "Feature", "properties": { "内容": "特別養護老人ホーム　紀伊松風苑【介護老人福祉施設】和歌山市園部1668番地の1", "url": "https://www.kaigokensaku.mhlw.go.jp/30/index.php?action_kouhyou_detail_004_kani=true&JigyosyoCd=3070100676-00&ServiceCd=510&Type=search", "url2": "http://www.kii-shoufuuen.jp/" }, "geometry": { "type": "Point", "coordinates": [ 135.18885, 34.2717885 ] } },
{ "type": "Feature", "properties": { "内容": "特別養護老人ホーム紀三井寺苑【介護老人福祉施設】和歌山県和歌山市紀三井寺560－2", "url": "https://www.kaigokensaku.mhlw.go.jp/30/index.php?action_kouhyou_detail_004_kani=true&JigyosyoCd=3070100791-00&ServiceCd=510&Type=search", "url2": "https://www.kisan.or.jp" }, "geometry": { "type": "Point", "coordinates": [ 135.184724499999987, 34.1813398 ] } },
{ "type": "Feature", "properties": { "内容": "特別養護老人ホーム紀三井寺苑【介護老人福祉施設】和歌山県和歌山市紀三井寺560-2", "url": "https://www.kaigokensaku.mhlw.go.jp/30/index.php?action_kouhyou_detail_004_kani=true&JigyosyoCd=3070110295-00&ServiceCd=510&Type=search", "url2": "https://www.kisan.or.jp" }, "geometry": { "type": "Point", "coordinates": [ 135.184724499999987, 34.1813398 ] } },
{ "type": "Feature", "properties": { "内容": "特別養護老人ホーム西庄園【介護老人福祉施設】和歌山市西庄1133-2", "url": "https://www.kaigokensaku.mhlw.go.jp/30/index.php?action_kouhyou_detail_004_kani=true&JigyosyoCd=3070100775-00&ServiceCd=510&Type=search", "url2": "http://seisyoen-minori.jp/" }, "geometry": { "type": "Point", "coordinates": [ 135.112891399999967, 34.2642096 ] } },
{ "type": "Feature", "properties": { "内容": "特別養護老人ホーム親和園【介護老人福祉施設】和歌山市杭ノ瀬255番地の2", "url": "https://www.kaigokensaku.mhlw.go.jp/30/index.php?action_kouhyou_detail_004_kani=true&JigyosyoCd=3070100692-00&ServiceCd=510&Type=search", "url2": "http://shinwaen.jp" }, "geometry": { "type": "Point", "coordinates": [ 135.189387799999963, 34.2110836 ] } },
{ "type": "Feature", "properties": { "内容": "特別養護老人ホーム　竹の里園【介護老人福祉施設】和歌山市明王寺３－１", "url": "https://www.kaigokensaku.mhlw.go.jp/30/index.php?action_kouhyou_detail_004_kani=true&JigyosyoCd=3070100817-00&ServiceCd=510&Type=search", "url2": "https://www.takenosatoen.jp" }, "geometry": { "type": "Point", "coordinates": [ 135.254191200000037, 34.2133121 ] } },
{ "type": "Feature", "properties": { "内容": "特別養護老人ホーム喜成会【介護老人福祉施設】和歌山市北野128番地", "url": "https://www.kaigokensaku.mhlw.go.jp/30/index.php?action_kouhyou_detail_004_kani=true&JigyosyoCd=3070100684-00&ServiceCd=510&Type=search", "url2": "http://www.kiseikai-w.or.jp/" }, "geometry": { "type": "Point", "coordinates": [ 135.249619722090188, 34.2651340981622 ] } },
{ "type": "Feature", "properties": { "内容": "特別養護老人ホーム　紀伊てまり苑【介護老人福祉施設】和歌山市西田井２２４番地", "url": "https://www.kaigokensaku.mhlw.go.jp/30/index.php?action_kouhyou_detail_004_kani=true&JigyosyoCd=3070100767-00&ServiceCd=510&Type=search", "url2": "https://www.kii-fukushikai.or.jp" }, "geometry": { "type": "Point", "coordinates": [ 135.232952699999942, 34.2574743 ] } },
{ "type": "Feature", "properties": { "内容": "特別養護老人ホーム　第二親和園【介護老人福祉施設】和歌山市杭ノ瀬462番地の2特別養護老人ホーム第二親和園", "url": "https://www.kaigokensaku.mhlw.go.jp/30/index.php?action_kouhyou_detail_004_kani=true&JigyosyoCd=3070100700-00&ServiceCd=510&Type=search", "url2": "http://shinwaen.jp" }, "geometry": { "type": "Point", "coordinates": [ 135.189710200000036, 34.2021291 ] } },
{ "type": "Feature", "properties": { "内容": "特別養護老人ホーム大日山荘【介護老人福祉施設】和歌山市平尾2番地1", "url": "https://www.kaigokensaku.mhlw.go.jp/30/index.php?action_kouhyou_detail_004_kani=true&JigyosyoCd=3070100718-00&ServiceCd=510&Type=search", "url2": "http://www.jukeikai.jp/" }, "geometry": { "type": "Point", "coordinates": [ 135.244849725131218, 34.206918380654287 ] } },
{ "type": "Feature", "properties": { "内容": "特別養護老人ホームあんず苑【介護老人福祉施設】和歌山市東田中３０７番地", "url": "https://www.kaigokensaku.mhlw.go.jp/30/index.php?action_kouhyou_detail_004_kani=true&JigyosyoCd=3070104793-00&ServiceCd=510&Type=search", "url2": "anzu-en.com" }, "geometry": { "type": "Point", "coordinates": [ 135.281943599999977, 34.2371267 ] } },
{ "type": "Feature", "properties": { "内容": "特別養護老人ホーム第2あんず苑【介護老人福祉施設】和歌山県和歌山市東田中307番地", "url": "https://www.kaigokensaku.mhlw.go.jp/30/index.php?action_kouhyou_detail_004_kani=true&JigyosyoCd=3070113653-00&ServiceCd=510&Type=search", "url2": "http://anzu-en.com/" }, "geometry": { "type": "Point", "coordinates": [ 135.28194849999997, 34.2370085 ] } },
{ "type": "Feature", "properties": { "内容": "特別養護老人ホーム山口葵園【介護老人福祉施設】和歌山市藤田２５－１", "url": "https://www.kaigokensaku.mhlw.go.jp/30/index.php?action_kouhyou_detail_004_kani=true&JigyosyoCd=3070100734-00&ServiceCd=510&Type=search", "url2": "https://y-aoikai.or.jp" }, "geometry": { "type": "Point", "coordinates": [ 135.262997400000017, 34.2647688 ] } },
{ "type": "Feature", "properties": { "内容": "特別養護老人ホーム　山口葵園ホーリーユニット【介護老人福祉施設】和歌山県和歌山市藤田２５－１", "url": "https://www.kaigokensaku.mhlw.go.jp/30/index.php?action_kouhyou_detail_004_kani=true&JigyosyoCd=3070110253-00&ServiceCd=510&Type=search", "url2": "http://www.y-aoikai.or.jp" }, "geometry": { "type": "Point", "coordinates": [ 135.263528477384966, 34.264449594984342 ] } },
{ "type": "Feature", "properties": { "内容": "特別養護老人ホームほうらい苑【介護老人福祉施設】和歌山市新和歌浦２番９号", "url": "https://www.kaigokensaku.mhlw.go.jp/30/index.php?action_kouhyou_detail_004_kani=true&JigyosyoCd=3070106426-00&ServiceCd=510&Type=search", "url2": "http://www.horai-en.com" }, "geometry": { "type": "Point", "coordinates": [ 135.156757199999987, 34.1856963 ] } },
{ "type": "Feature", "properties": { "内容": "特別養護老人ホーム君里苑【介護老人福祉施設】和歌山市木ノ本１８３７番地の１", "url": "https://www.kaigokensaku.mhlw.go.jp/30/index.php?action_kouhyou_detail_004_kani=true&JigyosyoCd=3070100742-00&ServiceCd=510&Type=search", "url2": "http:/www.medi-wel.jp/" }, "geometry": { "type": "Point", "coordinates": [ 135.130007100000057, 34.2653346 ] } },
{ "type": "Feature", "properties": { "内容": "特別養護老人ホームみどりが丘ホーム【介護老人福祉施設】和歌山県和歌山市和佐中213番の１", "url": "https://www.kaigokensaku.mhlw.go.jp/30/index.php?action_kouhyou_detail_004_kani=true&JigyosyoCd=3070100726-00&ServiceCd=510&Type=search", "url2": "https://www.w-midori.jp" }, "geometry": { "type": "Point", "coordinates": [ 135.237799900000027, 34.234679 ] } },
{ "type": "Feature", "properties": { "内容": "介護老人福祉施設　緑風苑【介護老人福祉施設】海南市孟子字波免709-1", "url": "https://www.kaigokensaku.mhlw.go.jp/30/index.php?action_kouhyou_detail_004_kani=true&JigyosyoCd=3071400588-00&ServiceCd=510&Type=search", "url2": "http://ryoku.tokuyou.jp/" }, "geometry": { "type": "Point", "coordinates": [ 135.299867699505654, 34.190369765701917 ] } },
{ "type": "Feature", "properties": { "内容": "特別養護老人ホーム天美苑【介護老人福祉施設】海南市七山９６４－１", "url": "https://www.kaigokensaku.mhlw.go.jp/30/index.php?action_kouhyou_detail_004_kani=true&JigyosyoCd=3071400075-00&ServiceCd=510&Type=search", "url2": "http://www.tenbien.jp/" }, "geometry": { "type": "Point", "coordinates": [ 135.308888799999977, 34.1961325 ] } },
{ "type": "Feature", "properties": { "内容": "特別養護老人ホーム天美苑【介護老人福祉施設】和歌山県海南市七山964-1", "url": "https://www.kaigokensaku.mhlw.go.jp/30/index.php?action_kouhyou_detail_004_kani=true&JigyosyoCd=3071401123-00&ServiceCd=510&Type=search", "url2": "http://www.tenbien.jp/" }, "geometry": { "type": "Point", "coordinates": [ 135.309344775532509, 34.19644309009098 ] } },
{ "type": "Feature", "properties": { "内容": "特別養護老人ホーム南風園【介護老人福祉施設】和歌山県海南市木津２３３番地４０", "url": "https://www.kaigokensaku.mhlw.go.jp/30/index.php?action_kouhyou_detail_004_kani=true&JigyosyoCd=3071500734-00&ServiceCd=510&Type=search", "url2": "https://www.wfj.or.jp" }, "geometry": { "type": "Point", "coordinates": [ 135.275845200000049, 34.154873200000011 ] } },
{ "type": "Feature", "properties": { "内容": "特別養護老人ホーム　かぐのみ苑【介護老人福祉施設】和歌山県海南市下津町丸田１１１１－１", "url": "https://www.kaigokensaku.mhlw.go.jp/30/index.php?action_kouhyou_detail_004_kani=true&JigyosyoCd=3071100121-00&ServiceCd=510&Type=search", "url2": null }, "geometry": { "type": "Point", "coordinates": [ 135.1573522, 34.1340373 ] } },
{ "type": "Feature", "properties": { "内容": "特別養護老人ホーム国城寮【介護老人福祉施設】橋本市隅田町河瀬905-2", "url": "https://www.kaigokensaku.mhlw.go.jp/30/index.php?action_kouhyou_detail_004_kani=true&JigyosyoCd=3071000065-00&ServiceCd=510&Type=search", "url2": "http://kuniki.info.sakura.ne.jp/" }, "geometry": { "type": "Point", "coordinates": [ 135.6251552, 34.3250436 ] } },
{ "type": "Feature", "properties": { "内容": "特別養護老人ホーム　ひかり苑【介護老人福祉施設】和歌山県橋本市隅田町中島1058-56", "url": "https://www.kaigokensaku.mhlw.go.jp/30/index.php?action_kouhyou_detail_004_kani=true&JigyosyoCd=3071000073-00&ServiceCd=510&Type=search", "url2": "care-net.biz/30/kouseikai/" }, "geometry": { "type": "Point", "coordinates": [ 135.63717070000007, 34.3381198 ] } },
{ "type": "Feature", "properties": { "内容": "特別養護老人ホーム　天　佳　苑【介護老人福祉施設】和歌山県　橋本市　隅田町　霜草　７９７－３１", "url": "https://www.kaigokensaku.mhlw.go.jp/30/index.php?action_kouhyou_detail_004_kani=true&JigyosyoCd=3071000529-00&ServiceCd=510&Type=search", "url2": "http://care-net.biz/30/tenka-en/" }, "geometry": { "type": "Point", "coordinates": [ 135.637431800000059, 34.3386947 ] } },
{ "type": "Feature", "properties": { "内容": "特別養護老人ホーム　さくら苑【介護老人福祉施設】和歌山県橋本市高野口町大野１８４４－１３３", "url": "https://www.kaigokensaku.mhlw.go.jp/30/index.php?action_kouhyou_detail_004_kani=true&JigyosyoCd=3071300549-00&ServiceCd=510&Type=search", "url2": "https://sakuraenn.com" }, "geometry": { "type": "Point", "coordinates": [ 135.559311500000035, 34.3231456 ] } },
{ "type": "Feature", "properties": { "内容": "特別養護老人ホームありだ橘苑【介護老人福祉施設】和歌山県有田市野639-2", "url": "https://www.kaigokensaku.mhlw.go.jp/30/index.php?action_kouhyou_detail_004_kani=true&JigyosyoCd=3071500601-00&ServiceCd=510&Type=search", "url2": "http://shukohkai.or.jp/" }, "geometry": { "type": "Point", "coordinates": [ 135.135224849768093, 34.076179414842485 ] } },
{ "type": "Feature", "properties": { "内容": "特別養護老人ホーム田鶴苑【介護老人福祉施設】和歌山県有田市宮崎町841番地1", "url": "https://www.kaigokensaku.mhlw.go.jp/30/index.php?action_kouhyou_detail_004_kani=true&JigyosyoCd=3071500056-00&ServiceCd=510&Type=search", "url2": "http://www.shukohkai.or.jp/" }, "geometry": { "type": "Point", "coordinates": [ 135.112843920237793, 34.075466439553963 ] } },
{ "type": "Feature", "properties": { "内容": "特別養護老人ホーム愛宕苑【介護老人福祉施設】有田市港町９－１", "url": "https://www.kaigokensaku.mhlw.go.jp/30/index.php?action_kouhyou_detail_004_kani=true&JigyosyoCd=3071500387-00&ServiceCd=510&Type=search", "url2": "http://shukohkai.or.jp/" }, "geometry": { "type": "Point", "coordinates": [ 135.114286099999958, 34.0892137 ] } },
{ "type": "Feature", "properties": { "内容": "特別養護老人ホーム日高博愛園【介護老人福祉施設】和歌山県御坊市名田町野島１番地9", "url": "https://www.kaigokensaku.mhlw.go.jp/30/index.php?action_kouhyou_detail_004_kani=true&JigyosyoCd=3072000080-00&ServiceCd=510&Type=search", "url2": "hakuaikai.net" }, "geometry": { "type": "Point", "coordinates": [ 135.1789003, 33.8328175 ] } },
{ "type": "Feature", "properties": { "内容": "特別養護老人ホーム　ごぼうの郷【介護老人福祉施設】熊野44‐4", "url": "https://www.kaigokensaku.mhlw.go.jp/30/index.php?action_kouhyou_detail_004_kani=true&JigyosyoCd=3072000528-00&ServiceCd=510&Type=search", "url2": "http://gobo310.sakura.ne.jp/gb310/" }, "geometry": { "type": "Point", "coordinates": [ 135.17644611534422, 33.889750501942324 ] } },
{ "type": "Feature", "properties": { "内容": "特別養護老人ホーム　田辺の郷【介護老人福祉施設】田辺市芳養松原1丁目31番10号", "url": "https://www.kaigokensaku.mhlw.go.jp/30/index.php?action_kouhyou_detail_004_kani=true&JigyosyoCd=3072201175-00&ServiceCd=510&Type=search", "url2": "特別養護老人ホーム　田辺の郷" }, "geometry": { "type": "Point", "coordinates": [ 135.354575599999947, 33.7442952 ] } },
{ "type": "Feature", "properties": { "内容": "特別養護老人ホーム龍トピア【介護老人福祉施設】和歌山県田辺市龍神村柳瀬530番地", "url": "https://www.kaigokensaku.mhlw.go.jp/30/index.php?action_kouhyou_detail_004_kani=true&JigyosyoCd=3072100369-00&ServiceCd=510&Type=search", "url2": "https://care-net.biz/30/kisei" }, "geometry": { "type": "Point", "coordinates": [ 135.4544737, 33.8792885 ] } },
{ "type": "Feature", "properties": { "内容": "特別養護老人ホーム　熊野本宮園【介護老人福祉施設】和歌山県田辺市本宮町上大野字田平９７番地の１", "url": "https://www.kaigokensaku.mhlw.go.jp/30/index.php?action_kouhyou_detail_004_kani=true&JigyosyoCd=3072500055-00&ServiceCd=510&Type=search", "url2": "http://kumanofukushikai.or.jp/" }, "geometry": { "type": "Point", "coordinates": [ 135.755038399999989, 33.80466160000001 ] } },
{ "type": "Feature", "properties": { "内容": "特別養護老人ホーム鮎川園【介護老人福祉施設】和歌山県田辺市鮎川字向越1313番地", "url": "https://www.kaigokensaku.mhlw.go.jp/30/index.php?action_kouhyou_detail_004_kani=true&JigyosyoCd=3072400207-00&ServiceCd=510&Type=search", "url2": "https://care-net.biz/30/kisei/" }, "geometry": { "type": "Point", "coordinates": [ 135.499665323870261, 33.740365942640523 ] } },
{ "type": "Feature", "properties": { "内容": "特別養護老人ホーム　真寿苑【介護老人福祉施設】和歌山県田辺市神島台６番１号", "url": "https://www.kaigokensaku.mhlw.go.jp/30/index.php?action_kouhyou_detail_004_kani=true&JigyosyoCd=3072200060-00&ServiceCd=510&Type=search", "url2": "http://www.sjk-tanabe.or.jp/" }, "geometry": { "type": "Point", "coordinates": [ 135.403429599999981, 33.7070892 ] } },
{ "type": "Feature", "properties": { "内容": "特別養護老人ホーム　第二真寿苑【介護老人福祉施設】和歌山県田辺市神島台６番１号", "url": "https://www.kaigokensaku.mhlw.go.jp/30/index.php?action_kouhyou_detail_004_kani=true&JigyosyoCd=3072200078-00&ServiceCd=510&Type=search", "url2": "http://www.sjk-tanabe.or.jp/" }, "geometry": { "type": "Point", "coordinates": [ 135.403687092065411, 33.706736655347065 ] } },
{ "type": "Feature", "properties": { "内容": "特別養護老人ホーム　白百合ホーム【介護老人福祉施設】和歌山県田辺市中辺路町川合1800", "url": "https://www.kaigokensaku.mhlw.go.jp/30/index.php?action_kouhyou_detail_004_kani=true&JigyosyoCd=3072400199-00&ServiceCd=510&Type=search", "url2": "http://shirayurihome.org" }, "geometry": { "type": "Point", "coordinates": [ 135.5219846, 33.8004563 ] } },
{ "type": "Feature", "properties": { "内容": "特別養護老人ホーム温泉ハウスくまの【介護老人福祉施設】新宮市蜂伏１４番１９号", "url": "https://www.kaigokensaku.mhlw.go.jp/30/index.php?action_kouhyou_detail_004_kani=true&JigyosyoCd=3072300084-00&ServiceCd=510&Type=search", "url2": "https://www.kaigokensaku.mhlw.go.jp/houkoku/30/index.php" }, "geometry": { "type": "Point", "coordinates": [ 135.962313900000026, 33.6866428 ] } },
{ "type": "Feature", "properties": { "内容": "特別養護老人ホーム黒潮園【介護老人福祉施設】和歌山県新宮市三輪崎2471-1", "url": "https://www.kaigokensaku.mhlw.go.jp/30/index.php?action_kouhyou_detail_004_kani=true&JigyosyoCd=3072300076-00&ServiceCd=510&Type=search", "url2": "https://www.kuroshioen.or.jp" }, "geometry": { "type": "Point", "coordinates": [ 135.98634190000007, 33.6983081 ] } },
{ "type": "Feature", "properties": { "内容": "特別養護老人ホーム熊野川園【介護老人福祉施設】和歌山県新宮市熊野川町西204番地1", "url": "https://www.kaigokensaku.mhlw.go.jp/30/index.php?action_kouhyou_detail_004_kani=true&JigyosyoCd=3072500048-00&ServiceCd=510&Type=search", "url2": null }, "geometry": { "type": "Point", "coordinates": [ 135.839851100000033, 33.7581293 ] } },
{ "type": "Feature", "properties": { "内容": "特別養護老人ホーム　きしがわ園【介護老人福祉施設】紀の川市貴志川町尼寺359", "url": "https://www.kaigokensaku.mhlw.go.jp/30/index.php?action_kouhyou_detail_004_kani=true&JigyosyoCd=3071700532-00&ServiceCd=510&Type=search", "url2": "https://seianna.jp" }, "geometry": { "type": "Point", "coordinates": [ 135.312040613938962, 34.226094265742155 ] } },
{ "type": "Feature", "properties": { "内容": "特別養護老人ホーム　栄寿苑【介護老人福祉施設】和歌山県紀の川市麻生津中字飯盛1279番地", "url": "https://www.kaigokensaku.mhlw.go.jp/30/index.php?action_kouhyou_detail_004_kani=true&JigyosyoCd=3071200327-00&ServiceCd=510&Type=search", "url2": "http://koueikai-nate.com/" }, "geometry": { "type": "Point", "coordinates": [ 135.462148800000023, 34.248245 ] } },
{ "type": "Feature", "properties": { "内容": "特別養護老人ホーム　貴志川聖アンナの家【介護老人福祉施設】和歌山県紀の川市貴志川町上野山字鍛屋垣内302番地1", "url": "https://www.kaigokensaku.mhlw.go.jp/30/index.php?action_kouhyou_detail_004_kani=true&JigyosyoCd=3071200236-00&ServiceCd=510&Type=search", "url2": "http://www.seianna.sakura.ne.jp" }, "geometry": { "type": "Point", "coordinates": [ 135.310393800000043, 34.2156771 ] } },
{ "type": "Feature", "properties": { "内容": "特別養護老人ホーム　白水園【介護老人福祉施設】紀の川市上田井1229－1", "url": "https://www.kaigokensaku.mhlw.go.jp/30/index.php?action_kouhyou_detail_004_kani=true&JigyosyoCd=3071700805-00&ServiceCd=510&Type=search", "url2": "http://koueikai-nate.com/" }, "geometry": { "type": "Point", "coordinates": [ 135.38782417762431, 34.261062472247062 ] } },
{ "type": "Feature", "properties": { "内容": "特別養護老人ホームももの里【介護老人福祉施設】紀の川市桃山町最上1254-1", "url": "https://www.kaigokensaku.mhlw.go.jp/30/index.php?action_kouhyou_detail_004_kani=true&JigyosyoCd=3071200228-00&ServiceCd=510&Type=search", "url2": "https://shokyukai.jp" }, "geometry": { "type": "Point", "coordinates": [ 135.35046710000006, 34.2197716 ] } },
{ "type": "Feature", "properties": { "内容": "特別養護老人ホーム　ヴィラももの里【介護老人福祉施設】和歌山県紀の川市桃山町最上８７３", "url": "https://www.kaigokensaku.mhlw.go.jp/30/index.php?action_kouhyou_detail_004_kani=true&JigyosyoCd=3071700243-00&ServiceCd=510&Type=search", "url2": "https://shokyukai.jp/" }, "geometry": { "type": "Point", "coordinates": [ 135.35065869999994, 34.2218519 ] } },
{ "type": "Feature", "properties": { "内容": "特別養護老人ホーム打田皆楽園【介護老人福祉施設】和歌山県紀の川市畑野上２５９番地", "url": "https://www.kaigokensaku.mhlw.go.jp/30/index.php?action_kouhyou_detail_004_kani=true&JigyosyoCd=3071200921-00&ServiceCd=510&Type=search", "url2": "https://kairakuen.or.jp/" }, "geometry": { "type": "Point", "coordinates": [ 135.347216500000059, 34.2644663 ] } },
{ "type": "Feature", "properties": { "内容": "特別養護老人ホーム　髙陽園【介護老人福祉施設】和歌山県紀の川市東大井11-3", "url": "https://www.kaigokensaku.mhlw.go.jp/30/index.php?action_kouhyou_detail_004_kani=true&JigyosyoCd=3071200210-00&ServiceCd=510&Type=search", "url2": "http://www.koyokai.or.jp" }, "geometry": { "type": "Point", "coordinates": [ 135.370278466231667, 34.271440234371077 ] } },
{ "type": "Feature", "properties": { "内容": "特別養護老人ホーム皆楽園【介護老人福祉施設】和歌山県岩出市西国分668番地", "url": "https://www.kaigokensaku.mhlw.go.jp/30/index.php?action_kouhyou_detail_004_kani=true&JigyosyoCd=3071200244-00&ServiceCd=510&Type=search", "url2": "https://kairakuen.or.jp/" }, "geometry": { "type": "Point", "coordinates": [ 135.330754, 34.2651772 ] } },
{ "type": "Feature", "properties": { "内容": "特別養護老人ホーム岩出憩い園【介護老人福祉施設】和歌山県岩出市溝川22番地", "url": "https://www.kaigokensaku.mhlw.go.jp/30/index.php?action_kouhyou_detail_004_kani=true&JigyosyoCd=3071800308-00&ServiceCd=510&Type=search", "url2": "http://www.ikoien.com/" }, "geometry": { "type": "Point", "coordinates": [ 135.325738099999967, 34.2550532 ] } },
{ "type": "Feature", "properties": { "内容": "特別養護老人ホームやすらぎ園【介護老人福祉施設】和歌山県海草郡紀美野町下佐々1408-7", "url": "https://www.kaigokensaku.mhlw.go.jp/30/index.php?action_kouhyou_detail_004_kani=true&JigyosyoCd=3071100139-00&ServiceCd=510&Type=search", "url2": "http://www.yasuragien.com/" }, "geometry": { "type": "Point", "coordinates": [ 135.311302399999931, 34.1519019 ] } },
{ "type": "Feature", "properties": { "内容": "特別養護老人ホーム美里園【介護老人福祉施設】和歌山県海草郡紀美野町安井６－１", "url": "https://www.kaigokensaku.mhlw.go.jp/30/index.php?action_kouhyou_detail_004_kani=true&JigyosyoCd=3071100147-00&ServiceCd=510&Type=search", "url2": "http://seiwa-sws.or.jp/" }, "geometry": { "type": "Point", "coordinates": [ 135.34661559999995, 34.1490559 ] } },
{ "type": "Feature", "properties": { "内容": "特別養護老人ホーム　愛光園【介護老人福祉施設】和歌山県伊都郡かつらぎ町佐野１４０１－２", "url": "https://www.kaigokensaku.mhlw.go.jp/30/index.php?action_kouhyou_detail_004_kani=true&JigyosyoCd=3071300085-00&ServiceCd=510&Type=search", "url2": "http://aiko-en.or.jp/" }, "geometry": { "type": "Point", "coordinates": [ 135.484954799999969, 34.2866657 ] } },
{ "type": "Feature", "properties": { "内容": "特別養護老人ホームあさひ【介護老人福祉施設】和歌山県伊都郡かつらぎ町大字西飯降字白田谷461番6", "url": "https://www.kaigokensaku.mhlw.go.jp/30/index.php?action_kouhyou_detail_004_kani=true&JigyosyoCd=3071300903-00&ServiceCd=510&Type=search", "url2": "http://asahi.or.jp/index.html" }, "geometry": { "type": "Point", "coordinates": [ 135.525723979179872, 34.317911404099405 ] } },
{ "type": "Feature", "properties": { "内容": "介護老人福祉施設やまぼうし【介護老人福祉施設】和歌山県伊都郡かつらぎ町丁ノ町2385-1", "url": "https://www.kaigokensaku.mhlw.go.jp/30/index.php?action_kouhyou_detail_004_kani=true&JigyosyoCd=3071300911-00&ServiceCd=510&Type=search", "url2": "https://kiwayamaboushi.jimdo.com/" }, "geometry": { "type": "Point", "coordinates": [ 135.510372, 34.296586 ] } },
{ "type": "Feature", "properties": { "内容": "特別養護老人ホーム第2愛光園【介護老人福祉施設】和歌山県伊都郡かつらぎ町佐野955-1", "url": "https://www.kaigokensaku.mhlw.go.jp/30/index.php?action_kouhyou_detail_004_kani=true&JigyosyoCd=3071300762-00&ServiceCd=510&Type=search", "url2": "https://www.aiko-en.or.jp/" }, "geometry": { "type": "Point", "coordinates": [ 135.483935400000064, 34.2872239 ] } },
{ "type": "Feature", "properties": { "内容": "伊都郡町村及び橋本市老人福祉施設事務組合　特別養護老人ホーム国城寮【介護老人福祉施設】和歌山県伊都郡九度山町九度山1265-1", "url": "https://www.kaigokensaku.mhlw.go.jp/30/index.php?action_kouhyou_detail_004_kani=true&JigyosyoCd=3071301059-00&ServiceCd=510&Type=search", "url2": "https://kuniki.sakura.ne.jp" }, "geometry": { "type": "Point", "coordinates": [ 135.5589175, 34.2849912 ] } },
{ "type": "Feature", "properties": { "内容": "社会福祉法人萩原会特別養護老人ホーム友愛苑【介護老人福祉施設】和歌山県伊都郡九度山町大字河根807番地の64", "url": "https://www.kaigokensaku.mhlw.go.jp/30/index.php?action_kouhyou_detail_004_kani=true&JigyosyoCd=3071300291-00&ServiceCd=510&Type=search", "url2": "https://hagiyuai.jimdofree.com" }, "geometry": { "type": "Point", "coordinates": [ 135.5819712, 34.2813617 ] } },
{ "type": "Feature", "properties": { "内容": "特別養護老人ホーム南山苑【介護老人福祉施設】和歌山県伊都郡高野町高野山44-22", "url": "https://www.kaigokensaku.mhlw.go.jp/30/index.php?action_kouhyou_detail_004_kani=true&JigyosyoCd=3071300093-00&ServiceCd=510&Type=search", "url2": "https://seiaikai.jimdofree.com/" }, "geometry": { "type": "Point", "coordinates": [ 135.592627099999959, 34.2206737 ] } },
{ "type": "Feature", "properties": { "内容": "特別養護老人ホーム　潮光園（従来型）【介護老人福祉施設】和歌山県有田郡湯浅町湯浅2343番地1", "url": "https://www.kaigokensaku.mhlw.go.jp/30/index.php?action_kouhyou_detail_004_kani=true&JigyosyoCd=3071600088-00&ServiceCd=510&Type=search", "url2": "https://www.tyokoen.jp" }, "geometry": { "type": "Point", "coordinates": [ 135.189089728155494, 34.040893713774039 ] } },
{ "type": "Feature", "properties": { "内容": "特別養護老人ホーム潮光園（ユニット型）【介護老人福祉施設】和歌山県有田郡湯浅町湯浅２３４３－１", "url": "https://www.kaigokensaku.mhlw.go.jp/30/index.php?action_kouhyou_detail_004_kani=true&JigyosyoCd=3071601532-00&ServiceCd=510&Type=search", "url2": "https://www.tyokoen.jp" }, "geometry": { "type": "Point", "coordinates": [ 135.189335889381653, 34.040464073178633 ] } },
{ "type": "Feature", "properties": { "内容": "特別養護老人ホームなつあけの里ささゆり苑【介護老人福祉施設】和歌山県有田郡広川町上津木字夏明1464番地の4", "url": "https://www.kaigokensaku.mhlw.go.jp/30/index.php?action_kouhyou_detail_004_kani=true&JigyosyoCd=3071600948-00&ServiceCd=510&Type=search", "url2": "http://www.kitabakai.jp/" }, "geometry": { "type": "Point", "coordinates": [ 135.200936200000029, 33.962317 ] } },
{ "type": "Feature", "properties": { "内容": "介護老人福祉施設広川苑【介護老人福祉施設】有田郡広川町和田18", "url": "https://www.kaigokensaku.mhlw.go.jp/30/index.php?action_kouhyou_detail_004_kani=true&JigyosyoCd=3071600534-00&ServiceCd=510&Type=search", "url2": null }, "geometry": { "type": "Point", "coordinates": [ 135.1640741, 34.0253103 ] } },
{ "type": "Feature", "properties": { "内容": "特別養護老人ホーム寿楽園【介護老人福祉施設】和歌山県有田郡有田川町大字小川字矢本992番地", "url": "https://www.kaigokensaku.mhlw.go.jp/30/index.php?action_kouhyou_detail_004_kani=true&JigyosyoCd=3071600096-00&ServiceCd=510&Type=search", "url2": "https://ikkeikai.recruitment.jp" }, "geometry": { "type": "Point", "coordinates": [ 135.254431599999947, 34.0653217 ] } },
{ "type": "Feature", "properties": { "内容": "特別養護老人ホーム吉備苑【介護老人福祉施設】和歌山県有田郡有田川町大字奥222-1", "url": "https://www.kaigokensaku.mhlw.go.jp/30/index.php?action_kouhyou_detail_004_kani=true&JigyosyoCd=3071600450-00&ServiceCd=510&Type=search", "url2": "http://www.kibien.com/" }, "geometry": { "type": "Point", "coordinates": [ 135.209766599999966, 34.0484421 ] } },
{ "type": "Feature", "properties": { "内容": "特別養護老人ホーム　吉備苑【介護老人福祉施設】和歌山県有田郡有田川町大字奥２２２－１", "url": "https://www.kaigokensaku.mhlw.go.jp/30/index.php?action_kouhyou_detail_004_kani=true&JigyosyoCd=3071601250-00&ServiceCd=510&Type=search", "url2": "http://www.kibien.com/" }, "geometry": { "type": "Point", "coordinates": [ 135.209766599999966, 34.0484421 ] } },
{ "type": "Feature", "properties": { "内容": "特別養護老人ホーム　しみず園【介護老人福祉施設】和歌山県有田郡有田川町大字粟生710番地4", "url": "https://www.kaigokensaku.mhlw.go.jp/30/index.php?action_kouhyou_detail_004_kani=true&JigyosyoCd=3071600922-00&ServiceCd=510&Type=search", "url2": "https://kibien.com/" }, "geometry": { "type": "Point", "coordinates": [ 135.355804830038466, 34.061558154966008 ] } },
{ "type": "Feature", "properties": { "内容": "特別養護老人ホームときわ寮【介護老人福祉施設】和歌山県日高郡美浜町大字三尾９番地", "url": "https://www.kaigokensaku.mhlw.go.jp/30/index.php?action_kouhyou_detail_004_kani=true&JigyosyoCd=3072100161-00&ServiceCd=510&Type=search", "url2": "http://www.tokiwami-roujin.jp/" }, "geometry": { "type": "Point", "coordinates": [ 135.0844, 33.8899778 ] } },
{ "type": "Feature", "properties": { "内容": "特別養護老人ホームひだか博愛園みちしお【介護老人福祉施設】和歌山県日高郡日高町阿尾646", "url": "https://www.kaigokensaku.mhlw.go.jp/30/index.php?action_kouhyou_detail_004_kani=true&JigyosyoCd=3072100500-00&ServiceCd=510&Type=search", "url2": "https://www.hakuaikai.net" }, "geometry": { "type": "Point", "coordinates": [ 135.071630899999946, 33.9037765 ] } },
{ "type": "Feature", "properties": { "内容": "特別養護老人ホームゆら博愛園【介護老人福祉施設】和歌山県日高郡由良町大字吹井910番地の1", "url": "https://www.kaigokensaku.mhlw.go.jp/30/index.php?action_kouhyou_detail_004_kani=true&JigyosyoCd=3072100401-00&ServiceCd=510&Type=search", "url2": "http://www.hakuaikai.net/" }, "geometry": { "type": "Point", "coordinates": [ 135.106182900000022, 33.9699191 ] } },
{ "type": "Feature", "properties": { "内容": "特別養護老人ホーム　カルフール・ド・ルポ印南【介護老人福祉施設】和歌山県日高郡印南町山口150番地1", "url": "https://www.kaigokensaku.mhlw.go.jp/30/index.php?action_kouhyou_detail_004_kani=true&JigyosyoCd=3072100203-00&ServiceCd=510&Type=search", "url2": "http://carrefour-inami.jp/" }, "geometry": { "type": "Point", "coordinates": [ 135.221591600000011, 33.8219697 ] } },
{ "type": "Feature", "properties": { "内容": "特別養護老人ホーム　カルフール・ド・ルポ印南　ヌーヴォ【介護老人福祉施設】和歌山県日高郡印南町山口150番地1", "url": "https://www.kaigokensaku.mhlw.go.jp/30/index.php?action_kouhyou_detail_004_kani=true&JigyosyoCd=3072100807-00&ServiceCd=510&Type=search", "url2": "http://carrefour-inami.jp/index.html" }, "geometry": { "type": "Point", "coordinates": [ 135.221591600000011, 33.8219697 ] } },
{ "type": "Feature", "properties": { "内容": "介護老人福祉施設　虹【介護老人福祉施設】和歌山県日高郡みなべ町埴田1450番地1", "url": "https://www.kaigokensaku.mhlw.go.jp/30/index.php?action_kouhyou_detail_004_kani=true&JigyosyoCd=3072100625-00&ServiceCd=510&Type=search", "url2": "http://www.seieikai.or.jp" }, "geometry": { "type": "Point", "coordinates": [ 135.327853, 33.7514575 ] } },
{ "type": "Feature", "properties": { "内容": "特別養護老人ホームときわ寮梅の里【介護老人福祉施設】和歌山県日高郡みなべ町滝４３７番地", "url": "https://www.kaigokensaku.mhlw.go.jp/30/index.php?action_kouhyou_detail_004_kani=true&JigyosyoCd=3072100146-00&ServiceCd=510&Type=search", "url2": "http://www.tokiwa-roujin.jp/" }, "geometry": { "type": "Point", "coordinates": [ 135.34938139999997, 33.841553 ] } },
{ "type": "Feature", "properties": { "内容": "特別養護老人ホーム　バタフライヒルみなべ虹【介護老人福祉施設】和歌山県日高郡みなべ町埴田1450-1", "url": "https://www.kaigokensaku.mhlw.go.jp/30/index.php?action_kouhyou_detail_004_kani=true&JigyosyoCd=3072101169-00&ServiceCd=510&Type=search", "url2": "https://www.zenkoukai.jp/" }, "geometry": { "type": "Point", "coordinates": [ 135.3277733, 33.7516441 ] } },
{ "type": "Feature", "properties": { "内容": "特別養護老人ホーム　白寿苑【介護老人福祉施設】和歌山県日高郡日高川町大字船津1664番地", "url": "https://www.kaigokensaku.mhlw.go.jp/30/index.php?action_kouhyou_detail_004_kani=true&JigyosyoCd=3072100179-00&ServiceCd=510&Type=search", "url2": "http://www.zc.ztv.ne.jp/mcxdnjyx/index.html" }, "geometry": { "type": "Point", "coordinates": [ 135.268708299999957, 33.9582033 ] } },
{ "type": "Feature", "properties": { "内容": "特別養護老人ホーム美山の里【介護老人福祉施設】和歌山県日高郡日高川町大字初湯川213番地1", "url": "https://www.kaigokensaku.mhlw.go.jp/30/index.php?action_kouhyou_detail_004_kani=true&JigyosyoCd=3072100773-00&ServiceCd=510&Type=search", "url2": "http://care-net.biz/30/kisei/company.php" }, "geometry": { "type": "Point", "coordinates": [ 135.382091319777373, 33.957487291076866 ] } },
{ "type": "Feature", "properties": { "内容": "介護老人福祉施設　白寿苑別館【介護老人福祉施設】和歌山県日高郡日高川町船津字岩ノ谷1664番地", "url": "https://www.kaigokensaku.mhlw.go.jp/30/index.php?action_kouhyou_detail_004_kani=true&JigyosyoCd=3072100922-00&ServiceCd=510&Type=search", "url2": "http://www.keiaikai-w.ne.jp" }, "geometry": { "type": "Point", "coordinates": [ 135.268708299999957, 33.9582033 ] } },
{ "type": "Feature", "properties": { "内容": "特別養護老人ホームときわ寮川辺園【介護老人福祉施設】和歌山県日高郡日高川町大字和佐２０８１番地の１０", "url": "https://www.kaigokensaku.mhlw.go.jp/30/index.php?action_kouhyou_detail_004_kani=true&JigyosyoCd=3072100120-00&ServiceCd=510&Type=search", "url2": "http://www.tokiwa-roujin.jp/" }, "geometry": { "type": "Point", "coordinates": [ 135.212416399999938, 33.8978265 ] } },
{ "type": "Feature", "properties": { "内容": "特別養護老人ホーム百々千園【介護老人福祉施設】和歌山県西牟婁郡白浜町中1652", "url": "https://www.kaigokensaku.mhlw.go.jp/30/index.php?action_kouhyou_detail_004_kani=true&JigyosyoCd=3072400165-00&ServiceCd=510&Type=search", "url2": "https://care-net.biz/30/kirou/" }, "geometry": { "type": "Point", "coordinates": [ 135.38780040000006, 33.6487985 ] } },
{ "type": "Feature", "properties": { "内容": "特別養護老人ホーム　白浜日置の郷【介護老人福祉施設】和歌山県西牟婁郡白浜町日置2037", "url": "https://www.kaigokensaku.mhlw.go.jp/30/index.php?action_kouhyou_detail_004_kani=true&JigyosyoCd=3072400736-00&ServiceCd=510&Type=search", "url2": "http:/www.sanyofukushikai.com/" }, "geometry": { "type": "Point", "coordinates": [ 135.430432699999983, 33.5723337 ] } },
{ "type": "Feature", "properties": { "内容": "特別養護老人ホーム　成樹園【介護老人福祉施設】和歌山県西牟婁郡白浜町富田１７０３", "url": "https://www.kaigokensaku.mhlw.go.jp/30/index.php?action_kouhyou_detail_004_kani=true&JigyosyoCd=3072400173-00&ServiceCd=510&Type=search", "url2": "https://www.nankishirahama-fukushikai.or.jp/" }, "geometry": { "type": "Point", "coordinates": [ 135.398185600000033, 33.6379835 ] } },
{ "type": "Feature", "properties": { "内容": "特別養護老人ホーム成実園【介護老人福祉施設】和歌山県西牟婁郡白浜町富田１３７１－１", "url": "https://www.kaigokensaku.mhlw.go.jp/30/index.php?action_kouhyou_detail_004_kani=true&JigyosyoCd=3072400181-00&ServiceCd=510&Type=search", "url2": "https://www.nankishirahama-fukushikai.or.jp/" }, "geometry": { "type": "Point", "coordinates": [ 135.398588300000029, 33.6380196 ] } },
{ "type": "Feature", "properties": { "内容": "特別養護老人ホーム愛の園【介護老人福祉施設】和歌山県西牟婁郡上富田町生馬316-56", "url": "https://www.kaigokensaku.mhlw.go.jp/30/index.php?action_kouhyou_detail_004_kani=true&JigyosyoCd=3072400215-00&ServiceCd=510&Type=search", "url2": "http://www.shinai.or.jp" }, "geometry": { "type": "Point", "coordinates": [ 135.427685699999984, 33.7185325 ] } },
{ "type": "Feature", "properties": { "内容": "特別養護老人ホーム愛の園【介護老人福祉施設】和歌山県西牟婁郡上富田町生馬316-56", "url": "https://www.kaigokensaku.mhlw.go.jp/30/index.php?action_kouhyou_detail_004_kani=true&JigyosyoCd=3072401510-00&ServiceCd=510&Type=search", "url2": "https://sanyofukushikai.com/fukushi/ainosono" }, "geometry": { "type": "Point", "coordinates": [ 135.427786, 33.7187189 ] } },
{ "type": "Feature", "properties": { "内容": "特別養護老人ホーム　はまゆう園【介護老人福祉施設】和歌山県西牟婁郡すさみ町周参見２３６２－１", "url": "https://www.kaigokensaku.mhlw.go.jp/30/index.php?action_kouhyou_detail_004_kani=true&JigyosyoCd=3072400082-00&ServiceCd=510&Type=search", "url2": "http://care-net.biz/30/hamayuen/" }, "geometry": { "type": "Point", "coordinates": [ 135.4959235, 33.5555532 ] } },
{ "type": "Feature", "properties": { "内容": "特別養護老人ホーム日好荘那智園【介護老人福祉施設】東牟婁郡那智勝浦町大字浜ノ宮８５０番地1", "url": "https://www.kaigokensaku.mhlw.go.jp/30/index.php?action_kouhyou_detail_004_kani=true&JigyosyoCd=3072500113-00&ServiceCd=510&Type=search", "url2": "http://care-net.biz/30/nikkosonachien/" }, "geometry": { "type": "Point", "coordinates": [ 135.942438300000049, 33.6473109 ] } },
{ "type": "Feature", "properties": { "内容": "特別養護老人ホーム南紀園【介護老人福祉施設】和歌山県東牟婁郡太地町大字太地1770番15", "url": "https://www.kaigokensaku.mhlw.go.jp/30/index.php?action_kouhyou_detail_004_kani=true&JigyosyoCd=3072500881-00&ServiceCd=510&Type=search", "url2": null }, "geometry": { "type": "Point", "coordinates": [ 135.946286699999973, 33.589701 ] } },
{ "type": "Feature", "properties": { "内容": "特別養護老人ホーム南紀園【介護老人福祉施設】和歌山県東牟婁郡太地町大字太地1770番15", "url": "https://www.kaigokensaku.mhlw.go.jp/30/index.php?action_kouhyou_detail_004_kani=true&JigyosyoCd=3072500121-00&ServiceCd=510&Type=search", "url2": "https://care-net.biz/30/nankien/" }, "geometry": { "type": "Point", "coordinates": [ 135.954499402013425, 33.580364395713445 ] } },
{ "type": "Feature", "properties": { "内容": "特別養護老人ホーム古座川園【介護老人福祉施設】和歌山県東牟婁郡古座川町高瀬353番地", "url": "https://www.kaigokensaku.mhlw.go.jp/30/index.php?action_kouhyou_detail_004_kani=true&JigyosyoCd=3072500139-00&ServiceCd=510&Type=search", "url2": "https://takasekai.or.jp/" }, "geometry": { "type": "Point", "coordinates": [ 135.778202, 33.535302 ] } },
{ "type": "Feature", "properties": { "内容": "特別養護老人ホームにしき園【介護老人福祉施設】和歌山県東牟婁郡串本町二色１６０", "url": "https://www.kaigokensaku.mhlw.go.jp/30/index.php?action_kouhyou_detail_004_kani=true&JigyosyoCd=3072400223-00&ServiceCd=510&Type=search", "url2": "http://www.nishikien.ne.jp/" }, "geometry": { "type": "Point", "coordinates": [ 135.768860600000039, 33.489038 ] } }
]
}
