{
"type": "FeatureCollection",
"name": "geo_30_高校",
"crs": { "type": "name", "properties": { "name": "urn:ogc:def:crs:EPSG::6668" } },
"features": [
{ "type": "Feature", "properties": { "P29_001": "30203", "P29_002": "D130210000019", "P29_003": "16004", "P29_004": "和歌山県立橋本高等学校", "P29_005": "和歌山県橋本市古佐田4-10-1", "P29_006": "2", "P29_007": "0", "P29_008": "00", "P29_009": null }, "geometry": { "type": "Point", "coordinates": [ 135.614270679912067, 34.320561455550852 ] } },
{ "type": "Feature", "properties": { "P29_001": "30203", "P29_002": "D130210000028", "P29_003": "16004", "P29_004": "和歌山県立紀北工業高等学校", "P29_005": "和歌山県橋本市神野々809", "P29_006": "2", "P29_007": "0", "P29_008": "00", "P29_009": null }, "geometry": { "type": "Point", "coordinates": [ 135.583192717801666, 34.308482328713033 ] } },
{ "type": "Feature", "properties": { "P29_001": "30341", "P29_002": "D130210000037", "P29_003": "16004", "P29_004": "和歌山県立笠田高等学校", "P29_005": "和歌山県伊都郡かつらぎ町笠田東825", "P29_006": "2", "P29_007": "0", "P29_008": "00", "P29_009": null }, "geometry": { "type": "Point", "coordinates": [ 135.477315444062782, 34.292504232131975 ] } },
{ "type": "Feature", "properties": { "P29_001": "30208", "P29_002": "D130210000046", "P29_003": "16004", "P29_004": "和歌山県立粉河高等学校", "P29_005": "和歌山県紀の川市粉河4632", "P29_006": "2", "P29_007": "0", "P29_008": "00", "P29_009": null }, "geometry": { "type": "Point", "coordinates": [ 135.408275185342433, 34.274294745534448 ] } },
{ "type": "Feature", "properties": { "P29_001": "30209", "P29_002": "D130210000055", "P29_003": "16004", "P29_004": "和歌山県立那賀高等学校", "P29_005": "和歌山県岩出市高塚115", "P29_006": "2", "P29_007": "0", "P29_008": "00", "P29_009": null }, "geometry": { "type": "Point", "coordinates": [ 135.322701720668277, 34.260685006391988 ] } },
{ "type": "Feature", "properties": { "P29_001": "30208", "P29_002": "D130210000064", "P29_003": "16004", "P29_004": "和歌山県立貴志川高等学校", "P29_005": "和歌山県紀の川市貴志川町長原400", "P29_006": "2", "P29_007": "0", "P29_008": "00", "P29_009": null }, "geometry": { "type": "Point", "coordinates": [ 135.304577316588649, 34.217162491807436 ] } },
{ "type": "Feature", "properties": { "P29_001": "30201", "P29_002": "D130210000073", "P29_003": "16004", "P29_004": "和歌山県立和歌山北高等学校", "P29_005": "和歌山県和歌山市市小路388", "P29_006": "2", "P29_007": "0", "P29_008": "00", "P29_009": null }, "geometry": { "type": "Point", "coordinates": [ 135.170000886318292, 34.255173914508795 ] } },
{ "type": "Feature", "properties": { "P29_001": "30201", "P29_002": "D130210000082", "P29_003": "16004", "P29_004": "和歌山県立向陽高等学校", "P29_005": "和歌山県和歌山市太田127", "P29_006": "2", "P29_007": "0", "P29_008": "00", "P29_009": null }, "geometry": { "type": "Point", "coordinates": [ 135.199560629406079, 34.227554273765378 ] } },
{ "type": "Feature", "properties": { "P29_001": "30201", "P29_002": "D130210000091", "P29_003": "16004", "P29_004": "和歌山県立桐蔭高等学校", "P29_005": "和歌山県和歌山市吹上5-6-18", "P29_006": "2", "P29_007": "0", "P29_008": "00", "P29_009": null }, "geometry": { "type": "Point", "coordinates": [ 135.174170998772382, 34.218329002264639 ] } },
{ "type": "Feature", "properties": { "P29_001": "30201", "P29_002": "D130210000108", "P29_003": "16004", "P29_004": "和歌山県立星林高等学校", "P29_005": "和歌山県和歌山市西浜2-9-9", "P29_006": "2", "P29_007": "0", "P29_008": "00", "P29_009": null }, "geometry": { "type": "Point", "coordinates": [ 135.163546565740546, 34.198234473864481 ] } },
{ "type": "Feature", "properties": { "P29_001": "30201", "P29_002": "D130210000117", "P29_003": "16004", "P29_004": "和歌山県立和歌山工業高等学校", "P29_005": "和歌山県和歌山市西浜3-6-1", "P29_006": "2", "P29_007": "0", "P29_008": "00", "P29_009": null }, "geometry": { "type": "Point", "coordinates": [ 135.15978555267057, 34.201649035034876 ] } },
{ "type": "Feature", "properties": { "P29_001": "30201", "P29_002": "D130210000126", "P29_003": "16004", "P29_004": "和歌山県立和歌山商業高等学校", "P29_005": "和歌山県和歌山市砂山南3-3-94", "P29_006": "2", "P29_007": "0", "P29_008": "00", "P29_009": null }, "geometry": { "type": "Point", "coordinates": [ 135.161636226900271, 34.215784947801893 ] } },
{ "type": "Feature", "properties": { "P29_001": "30202", "P29_002": "D130210000135", "P29_003": "16004", "P29_004": "和歌山県立海南高等学校", "P29_005": "和歌山県海南市大野中651", "P29_006": "2", "P29_007": "0", "P29_008": "01", "P29_009": "海南校舎" }, "geometry": { "type": "Point", "coordinates": [ 135.227555559973155, 34.154317843016656 ] } },
{ "type": "Feature", "properties": { "P29_001": "30304", "P29_002": "D130210000144", "P29_003": "16004", "P29_004": "和歌山県立海南高等学校美里分校", "P29_005": "和歌山県海草郡紀美野町毛原中689", "P29_006": "2", "P29_007": "0", "P29_008": "00", "P29_009": null }, "geometry": { "type": "Point", "coordinates": [ 135.45351238278235, 34.153593284829896 ] } },
{ "type": "Feature", "properties": { "P29_001": "30204", "P29_002": "D130210000153", "P29_003": "16004", "P29_004": "和歌山県立箕島高等学校", "P29_005": "和歌山県有田市箕島55", "P29_006": "2", "P29_007": "0", "P29_008": "01", "P29_009": "箕島校舎" }, "geometry": { "type": "Point", "coordinates": [ 135.129238982999794, 34.083594267267607 ] } },
{ "type": "Feature", "properties": { "P29_001": "30366", "P29_002": "D130210000162", "P29_003": "16004", "P29_004": "和歌山県立有田中央高等学校", "P29_005": "和歌山県有田郡有田川町下津野459", "P29_006": "2", "P29_007": "0", "P29_008": "00", "P29_009": null }, "geometry": { "type": "Point", "coordinates": [ 135.217351093630185, 34.067038375721197 ] } },
{ "type": "Feature", "properties": { "P29_001": "30366", "P29_002": "D130210000171", "P29_003": "16004", "P29_004": "和歌山県立有田中央高等学校清水分校", "P29_005": "和歌山県有田郡有田川町清水1028", "P29_006": "2", "P29_007": "0", "P29_008": "00", "P29_009": null }, "geometry": { "type": "Point", "coordinates": [ 135.434041876963846, 34.087260417412772 ] } },
{ "type": "Feature", "properties": { "P29_001": "30361", "P29_002": "D130210000180", "P29_003": "16004", "P29_004": "和歌山県立耐久高等学校", "P29_005": "和歌山県有田郡湯浅町湯浅1985", "P29_006": "2", "P29_007": "0", "P29_008": "00", "P29_009": null }, "geometry": { "type": "Point", "coordinates": [ 135.183458966723634, 34.035779439380619 ] } },
{ "type": "Feature", "properties": { "P29_001": "30205", "P29_002": "D130210000199", "P29_003": "16004", "P29_004": "和歌山県立日高高等学校", "P29_005": "和歌山県御坊市島45", "P29_006": "2", "P29_007": "0", "P29_008": "00", "P29_009": null }, "geometry": { "type": "Point", "coordinates": [ 135.157840342045347, 33.896372401125873 ] } },
{ "type": "Feature", "properties": { "P29_001": "30392", "P29_002": "D130210000206", "P29_003": "16004", "P29_004": "和歌山県立日高高等学校中津分校", "P29_005": "和歌山県日高郡日高川町西原357", "P29_006": "2", "P29_007": "0", "P29_008": "00", "P29_009": null }, "geometry": { "type": "Point", "coordinates": [ 135.288264268068303, 33.963160650582836 ] } },
{ "type": "Feature", "properties": { "P29_001": "30205", "P29_002": "D130210000215", "P29_003": "16004", "P29_004": "和歌山県立紀央館高等学校", "P29_005": "和歌山県御坊市湯川町小松原43-1", "P29_006": "2", "P29_007": "0", "P29_008": "00", "P29_009": null }, "geometry": { "type": "Point", "coordinates": [ 135.161813550883295, 33.90622467793203 ] } },
{ "type": "Feature", "properties": { "P29_001": "30391", "P29_002": "D130210000224", "P29_003": "16004", "P29_004": "和歌山県立南部高等学校", "P29_005": "和歌山県日高郡みなべ町芝407", "P29_006": "2", "P29_007": "0", "P29_008": "00", "P29_009": null }, "geometry": { "type": "Point", "coordinates": [ 135.32564927649878, 33.764765537188509 ] } },
{ "type": "Feature", "properties": { "P29_001": "30206", "P29_002": "D130210000233", "P29_003": "16004", "P29_004": "和歌山県立南部高等学校龍神分校", "P29_005": "和歌山県田辺市龍神村安井469", "P29_006": "2", "P29_007": "0", "P29_008": "00", "P29_009": null }, "geometry": { "type": "Point", "coordinates": [ 135.490602267309072, 33.885531787135577 ] } },
{ "type": "Feature", "properties": { "P29_001": "30206", "P29_002": "D130210000242", "P29_003": "16004", "P29_004": "和歌山県立田辺高等学校", "P29_005": "和歌山県田辺市学園1-71", "P29_006": "2", "P29_007": "0", "P29_008": "00", "P29_009": null }, "geometry": { "type": "Point", "coordinates": [ 135.389374345728356, 33.724645339082358 ] } },
{ "type": "Feature", "properties": { "P29_001": "30206", "P29_002": "D130210000251", "P29_003": "16004", "P29_004": "和歌山県立田辺工業高等学校", "P29_005": "和歌山県田辺市あけぼの51-1", "P29_006": "2", "P29_007": "0", "P29_008": "00", "P29_009": null }, "geometry": { "type": "Point", "coordinates": [ 135.395308785360442, 33.72870557851828 ] } },
{ "type": "Feature", "properties": { "P29_001": "30206", "P29_002": "D130210000260", "P29_003": "16004", "P29_004": "和歌山県立神島高等学校", "P29_005": "和歌山県田辺市文里2-33-12", "P29_006": "2", "P29_007": "0", "P29_008": "00", "P29_009": null }, "geometry": { "type": "Point", "coordinates": [ 135.387886456993272, 33.717976053636335 ] } },
{ "type": "Feature", "properties": { "P29_001": "30404", "P29_002": "D130210000279", "P29_003": "16004", "P29_004": "和歌山県立熊野高等学校", "P29_005": "和歌山県西牟婁郡上富田町朝来670", "P29_006": "2", "P29_007": "0", "P29_008": "00", "P29_009": null }, "geometry": { "type": "Point", "coordinates": [ 135.431344328966162, 33.699727525064269 ] } },
{ "type": "Feature", "properties": { "P29_001": "30207", "P29_002": "D130210000288", "P29_003": "16004", "P29_004": "和歌山県立新宮高等学校", "P29_005": "和歌山県新宮市神倉3-2-39", "P29_006": "2", "P29_007": "0", "P29_008": "00", "P29_009": null }, "geometry": { "type": "Point", "coordinates": [ 135.985423009152981, 33.719763861619114 ] } },
{ "type": "Feature", "properties": { "P29_001": "30207", "P29_002": "D130210000297", "P29_003": "16004", "P29_004": "和歌山県立新翔高等学校", "P29_005": "和歌山県新宮市佐野1005", "P29_006": "2", "P29_007": "0", "P29_008": "00", "P29_009": null }, "geometry": { "type": "Point", "coordinates": [ 135.971070025421284, 33.685656798991538 ] } },
{ "type": "Feature", "properties": { "P29_001": "30201", "P29_002": "D130210000304", "P29_003": "16004", "P29_004": "和歌山県立和歌山東高等学校", "P29_005": "和歌山県和歌山市森小手穂136", "P29_006": "2", "P29_007": "0", "P29_008": "00", "P29_009": null }, "geometry": { "type": "Point", "coordinates": [ 135.226018482585062, 34.207451174710272 ] } },
{ "type": "Feature", "properties": { "P29_001": "30201", "P29_002": "D130210000313", "P29_003": "16004", "P29_004": "和歌山県立和歌山高等学校", "P29_005": "和歌山県和歌山市新庄188", "P29_006": "2", "P29_007": "0", "P29_008": "00", "P29_009": null }, "geometry": { "type": "Point", "coordinates": [ 135.289614840985621, 34.237302264905757 ] } },
{ "type": "Feature", "properties": { "P29_001": "30341", "P29_002": "D130210000322", "P29_003": "16004", "P29_004": "和歌山県立紀北農芸高等学校", "P29_005": "和歌山県伊都郡かつらぎ町妙寺1781", "P29_006": "2", "P29_007": "0", "P29_008": "00", "P29_009": null }, "geometry": { "type": "Point", "coordinates": [ 135.528994061816661, 34.30949952225464 ] } },
{ "type": "Feature", "properties": { "P29_001": "30428", "P29_002": "D130210000331", "P29_003": "16004", "P29_004": "和歌山県立串本古座高等学校", "P29_005": "和歌山県東牟婁郡串本町串本1522", "P29_006": "2", "P29_007": "0", "P29_008": "00", "P29_009": null }, "geometry": { "type": "Point", "coordinates": [ 135.779293179672152, 33.462296608860598 ] } },
{ "type": "Feature", "properties": { "P29_001": "30203", "P29_002": "D130210000340", "P29_003": "16004", "P29_004": "和歌山県立伊都中央高等学校", "P29_005": "和歌山県橋本市高野口町名古曽558", "P29_006": "2", "P29_007": "0", "P29_008": "00", "P29_009": null }, "geometry": { "type": "Point", "coordinates": [ 135.563572552731927, 34.305897678024344 ] } },
{ "type": "Feature", "properties": { "P29_001": "30201", "P29_002": "D130210000359", "P29_003": "16004", "P29_004": "和歌山市立和歌山高等学校", "P29_005": "和歌山県和歌山市六十谷45", "P29_006": "3", "P29_007": "0", "P29_008": "00", "P29_009": null }, "geometry": { "type": "Point", "coordinates": [ 135.19836075046473, 34.261148273424055 ] } },
{ "type": "Feature", "properties": { "P29_001": "30202", "P29_002": "D130210000368", "P29_003": "16004", "P29_004": "海南市立海南下津高等学校", "P29_005": "和歌山県海南市下津町丸田87", "P29_006": "3", "P29_007": "0", "P29_008": "00", "P29_009": null }, "geometry": { "type": "Point", "coordinates": [ 135.158018039278346, 34.127485842270445 ] } },
{ "type": "Feature", "properties": { "P29_001": "30206", "P29_002": "D130210000377", "P29_003": "16004", "P29_004": "和歌山県立南紀高等学校", "P29_005": "和歌山県田辺市学園1-88", "P29_006": "2", "P29_007": "0", "P29_008": "00", "P29_009": null }, "geometry": { "type": "Point", "coordinates": [ 135.389183582090055, 33.724972227631561 ] } },
{ "type": "Feature", "properties": { "P29_001": "30201", "P29_002": "D130210000386", "P29_003": "16004", "P29_004": "和歌山県立きのくに青雲高等学校", "P29_005": "和歌山県和歌山市吹上5-6-8", "P29_006": "2", "P29_007": "0", "P29_008": "00", "P29_009": null }, "geometry": { "type": "Point", "coordinates": [ 135.175117842345287, 34.217598675944252 ] } },
{ "type": "Feature", "properties": { "P29_001": "30201", "P29_002": "D130310000017", "P29_003": "16004", "P29_004": "和歌山信愛高等学校", "P29_005": "和歌山県和歌山市屋形町2-23", "P29_006": "4", "P29_007": "0", "P29_008": "00", "P29_009": null }, "geometry": { "type": "Point", "coordinates": [ 135.17896674242877, 34.22946305581403 ] } },
{ "type": "Feature", "properties": { "P29_001": "30201", "P29_002": "D130310000026", "P29_003": "16004", "P29_004": "開智高等学校", "P29_005": "和歌山県和歌山市直川113-2", "P29_006": "4", "P29_007": "0", "P29_008": "00", "P29_009": null }, "geometry": { "type": "Point", "coordinates": [ 135.211303991785343, 34.259573142211337 ] } },
{ "type": "Feature", "properties": { "P29_001": "30344", "P29_002": "D130310000035", "P29_003": "16004", "P29_004": "高野山高等学校", "P29_005": "和歌山県伊都郡高野町高野山212", "P29_006": "4", "P29_007": "0", "P29_008": "00", "P29_009": null }, "geometry": { "type": "Point", "coordinates": [ 135.577235461068767, 34.21661022123925 ] } },
{ "type": "Feature", "properties": { "P29_001": "30207", "P29_002": "D130310000044", "P29_003": "16004", "P29_004": "近畿大学附属新宮高等学校", "P29_005": "和歌山県新宮市新宮4966", "P29_006": "4", "P29_007": "0", "P29_008": "00", "P29_009": null }, "geometry": { "type": "Point", "coordinates": [ 135.998489453332638, 33.715403051952329 ] } },
{ "type": "Feature", "properties": { "P29_001": "30202", "P29_002": "D130310000053", "P29_003": "16004", "P29_004": "智辯学園和歌山高等学校", "P29_005": "和歌山県和歌山市冬野2066-1", "P29_006": "4", "P29_007": "0", "P29_008": "00", "P29_009": null }, "geometry": { "type": "Point", "coordinates": [ 135.211887499387359, 34.174095607681409 ] } },
{ "type": "Feature", "properties": { "P29_001": "30201", "P29_002": "D130310000062", "P29_003": "16004", "P29_004": "近畿大学附属和歌山高等学校", "P29_005": "和歌山県和歌山市善明寺516", "P29_006": "4", "P29_007": "0", "P29_008": "00", "P29_009": null }, "geometry": { "type": "Point", "coordinates": [ 135.183785681712976, 34.268480770221124 ] } },
{ "type": "Feature", "properties": { "P29_001": "30392", "P29_002": "D130310000071", "P29_003": "16004", "P29_004": "和歌山南陵高等学校", "P29_005": "和歌山県日高郡日高川町和佐2223-5", "P29_006": "4", "P29_007": "0", "P29_008": "00", "P29_009": null }, "geometry": { "type": "Point", "coordinates": [ 135.204096646464734, 33.885303299012094 ] } },
{ "type": "Feature", "properties": { "P29_001": "30203", "P29_002": "D130310000080", "P29_003": "16004", "P29_004": "初芝橋本高等学校", "P29_005": "和歌山県橋本市小峰台2-6-1", "P29_006": "4", "P29_007": "0", "P29_008": "00", "P29_009": null }, "geometry": { "type": "Point", "coordinates": [ 135.630307729840212, 34.353355939950248 ] } },
{ "type": "Feature", "properties": { "P29_001": "30304", "P29_002": "D130310000099", "P29_003": "16004", "P29_004": "りら創造芸術高等学校", "P29_005": "和歌山県海草郡紀美野町真国宮56", "P29_006": "4", "P29_007": "0", "P29_008": "00", "P29_009": null }, "geometry": { "type": "Point", "coordinates": [ 135.376647851339584, 34.169730953018998 ] } },
{ "type": "Feature", "properties": { "P29_001": "30304", "P29_002": "D130310000106", "P29_003": "16004", "P29_004": "慶風高等学校", "P29_005": "和歌山県海草郡紀美野町田64", "P29_006": "4", "P29_007": "0", "P29_008": "00", "P29_009": null }, "geometry": { "type": "Point", "coordinates": [ 135.416187132833329, 34.139764020714644 ] } },
{ "type": "Feature", "properties": { "P29_001": "30304", "P29_002": "D130210000135", "P29_003": "16004", "P29_004": "和歌山県立海南高等学校", "P29_005": "和歌山県紀美野町動木1515", "P29_006": "2", "P29_007": "0", "P29_008": "02", "P29_009": "大成校舎" }, "geometry": { "type": "Point", "coordinates": [ 135.305087409135695, 34.163238912224728 ] } },
{ "type": "Feature", "properties": { "P29_001": "30304", "P29_002": "D130210000135", "P29_003": "16004", "P29_004": "和歌山県立海南高等学校", "P29_005": "和歌山県海草郡紀美野町毛原中689", "P29_006": "2", "P29_007": "0", "P29_008": "03", "P29_009": "美里分校" }, "geometry": { "type": "Point", "coordinates": [ 135.453445411678302, 34.153552752458694 ] } },
{ "type": "Feature", "properties": { "P29_001": "30204", "P29_002": "D130210000153", "P29_003": "16004", "P29_004": "和歌山県立箕島高等学校", "P29_005": "和歌山県有田市宮原町新町416", "P29_006": "2", "P29_007": "0", "P29_008": "02", "P29_009": "宮原校舎（機械科実習棟）" }, "geometry": { "type": "Point", "coordinates": [ 135.177526570944877, 34.075247478982853 ] } }
]
}
